name,address,city,phone,email,website,category
Cho Thuê Nhanh Hơn - Công Ty TNHH Thương Mại Và Dịch Vụ Cho Thuê Nhanh Hơn,"33 Hoàng Hoa Thám, P. Tân Chính, Q. Thanh Khê, ",Tp. Đà Nẵng,0905 984 486 - 098 20 999 20            ,admin@thuenhanhhon.com                            ,http://thuenhanhhon.com,Bất Động Sản - Dịch Vụ Bất Động Sản
Công Ty TNHH S2 Vina,"Thôn Tiêu Sơn, X. Tương Giang, TX. Từ Sơn, ",Bắc Ninh,0913004197                              ,lienhe@s2vina.com                                 ,,Bất Động Sản - Dịch Vụ Bất Động Sản
Bất Động Sản IMUABANBDS - Công Ty CP IMUABANBDS,"16 Nguyễn Sơn Hà, P. Hòa Cường Bắc, Q. Hải Châu, ",Tp. Đà Nẵng,0935373173                              ,imuabanbds@gmail.com                              ,http://imuabanbds.vn,Bất Động Sản - Dịch Vụ Bất Động Sản
Bất Động Sản Phú Mỹ Tâm - Công Ty TNHH Thương Mại Và Dịch Vụ Phú Mỹ Tâm,"KP. Mỹ Thạnh, X. Mỹ Xuân, H. Tân Thành, ",Bà Rịa-Vũng Tàu,"0965 886 168, 0982 526 134              ",phumytam@gmail.com                                ,http://phumytamtanthanh.com,Bất Động Sản - Dịch Vụ Bất Động Sản
Saigon Office - Công Ty TNHH Saigon Office,"Số 208 Nguyễn Trãi, Phường Phạm Ngũ Lão, Quận 1, ",Tp. Hồ Chí Minh (TPHCM),"(028) 39252582, Hotline: 0908.600.359         ",info@saigonoffice.com.vn                          ,http://saigonoffice.com.vn,Bất Động Sản - Dịch Vụ Bất Động Sản
Bất Động Sản Thái Bình Thịnh Vượng - Công Ty TNHH ĐT Bất Động Sản Thái Bình Thịnh Vượng,"465/1/4 Tân Kỳ Tân Quý, P. Tân Quý, Q. Tân Phú, ",Tp. Hồ Chí Minh (TPHCM),"(028) 38473668, Hotline: 079 98 777 68        ",tbtvland@gmail.com                                ,http://thaibinhthinhvuong.com.vn,Bất Động Sản - Dịch Vụ Bất Động Sản
Phúc Đạt - Công Ty TNHH Sản Xuất Và Thương Mại Phúc Đạt,"4A/19 Khu Phố Thống Nhất, P. Dĩ An, TX. Dĩ An, ",Bình Dương,(0274) 3733888                                 ,phucdat207@gmail.com                              ,http://www.phucdat.com.vn,Bất Động Sản - Dịch Vụ Bất Động Sản
An Phú - Công Ty Cổ Phần An Phú,"606 Trần Hưng Đạo, P. 2, Q. 5, ",Tp. Hồ Chí Minh (TPHCM),(028) 39238545                                ,anphucorp@anphucorp.com.vn                        ,http://www.anphucorp.com.vn,Bất Động Sản - Dịch Vụ Bất Động Sản
Vạn Thịnh Phát - Công Ty Cổ Phần Đầu Tư Vạn Thịnh Phát,"193-203 Trần Hưng Đạo, P. Cô Giang, Q. 1, ",Tp. Hồ Chí Minh (TPHCM),(028) 38367749                                ,info@vtpinvestment.com                            ,http://www.vtpinvestment.com,Bất Động Sản - Dịch Vụ Bất Động Sản
MEEYLAND  - Văn Phòng Đại Diện Chi Nhánh Đồng Nai,"Trường Sĩ Quan Lục Quân 2, P. Tam Phước, Tp. Biên Hòa, ",Đồng Nai,035 927 63 63  (zalo)                   ,danh.nguyenthanherg@gmail.com                     ,http://meeylanddongnai.com,Bất Động Sản - Dịch Vụ Bất Động Sản
Quản Lý Tòa Nhà HTC Sài Gòn - Công Ty TNHH Dịch Vụ Quản Lý Tòa Nhà HTC Sài Gòn,,Tp. Hồ Chí Minh (TPHCM),"(028) 66719090, 0903045007                    ",quanlyhtcsg@gmail.co                              ,http://htcsaigon.com,Bất Động Sản - Dịch Vụ Bất Động Sản
Bất Động Sản An Cư - Công Ty CP Dịch Vụ Bất Động Sản An Cư,"Tầng 23 Tòa Nhà Vinaconex 9, Đ. Phạm Hùng, P. Mễ Trì, Q. Nam Từ Liêm, ",Hà Nội,0969017557                              ,admin@officespace.vn                              ,http://officespace.vn,Bất Động Sản - Dịch Vụ Bất Động Sản
Công Ty Cổ Phần Đầu Tư Minh Hưng,"R4-Vinhomes Royal City, 72A, Nguyễn Trãi, Thanh Xuân, ",Hà Nội,(024) 62533586                                ,minhhunghomes@gmail.com                           ,http://minhhungland.vn,Bất Động Sản - Dịch Vụ Bất Động Sản
Công Ty TNHH Đầu Tư Châu Âu Europ Invest,"Tầng 12, Tòa A1 - Viettel Complex, 285 Cách Mạng Tháng 8, P. 12, Q. 10, ",Tp. Hồ Chí Minh (TPHCM),(028) 62882882                                ,vn@europ-invest.com                               ,http://europ-invest.com,Bất Động Sản - Dịch Vụ Bất Động Sản
Công Ty Liên Doanh TNHH Khu Công Nghiệp Việt Nam-Singapore,"Số 8, Đại lộ Hữu Nghị, Khu Công Nghiệp Việt Nam-Singapore, Phường Bình Hòa, Thị xã Thuận An, ",Bình Dương,(0274) 3743898                                 ,marketing@vsip.com.vn                             ,http://vsip.com.vn,Bất Động Sản - Dịch Vụ Bất Động Sản
The Landmark - Công Ty Liên Doanh International Burotel,,Tp. Hồ Chí Minh (TPHCM),(028) 38222098                                ,info@thelandmarkvietnam.com                       ,http://www.thelandmarkvietnam.com,Bất Động Sản - Dịch Vụ Bất Động Sản
Công Ty TNHH Đất Vàng Hải Phòng,"Số 12 Lạch tray, Ngô Quyền, ",Tp. Hải Phòng,0934207229                              ,datvanghaiphong@gmail.com                         ,http://datvanghaiphong.com.vn,Bất Động Sản - Dịch Vụ Bất Động Sản
Đất Xanh Miền Bắc - Công Ty CP Dịch Vụ và Địa Ốc Đất Xanh Miền Bắc,"Tầng 18, Toà Nhà Center Building, Số 1 Nguyễn Huy Tưởng, Q. Thanh Xuân, ",Hà Nội,(024) 73038181                                ,info@datxanhmienbac.vn                            ,http://datxanhmienbac.com.vn,Bất Động Sản - Dịch Vụ Bất Động Sản
Công Ty Cổ Phần Dịch Vụ Và Địa ốc Đất Xanh Miền Bắc,"Số 1, Tòa Nhà Center Building Nguyễn Huy Tưởng, Q. Thanh Xuân, ",Hà Nội,(024) 0986004986                              ,info@datxanhmienbac.vn                            ,http://datxanhmienbac.com.vn,Bất Động Sản - Dịch Vụ Bất Động Sản
CenHomes - Công Ty CP Dịch Vụ Bất Động Sản Ngôi Sao Toàn Cầu,"Số 137 Nguyễn Ngọc Vũ, P. Trung Hòa, Q. Cầu Giấy, ",Hà Nội,18006268                                ,hotro@cenhomes.vn                                 ,http://cenhomes.vn,Bất Động Sản - Dịch Vụ Bất Động Sản
Công Ty TNHH Phát Triển Thương Mại Và Dịch Vụ Nhật An,"30D Kim Mã Thượng, Ba Đình, ",Hà Nội,0971279412                              ,nhatangroup.com@gmail.com                         ,http://nhatangroup.com,Bất Động Sản - Dịch Vụ Bất Động Sản
Toravy Việt Nam,"Số 3715, Ruby 2, Goldmark City, 136 Hồ Tùng Mậu, Q. Cầu Giấy, ",Hà Nội,(024) 37154300                          ,info@toravy.com                                   ,http://hanoihousing.rent,Bất Động Sản - Dịch Vụ Bất Động Sản
Công Ty TNHH Thương Mại Dịch Vụ V-House,"D1, 22 Khu phố Mỹ Toàn 3, Đường Nguyễn Văn Linh, Phường Tân Phong, Quận 7, ",Tp. Hồ Chí Minh (TPHCM),(028) 0918049500                              ,saigonhouse@hotmail.com                           ,http://vhousevietnam.com,Bất Động Sản - Dịch Vụ Bất Động Sản
Ruby Miền Đông,"Ô 9 NP4, Đại Lộ Bình Dương, P. Phú Hoà, Thủ Dầu 1, ",Bình Dương,0938553351                              ,nguyentuan553351@gmail.com                        ,http://https://youtu.be/gs8YfcFXA38,Bất Động Sản - Dịch Vụ Bất Động Sản
Công Ty CP Bất Động Sản Alpha Housing,"Phòng 809, Chung Cư Vườn Đào, 689 Lạc Long Quân, Q. Tây Hồ, ",Hà Nội,0934363998                              ,support@alphahousing.vn                           ,http://alphahousing.vn,Bất Động Sản - Dịch Vụ Bất Động Sản
Công Ty CP Bất Động Sản Cần Thơ,"29C Mậu Thân, P. An Hòa, Q. Ninh Kiều, ",TP. Cần Thơ,0796999889                              ,cantho@datxanhmientay.net                         ,http://datxanhmientay.net/cantho,Bất Động Sản - Dịch Vụ Bất Động Sản
Công Ty TNHH Bất Động Sản Nhà Phố 247,"145 Liên Phường, P. Phước Long B, Q. 9, ",Tp. Hồ Chí Minh (TPHCM),0937286502                              ,nhapho247.vn@gmail.com                            ,http://nhapho247.vn,Bất Động Sản - Dịch Vụ Bất Động Sản
Đinh Lê - Cty Cổ Phần Nhà Thép Đinh Lê,"Toà nhà Dinhle Office Building, 123B Trần Đăng Ninh, Cầu Giấy, ",Hà Nội,(024) 37849851                                ,info@dinhle.com.vn                                ,http://www.dinhle.com.vn,Bất Động Sản - Dịch Vụ Bất Động Sản
Công Ty Bất Động Sản Seareal - S,"27 Quốc lộ 13, P. 26, Q. Bình Thạnh, ",Tp. Hồ Chí Minh (TPHCM), ,info@seareal.vn                                   ,http://seareal.vn,Bất Động Sản - Dịch Vụ Bất Động Sản
Công Ty TNHH Chính Phủ LAND,"1007 Phan Văn Trị, P. 7, Q. Gò Vấp, ",Tp. Hồ Chí Minh (TPHCM),0948899222                              ,hotrochinhchu@gmail.com                           ,,Bất Động Sản - Dịch Vụ Bất Động Sản
Công Ty TNHH Dịch Vụ Xây Dựng Bất Động Sản Khởi Phát,"71/23 Đào Tông Nguyên, KP. 7, TT. Nhà Bè, H. Nhà Bè, ",Tp. Hồ Chí Minh (TPHCM),0944428824                              ,cskh.khoiphatland@gmail.com                       ,http://khoiphatland.com,Bất Động Sản - Dịch Vụ Bất Động Sản
Công Ty Cổ Phần Đầu Tư Kinh Doanh Bất Động Sản The One,"2A Điện Biên Phủ, P. 25, Q. Bình Thạnh, ",Tp. Hồ Chí Minh (TPHCM),0932011225                              ,batdongsan.theoneland@gmail.com                   ,http://www.theoneland.com.vn,Bất Động Sản - Dịch Vụ Bất Động Sản
Công Ty TNHH Đầu Tư Dịch Vụ Sản Xuất Minh Long,"Tổ 1, Ấp Xóm Gò, Xã Long Phước, Huyện Long Thành, ",Đồng Nai,0938059488                              ,duonghoaha@gmail.com                              ,http://muabannhadatdaphongthuy.com,Bất Động Sản - Dịch Vụ Bất Động Sản
Công Ty TNHH Dịch Vụ Thương Mại Điện Tử Trần Gia,"Kp. 4, P. Hắc Dịch, TX. Phú Mỹ, ",Bà Rịa-Vũng Tàu,(0254) 3890425                                 ,contact@alonhadat.com.vn                          ,http://alonhadat.com.vn,Bất Động Sản - Dịch Vụ Bất Động Sản
Công Ty Cổ Phần Bất Động Sản Danh Khôi,"17 Mê Linh, Phường 19, Bình Thạnh, ",Tp. Hồ Chí Minh (TPHCM),"0886374737, 0939541337                  ",congtydanhkhoireal@gmail.com                      ,http://danhkhoireal.vn,Bất Động Sản - Dịch Vụ Bất Động Sản
Công Ty CP Đầu Tư Kinh Doanh Bất Động Sản Vietnam Groove,"Số 07, Đường 41, KP. 2, P. Bình An, Q. 2, ",Tp. Hồ Chí Minh (TPHCM),0909318336                              ,info@vietnamgroove.com.vn                         ,http://Vietnamgroove.com.vn,Bất Động Sản - Dịch Vụ Bất Động Sản
REE Corp - Công Ty CP Cơ Điện Lạnh,"Số 364 Cộng Hòa (Khu E. Town), P. 13,  Q. Tân Bình, ",Tp. Hồ Chí Minh (TPHCM),(028) 38100017                                ,ree@reecorp.com.vn                                ,http://reecorp.com,Bất Động Sản - Dịch Vụ Bất Động Sản
Saigon Centre - Công Ty TNHH Keppel Land Watco I,"65 Lê Lợi, P. Bến Nghé, Q. 1, ",Tp. Hồ Chí Minh (TPHCM),(028) 38232500                                ,marketing@saigoncentre.com.vn                     ,http://keppelland.com.sg,Bất Động Sản - Dịch Vụ Bất Động Sản
Công Ty TNHH MTV Hạ Trâm,"12-14 Đường nội Khu Hưng Gia 4, Phú Mỹ Hưng, ",Tp. Hồ Chí Minh (TPHCM),"0903903497, 0909979883                  ",thienhuong_real@yahoo.com                         ,http://hatramhome.com,Bất Động Sản - Dịch Vụ Bất Động Sản
Đại Việt Group - Công Ty CP Đầu Tư Và Công Nghệ Đại Việt,"Tầng 31, Keangnam Hanoi Landmark Tower, Khu E6, KĐT Cầu Giấy, P. Mễ Trì, Q. Nam Từ Liêm, ",Hà Nội,(024) 32262408                                ,"hotro@batdongsan.com.vn, cskh@batdongsan.com.vn   ",http://batdongsan.com.vn,Bất Động Sản - Dịch Vụ Bất Động Sản
Bất Động Sản Nam Dương - Công Ty TNHH Dịch Vụ Tư Vấn Xây Dựng Nam Dương,"57 Khương Trung, Q. Thanh Xuân, ",Hà Nội,0989678165                              ,phitran185@gmail.com                              ,http://bdsnamduong.com	,Bất Động Sản - Dịch Vụ Bất Động Sản
Bất Động Sản Trương Dũng,"Số 28, Ngõ 32, Đường Bưởi, P. Ngọc Khánh, Q. Ba Đình, ",Hà Nội,0913090890                              ,dungtv.tgd1@gmail.com                             ,,Bất Động Sản - Dịch Vụ Bất Động Sản
Công Ty TNHH Thương Mại Dịch Vụ Tấn Hưng Thịnh Phát,"64/1 Khu Phố Bình Phước A, P. Bình Chuẩn, TX. Thuận An, ",Bình Dương,,baobihungthinhphat@gmail.com                      ,http://hungthinhphatjutebag.com,Bất Động Sản - Dịch Vụ Bất Động Sản
Công Ty TNHH Homedy,"Tầng 3, Tòa A, Imperia Garden, 203 Nguyễn Huy Tưởng, Q. Thanh Xuân, ",Hà Nội,0788267268                              ,contact@homedy.com                                ,http://homedy.com,Bất Động Sản - Dịch Vụ Bất Động Sản
Công Ty TNHH Địa ốc OCEAN,"29A, KP. 9, P. An Bình, TP. Biên Hòa, ",Đồng Nai,0911958899                              ,diaococean@gmail.com                              ,http://diaococean.com		,Bất Động Sản - Dịch Vụ Bất Động Sản
Công Ty TNHH Đầu Tư Dịch Vụ Sản Xuất Minh Long,"Tổ 1, Ấp Xóm Gò, Xã Long Phước, Huyện Long Thành, ",Đồng Nai,0938059488                              ,duonghoaha@gmail.com                              ,http://muabannhadatdaphongthuy.com,Bất Động Sản - Dịch Vụ Bất Động Sản
Công Ty CP DV Bất Động Sản Chuyên Gia Môi Giới,"Số 11 Hồ Xuân Hương, P. 6, Q. 3, ",Tp. Hồ Chí Minh (TPHCM),0868689325                              ,info@chuyengiamoigioiv.com                        ,http://chuyengiamoigioi.com,Bất Động Sản - Dịch Vụ Bất Động Sản
Công Ty CP Địa Ốc Viethomes,"Số 2, Ngõ 219 Trung Kính, P. Yên Hòa, Q. Cầu Giấy, ",Hà Nội,0934955558                              ,marketing.diaocviethomes@gmail.com                ,http://diaocviethomes.com.vn,Bất Động Sản - Dịch Vụ Bất Động Sản
Công Ty TNHH Dịch Vụ Thương Mại Điện Tử Trần Gia,"Kp. 4, P. Hắc Dịch, TX. Phú Mỹ, ",Bà Rịa-Vũng Tàu,(0254) 3890425                                 ,contact@alonhadat.com.vn                          ,http://alonhadat.com.vn,Bất Động Sản - Dịch Vụ Bất Động Sản
Công Ty TNHH Bất Động Sản Nhà Phố 247,"145 Liên Phường, P. Phước Long B, Q. 9, ",Tp. Hồ Chí Minh (TPHCM),0937286502                              ,nhapho247.vn@gmail.com                            ,http://nhapho247.vn,Bất Động Sản - Dịch Vụ Bất Động Sản
Công Ty CP Phát Triển Địa Ốc á Châu,"72 Đường Số 8, Hiệp Thành 3, Thủ Dầu Một, ",Bình Dương,0968376137                              ,84nguyenvietha@gmail.com                          ,http://diaocachau.com.vn,Bất Động Sản - Dịch Vụ Bất Động Sản
Công Ty TNHH Homedy,"Tầng 3, Tòa A, Imperia Garden, 203 Nguyễn Huy Tưởng, Q. Thanh Xuân, ",Hà Nội,0788267268                              ,contact@homedy.com                                ,http://homedy.com,Bất Động Sản - Dịch Vụ Bất Động Sản
Công Ty TNHH Phát Triển Phú Mỹ Hưng,"Tầng Trệt Cao ốc Lawrence S.Ting, 801 Đại Lộ Nguyễn Văn Linh, P. Tân Phú, Q. 7, ",Tp. Hồ Chí Minh (TPHCM),0907732632                              ,thuongthuong@pmh.com.vn                           ,http://phumyhung.com.vn,Bất Động Sản - Dịch Vụ Bất Động Sản
Thế Giới Căn Hộ 24H,"Hưng Gia 4, Phú Mỹ Hưng, Q. 7, ",Tp. Hồ Chí Minh (TPHCM),0938 116 663                            ,thegioicanho24h@gmail.com                         ,http://www.thegioicanho24h.com,Bất Động Sản - Dịch Vụ Bất Động Sản
Công Ty TNHH Dịch vụ Chuyên nghiệp An Tiêm Việt Nam,"Số 133, Phố Vệ Hồ, Xuân La, Tây Hồ, ",Hà Nội,(024) 37560011                                ,info@atvpro.com.vn                                ,http://atvpro.com.vn,Bất Động Sản - Dịch Vụ Bất Động Sản
Nhà Đất Sơn Nghĩa,"111 Đường Số 9, Phường 9, Quận Gò Vấp, ",Tp. Hồ Chí Minh (TPHCM),0908418492                              ,nhadatsonnghia@gmail.com                          ,http://www.nhadatsonnghia.com,Bất Động Sản - Dịch Vụ Bất Động Sản
Công Ty TNHH MTV Kết Nối Và Đầu Tư Ngọc Danh,"376 ấp Tân Thiện, Xã Tân Phong, H. Cai Lậy, ",Tiền Giang,0982710454                              ,lapcaibe54@gmail.com                              ,http://ketnoivadautu.com,Bất Động Sản - Dịch Vụ Bất Động Sản
Bất Động Sản Quang Bình,"Vĩnh Tân, Tân Uyên, ",Bình Dương,0933939945                              ,quangminh6138@gmail.com                           ,,Bất Động Sản - Dịch Vụ Bất Động Sản
Công Ty Cổ Phần  Kinh Doanh Dịch Vụ Quản Lý Bất Động Sản Homecare,"Nhà D5/152 Thụy Khuê, Q.Tây Hồ, ",Hà Nội,(024) 37830933                                ,service@homecare.com.vn                           ,http://homecare.com.vn,Bất Động Sản - Dịch Vụ Bất Động Sản
Công Ty TNHH Một Thành Viên Môi Giới Bất Động Sản Bảo An,"Số 02 Trương Quốc Dũng, ",Tp. Hồ Chí Minh (TPHCM),0909905095                              ,info@saigonlease.com                              ,http://saigonlease.com,Bất Động Sản - Dịch Vụ Bất Động Sản
Nhà Đất Hoài Lương,"QL 1A Linh Xuân, Thủ Đúc, ",Bình Dương,0936431879                              ,hoailuongland@gmail.com                           ,http://nhadathoailuong.com,Bất Động Sản - Dịch Vụ Bất Động Sản
Công Ty Cổ Phần Đầu Tư Địa ốc Nam Minh,"F16 Đờng 30, KTT. Khánh Hội, Phường 6, Quận 4, ",Tp. Hồ Chí Minh (TPHCM),39433456                                ,duyminhp@gmail.com                                ,http://namminh.com.vn,Bất Động Sản - Dịch Vụ Bất Động Sản
Công Ty TNHH Dịch Vụ Bất Động Sản Sao á Châu,"Lầu 6, 454 Nguyễn Thị Minh Khai, P. 5, Q. 3, ",Tp. Hồ Chí Minh (TPHCM),(028) 62915403                                ,vnsky168@yahoo.com.vn                             ,http://www.starasiaproperties.com.vn,Bất Động Sản - Dịch Vụ Bất Động Sản
Sàn Giao Dịch Bất Động Sản Hiển Vinh,"Trần Văn Trà, X. Phú Đông, Nhơn Trạch, ",Đồng Nai,0902276248	                             ,muadatnhontrach.net@gmail.com                     ,http://muadatnhontrach.net,Bất Động Sản - Dịch Vụ Bất Động Sản
Công Ty TNHH Liên Kết Toàn Cầu Nguyệt Cát,"16/6 Đường Bùi Thị Xuân, KP Tân Thắng, P. Tân Bình, TX. Dĩ An, ",Bình Dương,"0938308786, 0937308786                  ",hoanghaibdm@gmail.com                             ,http://moonsandlink.bizz.vn,Bất Động Sản - Dịch Vụ Bất Động Sản
Công Ty Cổ Phần Thương Mại & Dịch Vụ Dầu Khí Biển,"Phòng 209 - 211, Lầu 2, Tòa Nhà Petro Vietnam Tower, 1-5 Lê Duẩn, P. Bến Nghé, Q. 1, ",Tp. Hồ Chí Minh (TPHCM),(028) 39106666                                ,petrosetco.ots@petrosetco.com.vn                  ,http://www.pots.com.vn,Bất Động Sản - Dịch Vụ Bất Động Sản
Dịch Vụ Bất Động Sản - 38 LAND,"Số 82, đường S1, phường Tây Thạnh, quận Tân Phú, ",Tp. Hồ Chí Minh (TPHCM),0898678681                              ,hotro@38land.com                                  ,http://38land.com,Bất Động Sản - Dịch Vụ Bất Động Sản
Công Ty TNHH Địa ốc Ninh Kiều,"309A Nguyễn Văn Linh, Phường An Khánh, Quận Ninh Kiều, ",TP. Cần Thơ,0901039139                              ,diaocninhkieu@gmail.com                           ,http://canthomuaban.vn,Bất Động Sản - Dịch Vụ Bất Động Sản
Kênh Bất Động Sản Home GoDy,"39/B 411 Huỳnh Văn Chính, P. Phú Trung, Q. Tân Phú, ",Tp. Hồ Chí Minh (TPHCM),0902594927	                             ,mimoxabds@gmail.com	                              ,http://homegody.com,Bất Động Sản - Dịch Vụ Bất Động Sản
Công Ty Cổ Phần Phát Triển Địa ốc CIENCO 5,"TN BQL dự án, Lô CT1, KĐT Thanh Hà B - Cienco5, P. Kiến Hưng, Q Hà Đông, ",Hà Nội,(024) 33552111                                ,vp@cienco5land.com.vn                             ,http://cienco5land.com.vn,Bất Động Sản - Dịch Vụ Bất Động Sản
Công Ty CP Đầu Tư Địa Ốc Viễn Đông Land,"Số 17, Đồng Xoài, P. 13, Q. Tân Bình, ",Tp. Hồ Chí Minh (TPHCM),0911079439                              ,diaocviendongland@gmail.com                       ,http://viendongland.com.vn,Bất Động Sản - Dịch Vụ Bất Động Sản
Công Ty Cổ Phần Quốc Tê Phong Nhã,"95 Khâm Thiên, Đống Đa, ",Hà Nội,(024) 35187989                                ,phongnha.director@gmail.com                       ,http://phongnhamobile.com,Bất Động Sản - Dịch Vụ Bất Động Sản
Công Ty Bất Động Sản Nhà Phố Đồng Nai,"C5/1, QL1A, KP. 1,P. Long Bình Tân, TP. Biên Hòa, ",Đồng Nai,0986102942                              ,nhaphodongnai@gmail.com                           ,http://nhaphodongnai.com	,Bất Động Sản - Dịch Vụ Bất Động Sản
Công Ty Cổ Phần Thương Mại và Đầu Tư I.A.M Việt Nam,"Tầng 1, Số 13, Ngõ 110, Tổ 26, Đường Trung Kính, P. Yên Hoà, Q. Cầu Giấy, ",Hà Nội,(024) 62822323                                ,bds.iamvietnam@gmail.com                          ,http://khudothituhiep.com,Bất Động Sản - Dịch Vụ Bất Động Sản
Công Ty Cổ Phần Đầu Tư Thương Mại Tạp Phẩm Sài Gòn,"35 Lê Quý Đôn, P. 7, Q. 3, ",Tp. Hồ Chí Minh (TPHCM),(028) 39325687                                ,info@tocontapsaigon.com                           ,http://www.tocontapsaigon.com,Bất Động Sản - Dịch Vụ Bất Động Sản
Công Ty TNHH Bất Động Sản Phú Minh,"1216 Lê Hồng Phong, TP. Nha Trang, ",Khánh Hòa,0905263048                              ,congtyphuminhland@gmail.com                       ,,Bất Động Sản - Dịch Vụ Bất Động Sản
Văn Phòng Nhà Đất Minh Luân,"77/13/36 Đường Phạm Đăng Giảng, P. Bình Hưng Hòa, Q. Bình Tân ",Tp. Hồ Chí Minh (TPHCM),0903784699                              ,nhadatminhluan@gmail.com                          ,http://nhadatminhluan.blogspot.com,Bất Động Sản - Dịch Vụ Bất Động Sản
Công Ty Cổ Phần Xuất Nhập Khẩu Giày Dép Nam á,"130-132 Hồng Hà, P. 9, Q. Phú Nhuận, ",Tp. Hồ Chí Minh (TPHCM),(028) 38478794                                ,namafootwearimex@hcm.vnn.vn                       ,,Bất Động Sản - Dịch Vụ Bất Động Sản
Công Ty TNHH Đầu Tư Xây Dựng Và Phát Triển Hạ Tầng,"157 Trần Phú, Q. Hà Đông, ",Hà Nội,(024) 33527596                                ,nguyenhien3431@gmail.com                          ,,Bất Động Sản - Dịch Vụ Bất Động Sản
Ancasa Land - Công Ty TNHH Tư Vấn Bất Động Sản Đại An,"B2.1, BT07, Ô Số 5, KĐT Thanh Hà, Thanh Oai, ",Hà Nội,0962162616                              ,ancasaland@gmail.com                              ,http://ancasa.vn,Bất Động Sản - Dịch Vụ Bất Động Sản
Công Ty TNHH Bất Động Sản Đông Nam I.K,"Số 4, Tháp G, Khu Căn Hộ Sunrise Riverside, Đường Nguyễn Hữu Thọ, P. Phước Kiển, Nhà Bè, ",Tp. Hồ Chí Minh (TPHCM),"(028) 62874595, 62874586                      ",phamhoangchau@yahoo.com                           ,http://dongnamikreal.com,Bất Động Sản - Dịch Vụ Bất Động Sản
Công Ty TNHH Bất Động Sản Nội Hà - HANPRO,"Phòng 903, B11B, Tổ 60, Khu Đô Thị Nam Trung Yên, P. Trung Hòa, Q. Cầu Giấy, ",Hà Nội,(024) 62810687                                ,rental@hanoiproperty.com                          ,http://www.hanoiproperty.com,Bất Động Sản - Dịch Vụ Bất Động Sản
Công Ty Cổ Phần Đầu Tư Phát Tirển Đồng Khánh,"Ki ốt 156C, Tòa M1C Chung Cư Thanh Hà Cienco 5, Kiến Hưng, Hà Đông, ",Hà Nội,0985888675                              ,khanh2684@gmail.com                               ,http://dongkhanhland.com,Bất Động Sản - Dịch Vụ Bất Động Sản
Công Ty TNHH Tư Vấn Nha Trang,"24B Pasteur, Xương Huân, Tp. Nha Trang, ",Khánh Hòa,6510216                                 ,services@nhatrangrenting.com                      ,http://nhatrangrenting.com,Bất Động Sản - Dịch Vụ Bất Động Sản
Công Ty Cổ Phần Đầu Tư Mekong Nam á,"Số 98/1 Ung Văn Khiêm, P. 25, Q. Bình Thạnh, ",Tp. Hồ Chí Minh (TPHCM),(028) 35122777                                ,mekongnama@gmail.com                              ,http://mekongnama.com.vn,Bất Động Sản - Dịch Vụ Bất Động Sản
Công Ty Cổ Phần Đầu Tư Và Phát Triển Kim Cương,"Tầng 15, Tòa Ecolife Capitol, Số 58 Tố Hữu, Q. Nam Từ Liêm, ",Hà Nội,0904994379                              ,Admin@dih.com.vn                                  ,http://dih.com.vn,Bất Động Sản - Dịch Vụ Bất Động Sản
Công Ty TNHH Đầu Tư Và Dịch Vụ Đăng Dương,"Xóm Bảo, X. Vân Nội, H. Đông Anh, ",Hà Nội,(024) 39560072                                ,dangduongland123@gmail.com                        ,http://dangduongland.com,Bất Động Sản - Dịch Vụ Bất Động Sản
Công Ty Cổ Phần Tư Vấn Địa ốc 19,"Thôn Hoàng Năm, X. Cổ Nhuế, H. Từ Liêm, ",Hà Nội,(024) 62659865                                ,lienhe@diaoc19.com.vn                             ,http://diaoc19.com.vn,Bất Động Sản - Dịch Vụ Bất Động Sản
Công Ty TNHH Đồng Biên,"72/15, KP 3, Đồng Khởi, P. Tân Hiệp, Tp. Biên Hòa, ",Đồng Nai,(0251) 3894456                                 ,dongbien@dongbien.com.vn                          ,http://dongbien.com.vn,Bất Động Sản - Dịch Vụ Bất Động Sản
Công Ty CP DV Bất Động Sản BB,"Số 63 Nguyễn Hữu Thọ, Khu Biệt Thự Dragon Parc 2, X. Phước Kiển, H. Nhà Bè, ",Tp. Hồ Chí Minh (TPHCM),0901339679                              ,toantranhanu@gmail.com                            ,http://tranvantoan.com,Bất Động Sản - Dịch Vụ Bất Động Sản
Nhà Xưởng Triệu Tuấn - Công Ty TNHH Đầu Tư Triệu Tuấn,"Số 52, Đường Số 1, KP. 2, P. Hòa Phú, TP. Thủ Dầu Một, ",Bình Dương,0982 417 542                            ,anh.woodpellet@gmail.com                          ,http://gotrieutuan.com,Bất Động Sản - Dịch Vụ Bất Động Sản
Công Ty Thông Tin Tư Vấn Và Mua Bán Nhà Đất,"Số 5, P. Võ Cường, Tp. Bắc Ninh, ",Bắc Ninh,"0904223076, 01669660786                 ",e2it_mc2_0pen@yahoo.com                           ,,Bất Động Sản - Dịch Vụ Bất Động Sản
Dịch Vụ Bất Động Sản - 38 LAND,"Số 82, đường S1, phường Tây Thạnh, quận Tân Phú, ",Tp. Hồ Chí Minh (TPHCM),0898678681                              ,hotro@38land.com                                  ,http://38land.com,Bất Động Sản - Dịch Vụ Bất Động Sản
Kênh Bất Động Sản Home GoDy,"39/B 411 Huỳnh Văn Chính, P. Phú Trung, Q. Tân Phú, ",Tp. Hồ Chí Minh (TPHCM),0902594927	                             ,mimoxabds@gmail.com	                              ,http://homegody.com,Bất Động Sản - Dịch Vụ Bất Động Sản
Công Ty CP Nhà Đất Mới,"Số 348, Tố Hữu, P. La Khê, Q. Hà Đông, ",Hà Nội,0936338139                              ,hr@nhadatmoi.net                                  ,http://nhadatmoi.net,Bất Động Sản - Dịch Vụ Bất Động Sản
Công Ty TNHH Tư Vấn Đầu Tư 456,"159 Xa Lộ Hà Nội, P. Thảo Điền, Q. 2, ",Tp. Hồ Chí Minh (TPHCM),0938839977                              ,info@456.com.vn                                   ,http://456.com.vn,Bất Động Sản - Dịch Vụ Bất Động Sản
Công Ty Cổ Phần Đồng Xoài Land,"ấp 3, Tiến Hưng, TP. Đồng Xoài, ",Bình Phước,0912941023                              ,gsa.phu@gmail.com                                 ,http://dongxoailand.net,Bất Động Sản - Dịch Vụ Bất Động Sản
Sàn Giao Dịch Bất Động Sản Thiên Kim,"159 Nguyễn Văn Linh, ",Tp. Đà Nẵng,0905647582                              ,phinguyen.thienkim@gmail.com		                    ,http://thienkimreal.com.vn				,Bất Động Sản - Dịch Vụ Bất Động Sản
Ancasa Land - Công Ty TNHH Tư Vấn Bất Động Sản Đại An,"B2.1, BT07, Ô Số 5, KĐT Thanh Hà, Thanh Oai, ",Hà Nội,0962162616                              ,ancasaland@gmail.com                              ,http://ancasa.vn,Bất Động Sản - Dịch Vụ Bất Động Sản
Công Ty Cổ Phần Xuất Nhập Khẩu Giày Dép Nam á,"130-132 Hồng Hà, P. 9, Q. Phú Nhuận, ",Tp. Hồ Chí Minh (TPHCM),(028) 38478794                                ,namafootwearimex@hcm.vnn.vn                       ,,Bất Động Sản - Dịch Vụ Bất Động Sản
Công Ty CP DV Bất Động Sản Phúc Hưng Sài Gòn,"137 Lê Quang Định, Phường 14, Bình Thạnh, ",Tp. Hồ Chí Minh (TPHCM),0987579205                              ,quoccuong60@gmail.com                             ,http://http://phuthanhcattuong.com,Bất Động Sản - Dịch Vụ Bất Động Sản
Công Ty TNHH Kovills,"Số 38A Hai Bà Trưng, Phường Tràng Tiền, Quận Hoàn Kiếm, ",Hà Nội,(024) 63274787                                ,tuan.leanh@kovills.com                            ,http://vn.kovills.com,Bất Động Sản - Dịch Vụ Bất Động Sản
Bất Động Sản Tấn Hưng Thịnh Phát - Công Ty TNHH Thương Mại Dịch Vụ Tấn Hưng Thịnh Phát,"64/1 KP. Bình Phước A, P. Bình Chuẩn, TX. Thuận An, ",Bình Dương,"(0274) 3798568, 0984 568 568                   ",baobihungthinhphat@gmail.com                      ,,Bất Động Sản - Dịch Vụ Bất Động Sản
Công Ty Bất Động Sản Nhà Phố Đồng Nai,"C5/1, QL1A, KP. 1,P. Long Bình Tân, TP. Biên Hòa, ",Đồng Nai,0986102942                              ,nhaphodongnai@gmail.com                           ,http://nhaphodongnai.com	,Bất Động Sản - Dịch Vụ Bất Động Sản
Công Ty TNHH Tư Vấn Nha Trang,"24B Pasteur, Xương Huân, Tp. Nha Trang, ",Khánh Hòa,6510216                                 ,services@nhatrangrenting.com                      ,http://nhatrangrenting.com,Bất Động Sản - Dịch Vụ Bất Động Sản
Công Ty Cổ Phần Bách Lộc Phát,"59A Đặng Thai Mai, Q. Thanh Khê, ",Tp. Đà Nẵng,(0236) 3616766                                 ,bachlocphat@gmail.com                             ,http://dananglease.com,Bất Động Sản - Dịch Vụ Bất Động Sản
Công Ty Cổ Phần Đầu Tư Thương Mại Tạp Phẩm Sài Gòn,"35 Lê Quý Đôn, P. 7, Q. 3, ",Tp. Hồ Chí Minh (TPHCM),(028) 39325687                                ,info@tocontapsaigon.com                           ,http://www.tocontapsaigon.com,Bất Động Sản - Dịch Vụ Bất Động Sản
Công Ty CP Bất Động Sản KAIZEN,"Số 3 Dãy C12A Khu TT Đại Học Ngoại Ngữ, P. Dịch Vọng Hậu, Q. Cầu Giấy, ",Hà Nội,0985533882                              ,ba.chien.dn@gmail.com                             ,http://idvila.com,Bất Động Sản - Dịch Vụ Bất Động Sản
Công Ty TNHH Bất Động Sản Nội Hà - HANPRO,"Phòng 903, B11B, Tổ 60, Khu Đô Thị Nam Trung Yên, P. Trung Hòa, Q. Cầu Giấy, ",Hà Nội,(024) 62810687                                ,rental@hanoiproperty.com                          ,http://www.hanoiproperty.com,Bất Động Sản - Dịch Vụ Bất Động Sản
Công Ty TNHH Dịch Vụ Ngôi Sao Phương Đông,"Số 10, Đường Số 2, Cư Xá Đô Thành, P. 4, Q. 3, ",Tp. Hồ Chí Minh (TPHCM),01292181234                             ,pdstarcorp@gmail.com                              ,http://topvnland.com,Bất Động Sản - Dịch Vụ Bất Động Sản
Công Ty TNHH Dịch Vụ Bất Động Sản Sao á Châu,"Lầu 6, 454 Nguyễn Thị Minh Khai, P. 5, Q. 3, ",Tp. Hồ Chí Minh (TPHCM),(028) 62915403                                ,vnsky168@yahoo.com.vn                             ,http://www.starasiaproperties.com.vn,Bất Động Sản - Dịch Vụ Bất Động Sản
Công Ty TNHH Địa ốc Ninh Kiều,"309A Nguyễn Văn Linh, Phường An Khánh, Quận Ninh Kiều, ",TP. Cần Thơ,0901039139                              ,diaocninhkieu@gmail.com                           ,http://canthomuaban.vn,Bất Động Sản - Dịch Vụ Bất Động Sản
Công Ty TNHH Ohana Life,"68 Nguyễn Huệ, P. Bến Nghé, Q. 1, ",Tp. Hồ Chí Minh (TPHCM),0947962081                              ,nam.doan@ohanaliving.vn                           ,,Bất Động Sản - Dịch Vụ Bất Động Sản
Công Ty Cường Thịnh Phát,"201 Phan Văn Trị, P. 13, Q. Bình Thạnh, ",Tp. Hồ Chí Minh (TPHCM),0917262671                              , ,,Bất Động Sản - Dịch Vụ Bất Động Sản
Công Ty TNHH Dịch Vụ Bất Động Sản Tam Giác Vàng,"361/45/1 Nguyễn Đình Chiểu, P.5, Q.3, ",Tp. Hồ Chí Minh (TPHCM),0909013246                              , ,http://chothuenhaonline.com.vn	,Bất Động Sản - Dịch Vụ Bất Động Sản
Công Ty Cổ Phần Thương Mại & Dịch Vụ Dầu Khí Biển,"Phòng 209 - 211, Lầu 2, Tòa Nhà Petro Vietnam Tower, 1-5 Lê Duẩn, P. Bến Nghé, Q. 1, ",Tp. Hồ Chí Minh (TPHCM),(028) 39106666                                ,petrosetco.ots@petrosetco.com.vn                  ,http://www.pots.com.vn,Bất Động Sản - Dịch Vụ Bất Động Sản
Công Ty Địa ốc Long Biên,"Tầng 1, Tòa Nhà No 12-3, KĐT Sài Đồng, Q. Long Biên, ",Hà Nội,0966820499                              ,tuananhks.bds@gmail.com                           ,http://sandiaoclongbien.com,Bất Động Sản - Dịch Vụ Bất Động Sản
Công Ty Cổ Phần Đầu Tư Mekong Nam á,"Số 98/1 Ung Văn Khiêm, P. 25, Q. Bình Thạnh, ",Tp. Hồ Chí Minh (TPHCM),(028) 35122777                                ,mekongnama@gmail.com                              ,http://mekongnama.com.vn,Bất Động Sản - Dịch Vụ Bất Động Sản
Công Ty TNHH Đầu Tư Và Thương Mại Đại Phúc An,"218 Phan Đăng Lưu, P. 3, Q. Phú Nhuận, ",Tp. Hồ Chí Minh (TPHCM),0973586283                              ,phonghoinghi.com@gmail.com                        ,http://phonghoinghi.com,Bất Động Sản - Dịch Vụ Bất Động Sản
Công Ty TNHH Bất Động Sản Liveland,"290/30/24 đường Nơ Trang Long, P. 12, Q. Bình Thạnh, ",Tp. Hồ Chí Minh (TPHCM),0933858946                              ,thuan114971@gmail.com                             ,http://datnen-canho.com,Bất Động Sản - Dịch Vụ Bất Động Sản
Công Ty Cổ Phần Vietland Capital,"293 Điện Biên Phủ, Q. Bình Thạnh, ",Tp. Hồ Chí Minh (TPHCM),(028) 37407579                                ,tiamo-kimtam@gmail.com                            ,http://www.compa.vn,Bất Động Sản - Dịch Vụ Bất Động Sản
Công Ty TNHH DV Bất Động Sản Cần Thơ,"23 Nguyễn Tri Phương, P. An Khánh, Q. Ninh Kiều, ",TP. Cần Thơ,0979660889                              ,batdongsancantho1@gmail.com                       ,http://batdongsancantho.vn,Bất Động Sản - Dịch Vụ Bất Động Sản
Công Ty Cổ Phần Vận Tải Hà Tiên,"Số 296 Trần Não, KP. 2, P. Bình An, Q. 2, ",Tp. Hồ Chí Minh (TPHCM),(028) 37404061                                ,an.nth@vantaihatien.com.vn                        ,http://vantaihatien.com.vn,Bất Động Sản - Dịch Vụ Bất Động Sản
Công Ty CP Timland,"Số 24, Ngõ 79 Lý Nam Đế, P. Cửa Đông, Q. Hoàn Kiếm, ",Hà Nội,0961593999                              ,ngoquocdunghn@gmail.com                           ,http://ngoquocdung.com,Bất Động Sản - Dịch Vụ Bất Động Sản
Công Ty TNHH Tân Long Hải Phòng,"Số 2B/193 Đường Văn Cao, P. Đằng Lâm, Q. Hải An, ",Tp. Hải Phòng,0931598869                              ,tanlongvisa@gmail.com                             ,http://visahaiphong.vn,Bất Động Sản - Dịch Vụ Bất Động Sản
Công ty TNHH Dịch vụ Nhà Đất Phố Đông,"Số 23B Đường số 3, P. Bình An, Q. 2, ",Tp. Hồ Chí Minh (TPHCM),0911750009                              ,sales@nhadatphodong.com                           ,http://nhadatphodong.com,Bất Động Sản - Dịch Vụ Bất Động Sản
Công Ty Cho Thuê Chung Cư Giá Rẻ,"Số 144/1A, Đường số 7, Q. Gò Vấp, ",Tp. Hồ Chí Minh (TPHCM),0935375555                              ,chothuechungcugiarecom@gmail.com                  ,http://chothuechungcugiare.com,Bất Động Sản - Dịch Vụ Bất Động Sản
Công Ty Cổ Phần Đầu Tư Và Phát Triển Kim Cương,"Tầng 15, Tòa Ecolife Capitol, Số 58 Tố Hữu, Q. Nam Từ Liêm, ",Hà Nội,0904994379                              ,Admin@dih.com.vn                                  ,http://dih.com.vn,Bất Động Sản - Dịch Vụ Bất Động Sản
Công Ty CP Đầu Tư Địa Ốc Viễn Đông Land,"Số 17, Đồng Xoài, P. 13, Q. Tân Bình, ",Tp. Hồ Chí Minh (TPHCM),0911079439                              ,diaocviendongland@gmail.com                       ,http://viendongland.com.vn,Bất Động Sản - Dịch Vụ Bất Động Sản
Sàn GD Subay Park Hotel & Resort Phan Rang,"Trung Tâm Công Viên Biển Bình Sơn, Đ. Yên Ninh, Tp. Phan Rang, ",Ninh Thuận,0902668026                              ,teccorp.vn@gmail.com                              ,http://teccorp.vn/sunbay-park-condotel-ninh-than,Bất Động Sản - Dịch Vụ Bất Động Sản
Công Ty Cổ Phần Cấp Thoát Nước Quảng Nam,"86-88 Phan Bội Châu, P. Tân Thạnh, Tp. Tam Kỳ, ",Quảng Nam,(0235) 3812673                                 ,capthoatnuocqnam@gmail.com                        ,http://ctnqnam.com.vn,Bất Động Sản - Dịch Vụ Bất Động Sản
Cửa Hàng Tuấn Sông Hiếu,"Số 6 Trần Nhật Duật, P. 1, TP. Đông Hà, ",Quảng Trị,0965658787                              ,Tuansonghieu@gmail.com                            ,http://Tuansonghieu.com,Bất Động Sản - Dịch Vụ Bất Động Sản
Công Ty Cổ Phần Tư Vấn Địa ốc 19,"Thôn Hoàng Năm, X. Cổ Nhuế, H. Từ Liêm, ",Hà Nội,(024) 62659865                                ,lienhe@diaoc19.com.vn                             ,http://diaoc19.com.vn,Bất Động Sản - Dịch Vụ Bất Động Sản
Công Ty Cổ Phần Đầu Tư Bất Động Sản Express Miền Trung,"Số 252, Đường 2 Tháng 9, ",Đà Nẵng,0902245425                              ,admin@expressmientrung.com.vn                     ,,Bất Động Sản - Dịch Vụ Bất Động Sản
Tổng Công Ty Xây Dựng Thủy Lợi 4,"205 Nguyễn Xí, P. 26, Q. Bình Thạnh, ",Tp. Hồ Chí Minh (TPHCM),(028) 38993850                                ,thuyloi4@vnn.vn                                   ,http://www.thuyloi4.com.vn,Bất Động Sản - Dịch Vụ Bất Động Sản
Công Ty Cổ Phần Tập Đoàn KTA,"Tầng 3, Số 56, Ngõ 102 Trường Chinh, Đống Đa, ",Hà Nội,0947825255                              ,batdongsankta@gmail.com.                          ,http://kta.vn,Bất Động Sản - Dịch Vụ Bất Động Sản
Công Ty Cổ Phần Đầu Tư Phát Tirển Đồng Khánh,"Ki ốt 156C, Tòa M1C Chung Cư Thanh Hà Cienco 5, Kiến Hưng, Hà Đông, ",Hà Nội,0985888675                              ,khanh2684@gmail.com                               ,http://dongkhanhland.com,Bất Động Sản - Dịch Vụ Bất Động Sản
Công Ty TNHH Dịch Vụ Bất Động Sản Sao á Châu,"Lầu 6, 454 Nguyễn Thị Minh Khai, P. 5, Q. 3, ",Tp. Hồ Chí Minh (TPHCM),(028) 62915403                                ,vnsky168@yahoo.com.vn                             ,http://www.starasiaproperties.com.vn,Bất Động Sản - Dịch Vụ Bất Động Sản
Công Ty TNHH Kovills,"Số 38A Hai Bà Trưng, Phường Tràng Tiền, Quận Hoàn Kiếm, ",Hà Nội,(024) 63274787                                ,tuan.leanh@kovills.com                            ,http://vn.kovills.com,Bất Động Sản - Dịch Vụ Bất Động Sản
Hệ Thống Sàn Giao Dịch Bất Động Sản Hưng Thịnh,"526 Nguyễn Chí Thanh, P. 7 , Q. 10, ",Tp. Hồ Chí Minh (TPHCM),(028) 38249897                                ,trungkiendp@gmail.com                             ,http://datduan24h.com,Bất Động Sản - Dịch Vụ Bất Động Sản
Công Ty CP Nhà Đất Mới,"Số 348, Tố Hữu, P. La Khê, Q. Hà Đông, ",Hà Nội,0936338139                              ,hr@nhadatmoi.net                                  ,http://nhadatmoi.net,Bất Động Sản - Dịch Vụ Bất Động Sản
Công Ty Cổ Phần Đầu Tư Mekong Nam á,"Số 98/1 Ung Văn Khiêm, P. 25, Q. Bình Thạnh, ",Tp. Hồ Chí Minh (TPHCM),(028) 35122777                                ,mekongnama@gmail.com                              ,http://mekongnama.com.vn,Bất Động Sản - Dịch Vụ Bất Động Sản
Nhà Xưởng Triệu Tuấn - Công Ty TNHH Đầu Tư Triệu Tuấn,"Số 52, Đường Số 1, KP. 2, P. Hòa Phú, TP. Thủ Dầu Một, ",Bình Dương,0982 417 542                            ,anh.woodpellet@gmail.com                          ,http://gotrieutuan.com,Bất Động Sản - Dịch Vụ Bất Động Sản
Công Ty Cổ Phần Đồng Xoài Land,"ấp 3, Tiến Hưng, TP. Đồng Xoài, ",Bình Phước,0912941023                              ,gsa.phu@gmail.com                                 ,http://dongxoailand.net,Bất Động Sản - Dịch Vụ Bất Động Sản
Công Ty CP Bất Động Sản KAIZEN,"Số 3 Dãy C12A Khu TT Đại Học Ngoại Ngữ, P. Dịch Vọng Hậu, Q. Cầu Giấy, ",Hà Nội,0985533882                              ,ba.chien.dn@gmail.com                             ,http://idvila.com,Bất Động Sản - Dịch Vụ Bất Động Sản
Bất Động Sản Tấn Hưng Thịnh Phát - Công Ty TNHH Thương Mại Dịch Vụ Tấn Hưng Thịnh Phát,"64/1 KP. Bình Phước A, P. Bình Chuẩn, TX. Thuận An, ",Bình Dương,"(0274) 3798568, 0984 568 568                   ",baobihungthinhphat@gmail.com                      ,,Bất Động Sản - Dịch Vụ Bất Động Sản
Sàn Giao Dịch Bất Động Sản Thiên Kim,"159 Nguyễn Văn Linh, ",Tp. Đà Nẵng,0905647582                              ,phinguyen.thienkim@gmail.com		                    ,http://thienkimreal.com.vn				,Bất Động Sản - Dịch Vụ Bất Động Sản
Công Ty Cổ Phần SOZO,"54B Quốc Tử Giám, ",Hà Nội,0912 041 000                            ,info@datthocu.com.vn                              ,http://www.datthocu.com.vn,Bất Động Sản - Dịch Vụ Bất Động Sản
Công Ty Cho Thuê Chung Cư Giá Rẻ,"Số 144/1A, Đường số 7, Q. Gò Vấp, ",Tp. Hồ Chí Minh (TPHCM),0935375555                              ,chothuechungcugiarecom@gmail.com                  ,http://chothuechungcugiare.com,Bất Động Sản - Dịch Vụ Bất Động Sản
Công Ty Cổ Phần Thương Mại & Dịch Vụ Dầu Khí Biển,"Phòng 209 - 211, Lầu 2, Tòa Nhà Petro Vietnam Tower, 1-5 Lê Duẩn, P. Bến Nghé, Q. 1, ",Tp. Hồ Chí Minh (TPHCM),(028) 39106666                                ,petrosetco.ots@petrosetco.com.vn                  ,http://www.pots.com.vn,Bất Động Sản - Dịch Vụ Bất Động Sản
Công Ty Cổ Phần Phát Triển Địa ốc CIENCO 5,"TN BQL dự án, Lô CT1, KĐT Thanh Hà B - Cienco5, P. Kiến Hưng, Q Hà Đông, ",Hà Nội,(024) 33552111                                ,vp@cienco5land.com.vn                             ,http://cienco5land.com.vn,Bất Động Sản - Dịch Vụ Bất Động Sản
Công Ty Cổ Phần Bầu Trời Thái Bình P SKY,"Số 22, Đường A5, Palm Residences, KĐT Palm City, P. An Phú, Q. 2, ",Tp. Hồ Chí Minh (TPHCM),0902584339                              ,ducnhan33@gmail.com                               ,http://empirecity.vip,Bất Động Sản - Dịch Vụ Bất Động Sản
Công Ty Thông Tin Tư Vấn Và Mua Bán Nhà Đất,"Số 5, P. Võ Cường, Tp. Bắc Ninh, ",Bắc Ninh,"0904223076, 01669660786                 ",e2it_mc2_0pen@yahoo.com                           ,,Bất Động Sản - Dịch Vụ Bất Động Sản
Công Ty Cổ Phần Bách Lộc Phát,"59A Đặng Thai Mai, Q. Thanh Khê, ",Tp. Đà Nẵng,(0236) 3616766                                 ,bachlocphat@gmail.com                             ,http://dananglease.com,Bất Động Sản - Dịch Vụ Bất Động Sản
Công Ty Cổ Phần Bất Động Sản Tân Long Land,"Chung cư vườn đào, Tây Hồ, ",Hà Nội,0981403939                              ,builuanbds@gmail.com                              ,http://blogchungcu.com,Bất Động Sản - Dịch Vụ Bất Động Sản
Công Ty Bất Động Sản Htland.vn,"582 Cộng Hòa, P. 13, Q. Tân Bình, ",Tp. Hồ Chí Minh (TPHCM),0901391268                              ,huuthanh.info@gmail.com                           ,http://htland.vn,Bất Động Sản - Dịch Vụ Bất Động Sản
Công Ty Địa Ốc Hùng Cường,"323 Tên Lửa Bình Tân, ",Tp. Hồ Chí Minh (TPHCM),0907646075                              ,tranvancuong119@gmail.com                         ,,Bất Động Sản - Dịch Vụ Bất Động Sản
Công Ty Cổ phần Đầu Tư Assetvn Holdings,"Số 16 Đường 34, P. Bình An, Q. 2, ",Tp. Hồ Chí Minh (TPHCM),0899973979                              ,contact@asset.vn                                  ,http://asset.vn,Bất Động Sản - Dịch Vụ Bất Động Sản
Công Ty TNHH MTV Thương Mại Và Dịch Vụ Thái Minh,"72 Hàm Nghi, P. Thạc Gián, Q. Thanh Khê, ",Tp. Đà Nẵng,0966874568                              ,thaiminhviet.dn@gmail.com                         ,,Bất Động Sản - Dịch Vụ Bất Động Sản
Công Ty TNHH Địa ốc An Tín,"Số 69, KDC Phú Hòa 1, TP. Thủ Dầu Một ",Bình Dương,01665340230                             ,Thanhphamantin@gmail.com.vn                       ,,Bất Động Sản - Dịch Vụ Bất Động Sản
Công Ty TNHH BUILD HOME,"Số 4 Đường số 3, Phường Hiệp Bình Chánh, Quận Thủ Đức, ",Tp. Hồ Chí Minh (TPHCM),0906532901                              ,minhphucbds2212@gmail.com                         ,http://minhphucland.net,Bất Động Sản - Dịch Vụ Bất Động Sản
Công Ty Cổ Phần Địa Ốc EAGLEHOMES,"408 Điện Biên Phủ, P. 11, Q. 10, ",Tp. Hồ Chí Minh (TPHCM),"0877068968, 0378841694                  ",linhchi030216@gmail.com                           ,http://eaglehomes.vn,Bất Động Sản - Dịch Vụ Bất Động Sản
Nhà Đất Đồng Gia,"Số 29 Ngô Kim Tài, Quán Nam, Quận Lê Chân, ",Tp. Hải Phòng,0936486286                              ,trinhdonggia@gmail.com                            ,http://nhadatdonggia.vn,Bất Động Sản - Dịch Vụ Bất Động Sản
Công Ty BĐS Bến Thành Real,"27 Trường Chinh, P. Tân Thới Nhất, Q. 12, ",Tp. Hồ Chí Minh (TPHCM),0933403759                              ,benthanhreal.com@gmail.com                        ,http://www.benthanhreal.com,Bất Động Sản - Dịch Vụ Bất Động Sản
Bất Động Sản Gia Tài,"KĐT. Mỹ Phước 3, H. Bến Cát, ",Bình Dương,0911808777                              ,thanhthuy03012001@gmail.com                       ,http://datmyphuoc3giare.com,Bất Động Sản - Dịch Vụ Bất Động Sản
Vinhomes Smart City Tây Mỗ,"Tây Mỗ, Nam Từ Liêm, ",Hà Nội,0978678378                              ,quang15lt@gmail.com                               ,http://vincitysdaimo.com,Bất Động Sản - Dịch Vụ Bất Động Sản
Công Ty TNHH Đầu Tư & Xây Dựng Phố Nhà Đất,"Số 16, Đ. 35, KP. 7, P. Hiệp Bình Chánh, Q. Thủ Đức, ",Tp. Hồ Chí Minh (TPHCM),0909925365                              ,phonhadat247@gmail.com                            ,http://phonhadat247.com,Bất Động Sản - Dịch Vụ Bất Động Sản
Công Ty Cổ Phần Phát Triển Thương Mại Thịnh Cường,"Số 21F Ngách 5/107, Đường Vĩnh Hưng, P. Vĩnh Hưng, Hoàng Mai, ",Hà Nội,0948608869                              ,cuongnguyen8386@gmail.com                         ,http://thinhcuongland.com,Bất Động Sản - Dịch Vụ Bất Động Sản
Công Ty TNHH Xuân Trường Gia,"661 Nguyễn Hữu Thọ, P. Tân Phong, Q. 7, ",Tp. Hồ Chí Minh (TPHCM),(028) 62989145                                ,xuantruonggia@gmail.com                           ,http://ngheban.com,Bất Động Sản - Dịch Vụ Bất Động Sản
Sài Gòn Group,"Số 91, Nguyễn Hữu Cảnh, P. 22, Q. Bình Thạnh, ",Tp. Hồ Chí Minh (TPHCM),090 414 7899                            ,hotrokhachhang.iland@gmail.com                    ,http://saigongroupvn.com,Bất Động Sản - Dịch Vụ Bất Động Sản
Hoa Phượng Home,"225B Đường Lý Thánh Tông, Q. Đồ Sơn, ",Tp. Hải Phòng,Hotline: 0944 567 888                   ,hoaphuonghome@gmail.com                           ,http://hoaphuonghome.vn,Bất Động Sản - Dịch Vụ Bất Động Sản
Công ty Cổ Phần Đầu tư Và Phát Triển Nhà SeaHouse,"10B Nguyễn Hữu Thọ, Quận Hải Châu ",Tp. Đà Nẵng,0901985528                              ,info@seahouse.com.vn                              ,http://seahouse.com.vn,Bất Động Sản - Dịch Vụ Bất Động Sản
Công Ty Cổ Phần Tư Vấn Đầu Tư Bất Động Sản BTV LAND,"32B Tây Hòa, Phước Long A, Q. 9, ",Tp. Hồ Chí Minh (TPHCM),0901437467                              ,btvland@gmail.com                                 ,http://btvland.com,Bất Động Sản - Dịch Vụ Bất Động Sản
Công Ty TNHH Bảo Hà Mê Kông,"130/11/28B Đường Nguyễn Huệ, P. 2, TP. Vĩnh Long, ",Vĩnh Long,0918627949                              ,baohamekong2013@gmail.com                         ,http://nhadatvinhlong.com.vn,Bất Động Sản - Dịch Vụ Bất Động Sản
Công Ty TNHH DV Xuân Nam,"1586 Đường 30/4, P. 12, TP. Vũng Tàu, ",Bà Rịa-Vũng Tàu,(0254) 3807380                                 ,phuongphapm1@gmail.com                            ,http://thuexetulaivungtau.blogspot.com,Bất Động Sản - Dịch Vụ Bất Động Sản
Công Ty Bất Động Sản Đà Nẵng,"487 Tôn Đức Thắng, Q. Liên Chiểu, ",Tp. Đà Nẵng,0935072533                              ,d.event6789@gmail.com                             ,,Bất Động Sản - Dịch Vụ Bất Động Sản
Đức Việt Mỹ - Công Ty TNHH Đức Việt Mỹ,"15/1Y, Tổ 1, KP. 1A, P. Tân Hiệp, TP. Biên Hòa, ",Đồng Nai,(0251) 3880446                                 ,ducvietmyvn@gmail.com                             ,,Bất Động Sản - Dịch Vụ Bất Động Sản
Bất Động Sản Khách Sạn Altik - Công Ty TNHH Altik,"Phường An Khê, Quận Thanh Khê, ",Tp. Đà Nẵng,0916 722 292                            ,minhtuan0901166696@gmail.com                      ,http://batdongsandng.com,Bất Động Sản - Dịch Vụ Bất Động Sản
Công Ty TNHH Nhà Đất Đắk Lắk,"Số 92 Đường Nguyễn Xuân Nguyên, P. Tây An, TP. Buôn Ma Thuột, ",Đắc Lắc,(0262) 3919212                                 ,nhadatdaklak@gmail.com                            ,"http://muabannhadatdaklak.vn, nhadatdaklak.xyz",Bất Động Sản - Dịch Vụ Bất Động Sản
Công Ty CP Phát Triển DV & Địa Ốc Hà Nội,"Tầng 1, Tòa Nhà No12-3, KĐT Sài Đồng, Long Biên, ",Hà Nội,0919599988                              ,cskhdiaochanoi24h@gmail.com                       ,http://chungcuhanoixanh.net,Bất Động Sản - Dịch Vụ Bất Động Sản
Kênh Mua Bán Nhà Đất,"Số 422 Đường 2 Tháng 9 , P. Hòa Cường Nam, Q. Hải Châu, ",Tp. Đà Nẵng,0935881771                              ,kenhmuabannhadat89@gmail.com                      ,http://kenhmuabannhadat.vn/,Bất Động Sản - Dịch Vụ Bất Động Sản
Công Ty TNHH TM Cơ Điện Lạnh Thiên ý,"Số 2867/68/15, QL 1A, KP. 6A, P. Tân Thới Nhất, Q. 12, ",Tp. Hồ Chí Minh (TPHCM),0938253824                              ,codienlanhthieny@gmail.com                        ,http://codienlanhthieny.com,Bất Động Sản - Dịch Vụ Bất Động Sản
Công Ty TNHH Quảng Cáo Và Bất Động Sản Trường Hà,"52 Mai Khắc Đôn, Tp. Huế, ",Thừa Thiên Huế,"(0234) 6272595, 0906499119                     ",truongha.ads@gmail.com                            ,,Bất Động Sản - Dịch Vụ Bất Động Sản
Nguyễn Hữu Nhứt,"Số 91, Đ. 7, KDC City Land, P. 7, Q. Gò Vấp, ",Tp. Hồ Chí Minh (TPHCM),0902869594                              ,huunhut.kienphatland@gmail.com                    ,http://demo124.ninavietnam/thang11_2018/NguyenThiDuyen,Bất Động Sản - Dịch Vụ Bất Động Sản
Công Ty Bất Động Sản Đà Nẵng,"487 Tôn Đức Thắng, Q. Liên Chiểu, ",Tp. Đà Nẵng,0935072533                              ,d.event6789@gmail.com                             ,,Bất Động Sản - Dịch Vụ Bất Động Sản
Công Ty TNHH Nhà Đất Đắk Lắk,"Số 92 Đường Nguyễn Xuân Nguyên, P. Tây An, TP. Buôn Ma Thuột, ",Đắc Lắc,(0262) 3919212                                 ,nhadatdaklak@gmail.com                            ,"http://muabannhadatdaklak.vn, nhadatdaklak.xyz",Bất Động Sản - Dịch Vụ Bất Động Sản
QGOUP - Công Ty CP Bất Động Sản QGROUP,"41 Đường số 21D, P. Bình Trị Đông B, Q. Bình Tân, ",Tp. Hồ Chí Minh (TPHCM),0946059229                              ,bdsqgroup@gmail.com                               ,http://qgroup.vn,Bất Động Sản - Dịch Vụ Bất Động Sản
Công Ty Cổ Phần Sơn Long Thịnh,"Số 1146/39 Quang Trung, P. 8, Q. Gò Vấp, ",Tp. Hồ Chí Minh (TPHCM),(028) 39168303                                ,"thinhsoloti@gmail.com, thinh@sonlongthinh.com     ",http://sonlongthinh.com,Bất Động Sản - Dịch Vụ Bất Động Sản
Công Ty Cổ Phần Dịch Vụ Bất Động Sản Easy Land,"113/5 Lê Đức Thọ, P. 17, Q. Gò Vấp, ",Tp. Hồ Chí Minh (TPHCM),0906108882                              ,info@easyland.vn                                  ,http://easyland.vn,Bất Động Sản - Dịch Vụ Bất Động Sản
Công Ty Cổ phần Đầu Tư Assetvn Holdings,"Số 16 Đường 34, P. Bình An, Q. 2, ",Tp. Hồ Chí Minh (TPHCM),0899973979                              ,contact@asset.vn                                  ,http://asset.vn,Bất Động Sản - Dịch Vụ Bất Động Sản
Công Ty Bất Động Sản 3C,"93 Nguyễn Bỉnh Khiêm, Phường Đao Kao, Quận 1, ",Tp. Hồ Chí Minh (TPHCM),(028) 71096568                                ,info@batdongsan3c.com                             ,http://batdongsan3c.com,Bất Động Sản - Dịch Vụ Bất Động Sản
Công Ty TNHH Địa ốc An Tín,"Số 69, KDC Phú Hòa 1, TP. Thủ Dầu Một ",Bình Dương,01665340230                             ,Thanhphamantin@gmail.com.vn                       ,,Bất Động Sản - Dịch Vụ Bất Động Sản
Công Ty TNHH Huynchi,"B2.00.09, Tòa Nhà Sarimi, 72 Nguyễn Cơ Thạch, P. An Lợi Đông, Q. 2, ",Tp. Hồ Chí Minh (TPHCM),(028) 73013636                                ,quyenduong@huynchi.com                            ,http://www.huynchi.com,Bất Động Sản - Dịch Vụ Bất Động Sản
Công Ty Cổ Phần Địa Ốc EAGLEHOMES,"408 Điện Biên Phủ, P. 11, Q. 10, ",Tp. Hồ Chí Minh (TPHCM),"0877068968, 0378841694                  ",linhchi030216@gmail.com                           ,http://eaglehomes.vn,Bất Động Sản - Dịch Vụ Bất Động Sản
Công Ty Cổ Phần Quản Lý Và Khai Thác Tài Sản Bến Thành (Benthanhrealty),"455-457 Trần Hưng Đạo, P. Cầu Kho, Q. 1, ",Tp. Hồ Chí Minh (TPHCM),(028) 38789333                                ,benthanhrealty@gmail.com                          ,http://benthanhrealty.vn,Bất Động Sản - Dịch Vụ Bất Động Sản
A Z Nhà Đất,"15B Phạm Hữu Lầu, P. Phú Mỹ, Q. 7, ",Tp. Hồ Chí Minh (TPHCM),0945886599                              ,nguyenhuureal@gmail.com                           ,http://aznhadat.vn,Bất Động Sản - Dịch Vụ Bất Động Sản
Công Ty Cổ Phần Bất Động Sản Tân Long Land,"Chung cư vườn đào, Tây Hồ, ",Hà Nội,0981403939                              ,builuanbds@gmail.com                              ,http://blogchungcu.com,Bất Động Sản - Dịch Vụ Bất Động Sản
Bất Động Sản Khách Sạn Altik - Công Ty TNHH Altik,"Phường An Khê, Quận Thanh Khê, ",Tp. Đà Nẵng,0916 722 292                            ,minhtuan0901166696@gmail.com                      ,http://batdongsandng.com,Bất Động Sản - Dịch Vụ Bất Động Sản
Công Ty Bất Động Sản Invert,"Số 2, KDC Phú Mỹ Hiệp, P. Tân Đông Hiệp, TX. Dĩ An, ",Bình Dương,0937091291                              ,contact@invert.vn                                 ,http://invert.vn,Bất Động Sản - Dịch Vụ Bất Động Sản
Công Ty TNHH MTV Thương Mại Và Dịch Vụ Thái Minh,"72 Hàm Nghi, P. Thạc Gián, Q. Thanh Khê, ",Tp. Đà Nẵng,0966874568                              ,thaiminhviet.dn@gmail.com                         ,,Bất Động Sản - Dịch Vụ Bất Động Sản
Công Ty CP Đầu Tư Golvis,"17 Trần Quốc Toản, ",Tp. Đà Nẵng,0901266199                              ,tu@datnenhoaxuan.com                              ,http://datnenhoaxuan.com,Bất Động Sản - Dịch Vụ Bất Động Sản
Biệt Thự Vườn Thủ Đức Garden Homes,"327 Quốc lộ 13, P. Hiệp Bình Phước, Q. Thủ Đức, ",Tp. Hồ Chí Minh (TPHCM),0903664575                              ,toantranphi@gmail.com                             ,http://bietthuthuduc.weebly.com,Bất Động Sản - Dịch Vụ Bất Động Sản
Công Ty TNHH Dịch Vụ Thương Mại Và Đại Lý Hàng Hải Cửa Lò - CUALO SERVICE SHIPPING AGENCY (CSSA),"Số 25, Ngõ 18, Đường Lê Hồng Phong, P. Hưng Bình, TP. Vinh, ",Nghệ An,"(0238) 3835593, 090.222.0314                   ",dung.tq62@gmail.com                               ,http://cssa.bizz.vn,Bất Động Sản - Dịch Vụ Bất Động Sản
Công Ty Cổ Phần Địa Ốc Xanh 24h,"Số 51 Đường Kinh Dương Vương, P. 12, Q.6, ",Tp. Hồ Chí Minh (TPHCM),0906294806                              ,ldttx81091@gmail.com                              ,http://diaocxanh24h.vn,Bất Động Sản - Dịch Vụ Bất Động Sản
Công Ty TNHH Bất Động Sản Gia Khánh Land,"135/1/17 Nguyễn Hữu Cảnh, P. 22, Q. Bình Thạnh, ",Tp. Hồ Chí Minh (TPHCM),0913756339                              ,giakhanhland.vn@gmail.com                         ,http://gkg.com.vn,Bất Động Sản - Dịch Vụ Bất Động Sản
Công Ty TNHH DV PT Hoàng Linh,"6A/1, Ấp 1, X. An Phú Tây, H. Bình Chánh, ",Tp. Hồ Chí Minh (TPHCM),0918180979                              ,huynh.hoang1090@gmail.com                         ,http://muadatmyphuoc.vn,Bất Động Sản - Dịch Vụ Bất Động Sản
Công Ty Cổ Phần TM & DV Bất Động Sản Phúc Long,"1270A Huỳnh Tấn Phát, Phường Phú Mỹ, Quận 7, ",Tp. Hồ Chí Minh (TPHCM),"(028) 37853836, 0903383822                    ",info@phuclongreal.com                             ,http://phuclongreal.com,Bất Động Sản - Dịch Vụ Bất Động Sản
Công Ty TNHH DV Xuân Nam,"1586 Đường 30/4, P. 12, TP. Vũng Tàu, ",Bà Rịa-Vũng Tàu,(0254) 3807380                                 ,phuongphapm1@gmail.com                            ,http://thuexetulaivungtau.blogspot.com,Bất Động Sản - Dịch Vụ Bất Động Sản
Công Ty TNHH Tư Vấn Pháp Lý Đầu Tư BĐS Lê Phong,"405 C/C Thạch Mỹ Lợi, P. Thạch Mỹ Lợi, Q.2, ",Tp. Hồ Chí Minh (TPHCM),0919559116                              ,hoaiphongtb@yahoo.com                             ,,Bất Động Sản - Dịch Vụ Bất Động Sản
Công Ty Cổ Phần Xemnha Việt Nam,"90 Trần Thái Tông, P. Dịch Vọng Hậu, Q. Cầu Giấy, ",Hà Nội,0982631582                              ,info.xemnha@gmail.com                             ,,Bất Động Sản - Dịch Vụ Bất Động Sản
Công Ty TNHH MTV TM BĐS Kim Cương,"411 Trần Hưng Đạo, ",Tp. Đà Nẵng,0905606910                              ,diamondlandgroup9@gmail.com                       ,http://diamondlandgroup.com,Bất Động Sản - Dịch Vụ Bất Động Sản
Khương Thuận Land,"14 Phan Phù Tiên, Nha Trang, ",Khánh Hòa,0934717986                              ,nguyenkhuongthuan@gmail.com                       ,http://khuongthuanland.com,Bất Động Sản - Dịch Vụ Bất Động Sản
Đô Thị Celadon City, ,Tp. Hồ Chí Minh (TPHCM),0902521557                              ,dothiceladoncity@gmail.com                        ,http://dothiceladoncity.com,Bất Động Sản - Dịch Vụ Bất Động Sản
Bất Động Sản Gia Tài,"KĐT. Mỹ Phước 3, H. Bến Cát, ",Bình Dương,0911808777                              ,thanhthuy03012001@gmail.com                       ,http://datmyphuoc3giare.com,Bất Động Sản - Dịch Vụ Bất Động Sản
Vinhomes Smart City Tây Mỗ,"Tây Mỗ, Nam Từ Liêm, ",Hà Nội,0978678378                              ,quang15lt@gmail.com                               ,http://vincitysdaimo.com,Bất Động Sản - Dịch Vụ Bất Động Sản
Công Ty TNHH Dự Án Nhà,"429 Liên Phường, P. Phước Long B, Q. 9, ",Tp. Hồ Chí Minh (TPHCM),38367750                                ,nhaduankhangdien@gmail.com                        ,http://nhaduankhangdien.com,Bất Động Sản - Dịch Vụ Bất Động Sản
Công Ty TNHH Hưng An Điền,"Số 11 Hồ Xuân Hương, P. 6, Q. 3, ",Tp. Hồ Chí Minh (TPHCM),(028) 71009123                                ,aiocitybinhtan@gmail.com                          ,http://aiocity-binhtan.com.vn,Bất Động Sản - Dịch Vụ Bất Động Sản
Công Ty Bất Động Sản HUD,"60 Nguyễn Đức Cảnh, Hoàng Mai, ",Hà Nội,0985914686                              ,tuyenco1011@gmail.com			                          ,http://batdongsanhud.com.vn,Bất Động Sản - Dịch Vụ Bất Động Sản
Công ty TM DV Môi giới BĐS Duy Linh,"286/1 Nguyễn Văn Công, Phường 3, Quận Gò Vấp, ",Tp. Hồ Chí Minh (TPHCM),0985892466                              ,moigioibdsduylinh@gmail.com                       ,http://moigioibdshcm.com,Bất Động Sản - Dịch Vụ Bất Động Sản
Công Ty Cổ Phần Tập Đoàn Địa Ốc Kim Oanh,"Đường Cộng Hòa, P. 13, Q. Tân Bình, ",Tp. Hồ Chí Minh (TPHCM),"(028) 73016678, 0868 222 191 - 093 7373 345   ",cskhkimoanh@gmail.com                             ,,Bất Động Sản - Dịch Vụ Bất Động Sản
Công Ty TNHH Xuân Trường Gia,"661 Nguyễn Hữu Thọ, P. Tân Phong, Q. 7, ",Tp. Hồ Chí Minh (TPHCM),(028) 62989145                                ,xuantruonggia@gmail.com                           ,http://ngheban.com,Bất Động Sản - Dịch Vụ Bất Động Sản
Công Ty TNHH Tư Vấn BĐS Hưng Thống,"80 Quang Trung, Lộc Thọ, Nha Trang, ",Khánh Hòa,0919085595                              ,hungthongcongty@gmail.com                         ,http://nhatranghomes.net,Bất Động Sản - Dịch Vụ Bất Động Sản
Công Ty Việt Hưng Phát,"408 Trường Chinh, P. 13, Q. Tân Bình, ",Tp. Hồ Chí Minh (TPHCM),0931689123                              ,tranmanhbds1@gmail.com	                           ,,Bất Động Sản - Dịch Vụ Bất Động Sản
Công Ty Bất Động Sản Quảng Ninh Villasgo,"B134, Đường Hạ Long, Bãi Cháy, Tp. Hạ Long, ",Quảng Ninh,0976799138                              ,villasgo.com@gmail.com                            ,http://villasgo.com,Bất Động Sản - Dịch Vụ Bất Động Sản
Công Ty BĐS Bến Thành Real,"27 Trường Chinh, P. Tân Thới Nhất, Q. 12, ",Tp. Hồ Chí Minh (TPHCM),0933403759                              ,benthanhreal.com@gmail.com                        ,http://www.benthanhreal.com,Bất Động Sản - Dịch Vụ Bất Động Sản
Trung Tâm Nhà Đất Thủ Đức,"Số 50 Đường Hiệp Bình, Phường Hiệp Bình Phước, Quận Thủ Đức, ",Tp. Hồ Chí Minh (TPHCM),"0909 246 896, 0909 246 897              ",nhadatthuducvn@gmail.com                          ,http://nhadatthuduc.vn,Bất Động Sản - Dịch Vụ Bất Động Sản
Công Ty TNHH Phát Triển Thương Mại Sài Gòn House,,Tp. Hồ Chí Minh (TPHCM),0916542598                              ,info@saigonhouseforrent.com                       ,http://saigonhouseforrent.com,Bất Động Sản - Dịch Vụ Bất Động Sản
Công Ty CP Đầu Tư Thương Mại Dịch Vụ Bất Động Sản Liên Minh Toàn Cầu,"Số 218 Đội Cấn, P. Liễu Giai, Q. Ba Đình, ",Hà Nội,(024) 36490528                                ,huongptb.bsc@gmail.com                            ,,Bất Động Sản - Dịch Vụ Bất Động Sản
Công Ty Cổ Phần Đầu Tư Và Phát Triển Nhà Sài Gòn,"95 Trần Trọng Cung, KDC Nam Long, P. Tân Thuận Đông, Q. 7, ",Tp. Hồ Chí Minh (TPHCM),(028) 37738139                                ,info@saigonhouse.vn                               ,http://saigonhouse.vn,Bất Động Sản - Dịch Vụ Bất Động Sản
Công Ty TNHH DASUN,"Số 75 Lê Ngân, P. Khuê Trung, Q. Cẩm Lệ, ",Tp. Đà Nẵng,(0236) 6262626                                 ,contact@dasun.vn                                  ,http://www.dasun.vn,Bất Động Sản - Dịch Vụ Bất Động Sản
Công Ty Cổ Phần Địa ốc Lâm Thuận Hưng,"148 Lê Lợi, Hòa Phú, TP.Thủ Dầu Một, ",Bình Dương,(0274) 2221009                                 ,nlongnt@gmail.com                                 ,http://diaoclamthuanhung.com,Bất Động Sản - Dịch Vụ Bất Động Sản
Công ty Cổ Phần Bất Động Sản Green Pearl 378 Minh Khai,"378 Minh Khai, ",Hà Nội,0974324715                              ,quang15lt@gmail.com                               ,http://chungcugreenpearl.net,Bất Động Sản - Dịch Vụ Bất Động Sản
Công Ty CP Bất Động Sản Thế Kỷ - Sàn Bất Động Sản STDA,"21 Lê Văn Lương, P. Nhân Chính, Q. Thanh Xuân, ",Hà Nội,66638836                                ,ngodiemvinawi@gmail.com                           ,http://batdongsanvip24h.blogspot.com,Bất Động Sản - Dịch Vụ Bất Động Sản
Công Ty TNHH Địa ốc Việt Mỹ,"54 Phan Đăng Lưu, P. 5, Q. Phú Nhuận, ",Tp. Hồ Chí Minh (TPHCM),(028) 39956125                                ,info@diaoc.com                                    ,http://www.diaoc.com,Bất Động Sản - Dịch Vụ Bất Động Sản
Bất Động Sản Hưng Thịnh,"45 Hoàng Việt, Phường 4, Quận Tân Bình, ",Tp. Hồ Chí Minh (TPHCM),0986518189                              ,ngahn83@gmail.com                                 ,http://batdongsansaigon.online/,Bất Động Sản - Dịch Vụ Bất Động Sản
Công Ty CP Vicapital,"Tầng 2, Số 164, Tòa Nhà Licogi, Khuất Duy Tiến, ",Hà Nội,0966746784                              ,vulyqm2312@gmail.com                              ,,Bất Động Sản - Dịch Vụ Bất Động Sản
Công Ty CP TK XD & BĐS Danh Tiếng,"Tổ 18, ấp Bến Sắn, Xã Phước Thiền, Huyện Nhơn Trạch, ",Đồng Nai,0914297901                              ,hoanghien85qn@gmail.com                           ,,Bất Động Sản - Dịch Vụ Bất Động Sản
Công Ty Cổ Phần Dịch Vụ Bất Động Sản Asia Properties (á Châu),"R2-L2-03A Khu TTTM Royal City, 72A Nguyễn Trãi, P. Thượng Đình, Q. Thanh Xuân ",Hà Nội,0943183377                              ,info@asiaproperties.vn                            ,http://www.asiaproperties.vn,Bất Động Sản - Dịch Vụ Bất Động Sản
Cho thuê Chung cư Đất Việt,"125 Trung Kính, P. Yên Hòa, Q. Cầu Giấy, ",Hà Nội,0974743122                              ,28121990fg@gmail.com                              ,http://chothuechungcudatviet.com,Bất Động Sản - Dịch Vụ Bất Động Sản
Công Ty Cổ Phần Đầu Tư Địa ốc New World Land,"Lầu 4, Ròa nhà Thanh Niên, Số 345/134 Trần Hưng Đạo, P. Cầu Kho, Q. 1, ",Tp. Hồ Chí Minh (TPHCM),0917339000                              ,phongnhansu.newworldland@gmail.com                ,http://newworldland.net,Bất Động Sản - Dịch Vụ Bất Động Sản
Công Ty CP TMDV Và Đầu Tư NHABATDONGSAN.COM,"Số 10 - N6 Mega Ruby Khang Điền, Đường Võ Chí Công, KP. 2, Phú Hữu, Q. 9, ",Tp. Hồ Chí Minh (TPHCM),(028) 62745696                                ,hotro@nhabatdongsan.com                           ,http://nhabatdongsan.com,Bất Động Sản - Dịch Vụ Bất Động Sản
Bất Động Sản Hưng Thịnh,"45 Hoàng Việt, Phường 4, Quận Tân Bình, ",Tp. Hồ Chí Minh (TPHCM),0986518189                              ,ngahn83@gmail.com                                 ,http://batdongsansaigon.online/,Bất Động Sản - Dịch Vụ Bất Động Sản
Công Ty Bất Động Sản Hải Long Land,"Tầng 8, Tòa Nhà MD Complex, Mỹ Đình II, Nam Từ Liêm, ",Hà Nội,0888399993                              ,tiencuongbk93@gmail.com                           ,http://hailongland.vn/thegardenhill,Bất Động Sản - Dịch Vụ Bất Động Sản
Công Ty TNHH Đào Gia Phát,"21 Hoàng Diệu, Lầu 5, P. 12, Q. 4, ",Tp. Hồ Chí Minh (TPHCM),(028) 837734995                               ,welcome@daogiaphat.com                            ,http://daogiaphat.com,Bất Động Sản - Dịch Vụ Bất Động Sản
Công Ty Cổ Phần Tư Vấn Và Đầu Tư Đất Vàng Kinh Đô,"209 Trung Kính, Yên Hòa, Cầu Giấy, ",Hà Nội,0979367715                              ,thecongajc@gmail.com                              ,http://datvangkinhdo.vn,Bất Động Sản - Dịch Vụ Bất Động Sản
Công Ty Cổ Phần Địa ốc Thắng Lợi,"337 Tên Lửa, P. Bình Trị Đông B, Q. Bình Tân, ",Hồ Chí Minh (TP. HCM),(08) 35366969                                , ,http://www.diaocthangloi.com,Bất Động Sản - Dịch Vụ Bất Động Sản
Công Ty TNHH A.S.S.I,"14 Trần Thái Tông, P. 15, Q. Tân Bình, ",Tp. Hồ Chí Minh (TPHCM),(028) 6295 8292                               ,assivietnam@gmail.com                             ,http://www.assivietnam.com,Bất Động Sản - Dịch Vụ Bất Động Sản
Công Ty Cổ Phần Bất Động Sản Khải Hoàn Land,"R4- 93 Đường Hưng Gia 4, KĐT Phú Mỹ Hưng, P. Tân Phong, Q. 7, ",Tp. Hồ Chí Minh (TPHCM),(028) 54110088                                , ,,Bất Động Sản - Dịch Vụ Bất Động Sản
Công Ty HomeLand SG,"Số 163A Trường Chinh, P. Tân Thới Nhất, Q. 12, ",Tp. Hồ Chí Minh (TPHCM),0911808788                              ,ads.homelandsg@gmail.com                          ,http://homelandsg.vn,Bất Động Sản - Dịch Vụ Bất Động Sản
Biệt Thự Vườn Thủ Đức Garden Homes,"327 Quốc lộ 13, P. Hiệp Bình Phước, Q. Thủ Đức, ",Tp. Hồ Chí Minh (TPHCM),0903664575                              ,toantranphi@gmail.com                             ,http://bietthuthuduc.weebly.com,Bất Động Sản - Dịch Vụ Bất Động Sản
Đô Thị Celadon City, ,Tp. Hồ Chí Minh (TPHCM),0902521557                              ,dothiceladoncity@gmail.com                        ,http://dothiceladoncity.com,Bất Động Sản - Dịch Vụ Bất Động Sản
Vitaland,"Số 28 Trần Bình, P. Mỹ Đình, Q. Từ Liêm, ",Hà Nội,0936201858                              ,vitalandvietnam@gmail.com                         ,http://vitaland.vn,Bất Động Sản - Dịch Vụ Bất Động Sản
Công Ty TNHH Dịch Vụ Bất Động Sản An Phước Hưng,"14/20 Nhất Tri Mai, P. 13, Q. Tân Bình, ",Tp. Hồ Chí Minh (TPHCM),0902989591                              ,thanhdung@anphuochung.com.vn                      ,http://www.anphuochung.com.vn/,Bất Động Sản - Dịch Vụ Bất Động Sản
Công Ty TNHH ADPRO Việt Nam,"41/1, P. Trung Mỹ Tây, Q. 12, ",Tp. Hồ Chí Minh (TPHCM),(028) 37157472                                ,sale01.cungcaunhadat@gmail.com                    ,http://cungcaunhadat.com,Bất Động Sản - Dịch Vụ Bất Động Sản
Công Ty Bất Động Sản Trần Anh,"871 Âu Cơ, P.12, Q.Tân Bình, ",Tp. Hồ Chí Minh (TPHCM),0965859793                              ,trananhcompany871@gmail.com                       ,,Bất Động Sản - Dịch Vụ Bất Động Sản
Công Ty TNHH Thương Mại - Tư Vấn - Dịch Vụ Bất Động Sản Phố Khang,"31 Nguyễn Hồng Đào, P. 14, Q. Tân Bình, ",Tp. Hồ Chí Minh (TPHCM),(028) 39492395                                ,hai_1403@yahoo.com                                ,http://www.diaocphokhang.com,Bất Động Sản - Dịch Vụ Bất Động Sản
Công Ty TNHH Tư Vấn Môi Giới Bất Động Sản Hoàng Thịnh,"238 Nguyễn Văn Luông, P. 11, Q. 6, ",Tp. Hồ Chí Minh (TPHCM),0906463368                              ,ngophuthinh@yahoo.com                             ,,Bất Động Sản - Dịch Vụ Bất Động Sản
CK Group - Công Ty CP Đầu Tư và Phát Triển CK Group,"Park 7 - 44 - 12A, Số 208 Nguyễn Hữu Cảnh, P. 22, Q. Bình Thạnh, ",Tp. Hồ Chí Minh (TPHCM),(028) 22618877                                ,bdsckgroup@gmail.com                              ,http://bdsckgroup.com,Bất Động Sản - Dịch Vụ Bất Động Sản
Công Ty TNHH 2 Xây Nhà,"Tân Uyên, Thuận An, ",Bình Dương,(0283) 9613711                                 ,keswickvi@gmail.com                               ,http://2xaynha.com,Bất Động Sản - Dịch Vụ Bất Động Sản
Công Ty CP Đầu Tư BĐS Salehomes,"Số 127 Ni Sư Huỳnh Liên, Q. Tân Bình ",Tp. Hồ Chí Minh (TPHCM),0919015476                              ,salehomes.vn@gmail.com                            ,http://salehomes.vn,Bất Động Sản - Dịch Vụ Bất Động Sản
Công Ty Cổ Phần Địa ốc Phú Tài,"275 Nguyễn Trãi, Q. Thanh Xuân, ",Hà Nội,0982958838                              ,haottx@phutailand.vn                              ,http://bdsmienbac.info,Bất Động Sản - Dịch Vụ Bất Động Sản
Thanh Yến Land,"57 Đường 3/2, P. 11, Q. 10, ",Tp. Hồ Chí Minh (TPHCM),(028) 0937185919                              ,thynhiem92@gmail.com                              ,http://www.facebook.com/profile.php?id=100009530703110,Bất Động Sản - Dịch Vụ Bất Động Sản
Công Ty Cổ Phần Dịch Vụ Logistics Dầu Khí Việt Nam,"Tầng 2, 1-5 Đường Lê Duẩn, Toà Nhà PetroVietnam, Q. 1, ",Tp. Hồ Chí Minh (TPHCM),(028) 39104466                                ,psl@petrosetco.com.vn                             ,http://www.petrosetco.com.vn,Bất Động Sản - Dịch Vụ Bất Động Sản
Công Ty TNHH Đầu Tư & Phát Triển Quỹ Đất Silverland,"Tòa nhà Kova Center 92G, Phố Nguyễn Hữu Cảnh, Phường 22, Quận Bình Thạnh, ",Tp. Hồ Chí Minh (TPHCM),(028) 66505105                                ,hothimyle235@gmail.com                            ,,Bất Động Sản - Dịch Vụ Bất Động Sản
Công Ty CP Dịch Vụ Và Đầu Tư Tân Trang,"Số 383B, Đường Nguyễn Trãi, P. Võ Cường, TP. Bắc Ninh, ",Bắc Ninh,0818988688                              ,tantrangjsc99@gmail.com                           ,http://bdstantrang.com,Bất Động Sản - Dịch Vụ Bất Động Sản
Pindex Việt Nam,"3C Tôn Đức Thắng, P. Bến Nghé, Q. 1, ",Tp. Hồ Chí Minh (TPHCM),0946086033                              ,pindexvietnam@gmail.com                           ,http://pindex.vn,Bất Động Sản - Dịch Vụ Bất Động Sản
Công Ty TNHH Sun Well,"231-233 Lê Thánh Tôn, Bến Thành, Q. 1, ",Tp. Hồ Chí Minh (TPHCM),0911338666                              ,congtysunwell@gmail.com                           ,http://goinhadat.com,Bất Động Sản - Dịch Vụ Bất Động Sản
Vis Estate,"17.06, Chung Cư H3, Số 384 Hoàng Diệu, P. 6, Q. 4, ",Tp. Hồ Chí Minh (TPHCM),19002004                                ,gratia.g@vis.estate                               ,http://vis.estate,Bất Động Sản - Dịch Vụ Bất Động Sản
Công Ty TNHH Phát Triển Và Phân Phối Bất Động Sản Saigon Land,"39 Đường Số 19, KDC Phong Phú 4 , Xã Phong Phú , Huyện Bình Chánh, ",Tp. Hồ Chí Minh (TPHCM),0903865870                              ,batdongsanphongphu4@gmail.com                     ,http://datnenkhangdien.com,Bất Động Sản - Dịch Vụ Bất Động Sản
Tổ Hợp Giải Trí Và Du Lịch Cocobay Đà Nẵng,"Tầng 4, Tòa Nhà HH2, Đường Dương Đình Nghệ, Cầu Giấy, ",Hà Nội,0988696624                              ,cocobayf1.com                                     ,http://xuantruongpa@gmail.com,Bất Động Sản - Dịch Vụ Bất Động Sản
Công Ty TNHH CBRE (Việt Nam),"Phòng 1201, Tầng12, Tòa Nhà Mê Linh Point, 2 Ngô Đức Kế, P. Bến Nghé, Q. 1, ",Tp. Hồ Chí Minh (TPHCM),(028) 38246125                                ,vietnam@cbre.com                                  ,http://www.cbrevietnam.com,Bất Động Sản - Dịch Vụ Bất Động Sản
Công Ty Tư Vấn Đầu Tư Địa ốc Bất Động Sản Năng Động,"86 Trần Phú, TP Nha Trang, ",Khánh Hòa,0935364984                              ,bdsnangdong@gmail.com                             ,,Bất Động Sản - Dịch Vụ Bất Động Sản
Công Ty Cổ Phần Dịch Vụ Bất Động Sản Tiên Phong,"Phòng 608, tòa 17T4 Trung Hòa - Nhân Chính, P. Nhân Chính, Q. Thanh Xuân, ",Hà Nội,0942036833                              ,huuhoi83@gmail.com                                ,http://tienphongland.vn,Bất Động Sản - Dịch Vụ Bất Động Sản
Công ty The Matrix One,"Ngã tư Lê Quang Đạo - Mễ Trì, P. Mễ Trì, Q. Nam Từ Liêm, ",Hà Nội,0388964183                              ,thematrixone.mik@gmail.com                        ,http://thematrixonemetri.org,Bất Động Sản - Dịch Vụ Bất Động Sản
Tổng Công Ty Phát Triển Nhà & Đô Thị,"21 Kim Đồng, P. Giáp Bát, Q. Hoàng Mai, ",Hà Nội,(024) 38647174                                ,hud@hn.vnn.vn                                     ,http://www.hud.com.vn,Bất Động Sản - Dịch Vụ Bất Động Sản
Công Ty Cổ Phần Đầu Tư Âu Nam,"Số 162 Nguyễn Hữu Thọ, P. Hòa Thuận Tây, Q. Hải Châu, ",Tp. Đà Nẵng,(08) 88999819                           ,aunamjsc@gmail.com                                ,http://aunam.com.vn,Bất Động Sản - Dịch Vụ Bất Động Sản
Công Ty Cổ Phần Đầu Tư Xây Dựng Địa ốc Đất Nam,"476 Tên Lửa, Phường Bình Trị Đông B, Bình Tân, HCM ",Tp. Hồ Chí Minh (TPHCM),936555647                               ,vandinhgiangsg@gmail.com                          ,http://datnenbinhchanh.com.vn,Bất Động Sản - Dịch Vụ Bất Động Sản
Lê Công Thanh,"456/11/5 Trần Phú, ",Bà Rịa-Vũng Tàu,0902581902                              ,lithanh2007@gmail.com                             ,,Bất Động Sản - Dịch Vụ Bất Động Sản
Công ty Cổ phần Dịch Vụ Bất Động Sản LANDTA,"176 Quan Nhân, Thanh Xuân, ",Hà Nội,0888122212                              ,landta@gmail.com                                  ,http://landta.com,Bất Động Sản - Dịch Vụ Bất Động Sản
Công Ty TNHH Pha Lê Việt Nam,"17 Tô Ngọc Vân, Q. Tây Hồ, ",Hà Nội,(024) 37194374                                ,imagegroupvn@gmail.com                            ,http://hanoihousing.vn,Bất Động Sản - Dịch Vụ Bất Động Sản
Công Ty TNHH MTV Bất Động Sản Nam Kỳ Land,"176 Ngô Thì Nhậm, P. An Khánh, Q. Ninh Kiều, ",TP. Cần Thơ,0939666635                              ,Namkyland@gmail.com                               ,http://nhadatcantho.vn,Bất Động Sản - Dịch Vụ Bất Động Sản
Công Ty CP DV Quản Lý Nhà Chung Cư Bee Home,"72 Đường Số 17, P. 11, Q. Gò Vấp, ",Tp. Hồ Chí Minh (TPHCM),0963252727                              ,anle@bee-home.com.vn                              ,http://bee-home.com.vn,Bất Động Sản - Dịch Vụ Bất Động Sản
Bán Đất Bình Dương Giá Rẻ,"Thủ Dầu Một, ",Bình Dương,0978787009                              ,vandung8210@gmail.com                             ,,Bất Động Sản - Dịch Vụ Bất Động Sản
Liên Minh Nhà Đất,"Số 275, đường Nguyễn Trãi, Q. Thanh Xuân, ",Hà Nội,0976799138                              ,quangkhaiblogger@gmail.com                        ,http://www.ecogreen-city.com,Bất Động Sản - Dịch Vụ Bất Động Sản
Công Ty Địa Ốc Trung Nam,"50 Nguyễn Chí Thanh, Thạch Thang, Hải Châu, ",Tp. Đà Nẵng,0905222215                              ,trungnamland01@gmail.com                          ,,Bất Động Sản - Dịch Vụ Bất Động Sản
Công Ty CP Bất Động Sản Newlife Land,"Số 9, Ngõ 20, Đường Mỹ Đình, P. Mỹ Đình 2, Q. Nam Từ Liêm, ",Hà Nội,0966131696                              , ,http://smartcity.net.vn,Bất Động Sản - Dịch Vụ Bất Động Sản
Công Ty Cổ Phần Đầu Tư Hiland Việt Nam,"Số 2/176 Đường Bờ Sông, Phố Nguyễn Đình Hoàn, P. Nghĩa Đô, Q. Cầu Giấy, ",Hà Nội,0972155533                              ,info@hilandvietnam.com                            ,http://hilandvietnam.com,Bất Động Sản - Dịch Vụ Bất Động Sản
Công Ty TNHH TM - DV Phú Phan,"Số 73, Đường 65, Khu Tân Quy Đông, Phường Tân Long, Quận 7, ",Tp. Hồ Chí Minh (TPHCM),(028) 37718639                                ,info@baomocolongtea.com                           ,http://baomocolongtea.com,Bất Động Sản - Dịch Vụ Bất Động Sản
Công ty TNHH Địa ốc Song Anh,"Đường NA2, Lô 5A21, KCN Mỹ Phước 4, Phường Thới Hòa, Thị Xã Bến Cát, ",Bình Dương,0908790135                              ,diaocsonganh@gmail.com                            ,http://diaocsonganh.com.vn,Bất Động Sản - Dịch Vụ Bất Động Sản
Công Ty Cổ Phần Dịch Vụ Bất Động Sản Minh Khang Gia,"225 Hai Bà Trưng, P. 6, Q. 3, ",Tp. Hồ Chí Minh (TPHCM),(028) 38204569                                ,info@minhkhanggia.com                             ,http://minhkhanggia.com,Bất Động Sản - Dịch Vụ Bất Động Sản
Sơn Kim - Công Ty TNHH Đầu Tư & Phát Triển Sơn Kim,"53 Nguyễn Đình Chiểu, P. 6, Q. 3, ",Tp. Hồ Chí Minh (TPHCM),(028) 38231564                                ,sonkim@hcm.fpt.vn                                 ,,Bất Động Sản - Dịch Vụ Bất Động Sản
Diaoconline24h,"908/3A Quang Trung, Gò Vấp, ",Tp. Hồ Chí Minh (TPHCM),0984155386                              ,thanhphong3390@gmail.com                          ,http://diaoconline24h.com.vn,Bất Động Sản - Dịch Vụ Bất Động Sản
Công Ty CP DV Và Đầu Tư Đất Xanh Đông Nam Bộ,"Số C1/17+18, Khu Quy Hoạch Nhà Ở, KP 1, P. Long Bình Tân, Tp. Biên Hoà, ",Đồng Nai,(0251) 6266288                                 ,info@datxanhdongnambo.com.vn                      ,http://datxanhdongnambo.com.vn,Bất Động Sản - Dịch Vụ Bất Động Sản
Công Ty Tuấn Linh Group,"Số 44, Ngõ 155, Cầu Giấy, ",Hà Nội,0975395780                              ,tuanlinhgroup11@gmail.com                         ,http://tuanlinhgroup.com,Bất Động Sản - Dịch Vụ Bất Động Sản
Hanoi Housing Agent,"Tầng 1, Số 17, Ngõ 4 Nguyễn Đình Chiểu, Q. Hai Bà Trưng, ",Hà Nội,098 260 868                             ,hanoihousingagent2015@gmail.com                   ,,Bất Động Sản - Dịch Vụ Bất Động Sản
Công Ty Cổ Phần Đầu Tư Naka,"Tầng 7, Toà Nhà Jabes 2, 110 Cách Mạng Tháng 8, Phường 7, Quận 3, ",Tp. Hồ Chí Minh (TPHCM),0934117658                              ,naka@nakafi.com                                   ,http://nakafi.com,Bất Động Sản - Dịch Vụ Bất Động Sản
Công ty TNHH Địa ốc Song Anh,"Đường NA2, Lô 5A21, KCN Mỹ Phước 4, Phường Thới Hòa, Thị Xã Bến Cát, ",Bình Dương,0908790135                              ,diaocsonganh@gmail.com                            ,http://diaocsonganh.com.vn,Bất Động Sản - Dịch Vụ Bất Động Sản
Imperia Eden Park,"Số 90 Đường Mễ Trì, Q. Nam Từ Liêm, ",Hà Nội,096 926 3333                            ,admin@mikimperiaedenpark.com                      ,http://mikimperiaedenpark.com,Bất Động Sản - Dịch Vụ Bất Động Sản
Mua bán Khách sạn Đà Nẵng, ,Tp. Đà Nẵng,0916722292                              ,ngothithuylinh.net@gmail.com                      ,,Bất Động Sản - Dịch Vụ Bất Động Sản
Công Ty Cổ Phần Free Land,"Phòng 3, Tầng 36, Tòa Nhà Bitexco Financial Tower, Số 02 Hải, P. Bến Nghé, Q. 1, ",Tp. Hồ Chí Minh (TPHCM),0868603817                              ,phamhuyforum@gmail.com                            ,,Bất Động Sản - Dịch Vụ Bất Động Sản
Bán Đất Bình Dương Giá Rẻ,"Thủ Dầu Một, ",Bình Dương,0978787009                              ,vandung8210@gmail.com                             ,,Bất Động Sản - Dịch Vụ Bất Động Sản
Công Ty CP DV Và Đầu Tư Đất Xanh Đông Nam Bộ,"Số C1/17+18, Khu Quy Hoạch Nhà Ở, KP 1, P. Long Bình Tân, Tp. Biên Hoà, ",Đồng Nai,(0251) 6266288                                 ,info@datxanhdongnambo.com.vn                      ,http://datxanhdongnambo.com.vn,Bất Động Sản - Dịch Vụ Bất Động Sản
Công Ty TNHH XD TM DV Nhà Đất Minh Đức,"281D Lãnh Binh Thăng, P. 8, Q. 11, ",Tp. Hồ Chí Minh (TPHCM),0911756309                              ,nhadatminhduc2@gmail.com                          ,http://nhadatminhduc.net,Bất Động Sản - Dịch Vụ Bất Động Sản
Công ty cổ phần địa ốc PT Land,"VP01-03 Tầng 3, Bcons Tower, 4A/167A Đường D1, P. 25 ",Tp. Hồ Chí Minh (TPHCM),66786866                                ,thanhvo09071997@gmail.com                         ,,Bất Động Sản - Dịch Vụ Bất Động Sản
Công Ty Cổ Phần Tư Vấn Bất Động Sản Newlife Land,"Số 9, Ngõ 20 Đường Mỹ Đình, P. Mỹ Đình 2, Q. Nam Từ Liêm, ",Hà Nội,0996563666                              ,info@newlifeland.vn                               ,http://newlifeland.vn,Bất Động Sản - Dịch Vụ Bất Động Sản
Công Ty TNHH TM - DV Phú Phan,"Số 73, Đường 65, Khu Tân Quy Đông, Phường Tân Long, Quận 7, ",Tp. Hồ Chí Minh (TPHCM),(028) 37718639                                ,info@baomocolongtea.com                           ,http://baomocolongtea.com,Bất Động Sản - Dịch Vụ Bất Động Sản
Công Ty TNHH Bất Động Sản Areco,"157 Nam Kỳ Khởi Nghĩa, P. 6, Q. 3, ",Tp. Hồ Chí Minh (TPHCM),(028) 73039000                                , ,,Bất Động Sản - Dịch Vụ Bất Động Sản
Công Ty TNHH Anpha,"Cụm CN Quán Trữ, Q. Kiến An, ",Tp. Hải Phòng,(0225) 2211668                                 , ,http://anphaco.net,Bất Động Sản - Dịch Vụ Bất Động Sản
Công Ty Cổ Phần Doanh Nghiệp Trẻ,"38 Lê Thánh Tông, Tp. Hạ Long, ",Quảng Ninh,(0203) 3621558                                 , ,,Bất Động Sản - Dịch Vụ Bất Động Sản
Địa ốc Eagle Real,"25/31 Bùi Quang Là, P12, Gò Vấp, ",Tp. Hồ Chí Minh (TPHCM),0902668026                              ,diaoceaglereal@gmail.com                          ,http://eaglereal.net,Bất Động Sản - Dịch Vụ Bất Động Sản
Công Ty Cổ Phần Property X,"45 Hoàng Việt, Phường 4, Tân Bình, ",Tp. Hồ Chí Minh (TPHCM),0903993068                              ,vuxuandat1402@gmail.com                           ,,Bất Động Sản - Dịch Vụ Bất Động Sản
Công Ty TNHH MTV Bất Động Sản Nam Kỳ Land,"176 Ngô Thì Nhậm, P. An Khánh, Q. Ninh Kiều, ",TP. Cần Thơ,0939666635                              ,Namkyland@gmail.com                               ,http://nhadatcantho.vn,Bất Động Sản - Dịch Vụ Bất Động Sản
Công Ty CP ĐT Và KD Bất Động Sản Ngọc Thanh Land,"Tầng 2, Toà CT4, The Pride, Khu ĐTM An Hưng, P. La Khê, Q. Hà Đông, ",Hà Nội,0968933683                              ,ngocthanh88xd@gmail.com                           ,http://dongocthanh.com,Bất Động Sản - Dịch Vụ Bất Động Sản
HomeHub,"14/22 Kim Giang, Thanh Xuân, ",Hà Nội,0936075683                              , ,http://homehub.vn,Bất Động Sản - Dịch Vụ Bất Động Sản
Công Ty CP Đầu Tư BUINGROUP,"222 Phan Văn Hân, P. 17, Q. Bình Thạnh, ",Tp. Hồ Chí Minh (TPHCM),0902437375                              ,cskh.buinland@gmail.com                           ,http://buinland.com.vn,Bất Động Sản - Dịch Vụ Bất Động Sản
Nhà Đất Công Thanh,"Số 1, Đường 1A Phạm Hữu Lầu, Quận 7 ",Tp. Hồ Chí Minh (TPHCM),0909721091                              ,bannhaquan07@gmail.com                            ,http://bannhaquan7.co,Bất Động Sản - Dịch Vụ Bất Động Sản
Vis Estate,"17.06, Chung Cư H3, Số 384 Hoàng Diệu, P. 6, Q. 4, ",Tp. Hồ Chí Minh (TPHCM),19002004                                ,gratia.g@vis.estate                               ,http://vis.estate,Bất Động Sản - Dịch Vụ Bất Động Sản
Công Ty Cổ Phần Dịch Vụ Bất Động Sản SHC (Saigon House Center),"Lầu 7, OSC Việt Nam Building, Số 161 Võ Văn Tần, P. 6, Q. 3, ",Tp. Hồ Chí Minh (TPHCM),0919393788                              ,saigonhousecenter@gmail.com                       ,http://saigonhousecenter.vn,Bất Động Sản - Dịch Vụ Bất Động Sản
Công Ty TNHH Tư Vấn Bất Động Sản Bảo Tín,"Toà Nhà 12B Lô 1B, Khu Đô Thị Mới Trung Yên, Trung Hòa, Cầu Giấy, ",Tp. Hồ Chí Minh (TPHCM),0968524919                              ,baotinchinh@gmail.com                             ,http://chothuexuong.com.vn,Bất Động Sản - Dịch Vụ Bất Động Sản
Công Ty Bất Động Sản Trần Anh,"871 Âu Cơ, P.12, Q.Tân Bình, ",Tp. Hồ Chí Minh (TPHCM),0965859793                              ,trananhcompany871@gmail.com                       ,,Bất Động Sản - Dịch Vụ Bất Động Sản
Công Ty TNHH XD - TM - DV Bất Động Sản Phú Hưng Long,"13 Nguyễn Thái Học, P. 1, Q. Bình Thạnh, ",Tp. Hồ Chí Minh (TPHCM),(028) 35101956                                ,phuhunglongbds@gmail.vn                           ,http://phuhunglong.vn,Bất Động Sản - Dịch Vụ Bất Động Sản
Công Ty TNHH Môi Giới Đầu Tư Bất Động Sản Hoàng Gia Phát,"9A Phạm Ngọc Thạch, P. Hiệp Thành, Q. Thủ Dầu Một, ",Bình Dương,0962606967                              ,btvtrantuanbinhduong@gmail.com                    ,http://diaochoanggiaphat.com.vn,Bất Động Sản - Dịch Vụ Bất Động Sản
Công Ty TNHH Sun Well,"231-233 Lê Thánh Tôn, Bến Thành, Q. 1, ",Tp. Hồ Chí Minh (TPHCM),0911338666                              ,congtysunwell@gmail.com                           ,http://goinhadat.com,Bất Động Sản - Dịch Vụ Bất Động Sản
Lê Công Thanh,"456/11/5 Trần Phú, ",Bà Rịa-Vũng Tàu,0902581902                              ,lithanh2007@gmail.com                             ,,Bất Động Sản - Dịch Vụ Bất Động Sản
Bất Động Sản Hưng Thịnh,"133 Nguyễn Thị Thập, Phường Tân Hưng, Quận 7, ",Tp. Hồ Chí Minh (TPHCM),0906662192                              ,nguyentrandiaoc@gmail.com                         ,http://hungthinhnew.com,Bất Động Sản - Dịch Vụ Bất Động Sản
Công Ty Cổ Phần Dịch Vụ Bất Động Sản Tiên Phong,"Phòng 608, tòa 17T4 Trung Hòa - Nhân Chính, P. Nhân Chính, Q. Thanh Xuân, ",Hà Nội,0942036833                              ,huuhoi83@gmail.com                                ,http://tienphongland.vn,Bất Động Sản - Dịch Vụ Bất Động Sản
Công Ty CP Senreal,"Lô SV06-V01&V02, Khu tổ hợp du lịch Sonasea Villas and Resort, X. Dương Tơ, H. Phú Quốc, ",Kiên Giang,(028) 73056839                                , ,,Bất Động Sản - Dịch Vụ Bất Động Sản
HOUSING SAIGON,"23A Lê Quý Đôn, Quận 3, ",Tp. Hồ Chí Minh (TPHCM),0707523502                              ,housingsgn@housingsgn.com                         ,,Bất Động Sản - Dịch Vụ Bất Động Sản
Công Ty Cổ Phần Đầu Tư Xây Dựng Địa ốc Đất Nam,"476 Tên Lửa, Phường Bình Trị Đông B, Bình Tân, HCM ",Tp. Hồ Chí Minh (TPHCM),936555647                               ,vandinhgiangsg@gmail.com                          ,http://datnenbinhchanh.com.vn,Bất Động Sản - Dịch Vụ Bất Động Sản
Công Ty Cổ Phần Dịch Vụ Bất Động Sản Long Đức,"152 QL 51, P. Tam Phước, TP. Biên Hòa, ",Đồng Nai,0971639496                              ,longducland@gmail.com                             ,,Bất Động Sản - Dịch Vụ Bất Động Sản
Công Ty CP Tư Vấn Dịch Vụ Đầu Tư Htic,"Lô 18, Khu Liên Cơ, Q. Nam Từ Liêm, ",Hà Nội,0913251679                              ,dangtuanhung210785@gmail.com                      ,http://nhadunggia.com,Bất Động Sản - Dịch Vụ Bất Động Sản
Công Ty Địa ốc Bình Dương City Land,Tp. Bình Dương ,Bình Dương,0978088349                              ,lelan17.1981@gmail.com                            ,,Bất Động Sản - Dịch Vụ Bất Động Sản
Công Ty TNHH Dịch Vụ Bất Động Sản An Phước Hưng,"14/20 Nhất Tri Mai, P. 13, Q. Tân Bình, ",Tp. Hồ Chí Minh (TPHCM),0902989591                              ,thanhdung@anphuochung.com.vn                      ,http://www.anphuochung.com.vn/,Bất Động Sản - Dịch Vụ Bất Động Sản
Công ty The Matrix One,"Ngã tư Lê Quang Đạo - Mễ Trì, P. Mễ Trì, Q. Nam Từ Liêm, ",Hà Nội,0388964183                              ,thematrixone.mik@gmail.com                        ,http://thematrixonemetri.org,Bất Động Sản - Dịch Vụ Bất Động Sản
Công Ty TNHH Pha Lê Việt Nam,"17 Tô Ngọc Vân, Q. Tây Hồ, ",Hà Nội,(024) 37194374                                ,imagegroupvn@gmail.com                            ,http://hanoihousing.vn,Bất Động Sản - Dịch Vụ Bất Động Sản
Công Ty Tư Vấn Đầu Tư Địa ốc Bất Động Sản Năng Động,"86 Trần Phú, TP Nha Trang, ",Khánh Hòa,0935364984                              ,bdsnangdong@gmail.com                             ,,Bất Động Sản - Dịch Vụ Bất Động Sản
Công Ty CP Đầu Tư BĐS Salehomes,"Số 127 Ni Sư Huỳnh Liên, Q. Tân Bình ",Tp. Hồ Chí Minh (TPHCM),0919015476                              ,salehomes.vn@gmail.com                            ,http://salehomes.vn,Bất Động Sản - Dịch Vụ Bất Động Sản
Công Ty Cổ Phần Đầu Tư Và Xây Dựng Địa Ốc Tân Long Phát,"138 Đường 30/4, P. Phú Hòa, TX. Thủ Dầu Một, ",Bình Dương,0393039189                              ,luyenpham.tanlongphat@gmail.com                   ,,Bất Động Sản - Dịch Vụ Bất Động Sản
ALO Nhà Đất | Thông tin thị trường Bất Động Sản Việt Nam,"Quận 9, ",Tp. Hồ Chí Minh (TPHCM),0903037234                              ,DerbyyMarcia@gmail.com                            ,http://alonhadat.org,Bất Động Sản - Dịch Vụ Bất Động Sản
Công Ty TNHH Thương Mại Dịch Vụ Quốc Tế Hòa Thịnh Phát,"57 Phùng Hưng, An Phước, Long Thành, ",Đồng Nai,0395707184                              ,Diaochoathinhphat@gmail.com                       ,,Bất Động Sản - Dịch Vụ Bất Động Sản
Valentina Court,"Valentina Court, 124 Điện Biên Phủ, P. Đa Kao, Q. 1, ",Tp. Hồ Chí Minh (TPHCM),(028) 38206829                                ,info@valentinacourt-vn.com                        ,http://www.valentinacourt-vn.com,Bất Động Sản - Dịch Vụ Bất Động Sản
Công Ty CP Địa ốc ánh Dương,"6A, Ngách 190/7 Đ. Nguyễn Trãi, Nhân Chính, Thanh Xuân, ",Hà Nội,0965276696                              ,thehouse.com.vn@gmail.com                         ,http://thehouse.com.vn,Bất Động Sản - Dịch Vụ Bất Động Sản
Công Ty Cổ Phần Tập Đoàn Meey Land,"Tầng 5, Tòa nhà 97-99 Láng Hạ, P. Láng Hạ, Q. Đống Đa, ",Hà Nội,0869 092 929                            ,Contact@meeyland.com                              ,http://Meeyland.com,Bất Động Sản - Dịch Vụ Bất Động Sản
Malibu Hội An,"02 Lạc Long Quân, Phường Điện Dương, Thị xã Điện Bàn, ",Quảng Nam,0906438589                              ,resortmalibuhoian@gmail.com                       ,http://resortmalibuhoian.com,Bất Động Sản - Dịch Vụ Bất Động Sản
Công Ty CP DV Bất Động Sản Hoàng Kim,"116 Vạn Phúc, Hà Đông, ",Hà Nội,0912774786                              ,thanhtrungnguyen267@gmail.com                     ,http://tiendochungcu.com,Bất Động Sản - Dịch Vụ Bất Động Sản
Công Ty TNHH  Hồ Lô,"Châu Đức, ",Bà Rịa-Vũng Tàu,0945732735                              , ,,Bất Động Sản - Dịch Vụ Bất Động Sản
Bất Động Sản Bảo Liêm,"Bến Cát, Bình Dương, Tân Định, ",Tp. Hồ Chí Minh (TPHCM),0986228467                              ,hobaoliem@gmail.com                               ,http://bdshobaoliem.webnode.vn,Bất Động Sản - Dịch Vụ Bất Động Sản
Công Ty Cổ Phần Relax Việt Nam,"P2101, Tháp T2, Tòa Nhà HACC1, 35 Lê Văn Lương, Q. Thanh Xuân, ",Hà Nội,0947746688                              ,info@relaxvietnam.vn                              ,http://relaxvietnam.vn,Bất Động Sản - Dịch Vụ Bất Động Sản
Công Ty Cổ Phần Đầu Tư Xây Dựng Và Phát Triển Địa ốc Kim Long,"NP 06 - 16, Đường N2, Khu Đô Thị Thương Mại Dịch Vụ The Season, Phường Lái Thiêu, Thị Xã Thuận An, Bình Dương ",Tp. Hồ Chí Minh (TPHCM),02862703098                             ,lienhe.diaockimlong@gmail.com                     ,http://diaockimlong.com.vn,Bất Động Sản - Dịch Vụ Bất Động Sản
Công Ty Cổ Phần Đầu Tư Sài Gòn - Đà Nẵng( KCN Hòa Khánh Mở Rộng & Liên Chiểu,"61A P. Hòa Hiệp Bắc, Đ.Nguyễn Văn Cừ, Q. Liên Chiểu, ",Tp. Đà Nẵng,(0236) 3770997                                 , ,http://dananginvest.com,Bất Động Sản - Dịch Vụ Bất Động Sản
Công Ty Bất Động Sản Ngọc K,"84/48/20 Đường Tân Sơn Nhì, P. Tân Sơn Nhì, Q. Tân Phú, ",Tp. Hồ Chí Minh (TPHCM),0914805532                              ,dnkhanh.trananh@gmail.com                         ,,Bất Động Sản - Dịch Vụ Bất Động Sản
Đức Nghĩa Land,"74 Nguyễn Văn Trỗi, Q. Phú Nhuận, ",Tp. Hồ Chí Minh (TPHCM),0906332558                              ,trannghia19129@gmail.com                          ,http://ducnghialand.com,Bất Động Sản - Dịch Vụ Bất Động Sản
Công Ty TNHH Sản Xuất Thương Mại Và Dịch Vụ Linh Nguyên - Sàn Giao Dịch Nguyên Phú Hưng,"Tòa Nhà Fimexco 231 - 233 Tầng 6, Lê Thánh Tôn, P. Bến Thành, Q.1, ",Tp. Hồ Chí Minh (TPHCM),(028) 62556618                                ,linhnguyen579@gmail.com                           ,http://nguyenphuhung.com,Bất Động Sản - Dịch Vụ Bất Động Sản
Khu Công Nghiệp Dịch Vụ Thủy Sản Đà Nẵng,"Tầng 3,4 Số 58 Nguyễn Chí Thanh, ",Tp. Đà Nẵng,(0236) 3886167                                 , ,,Bất Động Sản - Dịch Vụ Bất Động Sản
Công ty Asia Properties,"Dịch Vong, Cầu Giấy, ",Hà Nội,0976654869                              ,dinhthiethk@gmail.com                             ,,Bất Động Sản - Dịch Vụ Bất Động Sản
Căn hộ Sunshine Avenue,"Đường 41, P. 16, Q. 18, ",Tp. Hồ Chí Minh (TPHCM),0931223138                              ,sale.sunshineavenue@gmail.com                     ,http://sunshinesavenue.com,Bất Động Sản - Dịch Vụ Bất Động Sản
Công Ty Địa Ốc Ba Thành Phát,"364 Huỳnh Thúc Kháng, phường Hòa Phú, Tp. Thủ Dầu Một, ",Bình Dương,0949739728                              ,diaocbathanhphat@gmail.com                        ,http://bathanhphat.com,Bất Động Sản - Dịch Vụ Bất Động Sản
Công Ty Phát Triển Dự án Bất Động Sản,"E1/B4 Quách Điêu Vĩnh Lộc A,Q. Bình Chánh, ",Tp. Hồ Chí Minh (TPHCM),0903229836                              ,huynhanhco88@gmail.com                            ,,Bất Động Sản - Dịch Vụ Bất Động Sản
Công Ty TNHH Phát Triển Thương Hiệu Và Dịch Vụ Kết Nối Bán Lẻ Châu Á,"77-79-81 Đào Duy Từ, phường 5, quận 5, ",Tp. Hồ Chí Minh (TPHCM),096 868 80 81                           ,retail@a-connection.com.vn                        ,http://a-connection.com.vn,Bất Động Sản - Dịch Vụ Bất Động Sản
Công ty CP Xây Dựng Địa Ốc Cát Tường,"Tầng 2 Tòa Nhà Bảo Tín, 1A1 Lý Thường Kiệt, Phường 7, Quận Tân Bình, ",Tp. Hồ Chí Minh (TPHCM),0902419761                              ,kenhdatnen123@gmail.com                           ,http://kenhdatnen.vn,Bất Động Sản - Dịch Vụ Bất Động Sản
Công Ty TNHH Đại Thanh,"Số 18, Nguyễn Mạnh Tường, P. Phước Nguyên, ",Bà Rịa-Vũng Tàu,0963876695                              ,CSKH@thitruongnhadatbrvt.com                      ,http://thitruongnhadatbrvt.com,Bất Động Sản - Dịch Vụ Bất Động Sản
Công Ty TNHH Gamuda Land Việt Nam,"Km 1,5 Pháp Vân, Công viên Yên Sở, Q. Hoàng Mai, ",Hà Nội,(024) 39449898                                ,nvthuanit64@gmail.com                             ,http://gamudaland.com.vn,Bất Động Sản - Dịch Vụ Bất Động Sản
Công Ty Cổ Phần Đầu Tư Viễn Đông,"Tầng 6, Tòa Nhà Viễn Đông, Số 36 Hoàng Cầu, Phường Ô Chợ Dừa, Quận Đống Đa, ",Hà Nội,0906039335                              , ,http://tapdoanviendong.vn,Bất Động Sản - Dịch Vụ Bất Động Sản
Công Ty TNHH Phần Mềm Việt Nhân,"59 Cộng Hòa, P. 4, Q. Tân Bình, ",Tp. Hồ Chí Minh (TPHCM),(028) 62951997                                ,info@vietnhan.com                                 ,http://vietnhan.com,Bất Động Sản - Dịch Vụ Bất Động Sản
Công Ty Cổ Phần Đầu Tư Bất Động Sản Lavic,"99 Đường số 5, Phường An Phú, Quận 2, ",Tp. Hồ Chí Minh (TPHCM),0907193369                              ,info@lavicland.com.vn                             ,http://lavicland.com.vn,Bất Động Sản - Dịch Vụ Bất Động Sản
Sàn Giao Dịch Bất Động Sản Nhất Nam Land,"480 Đường 2-9, P. Hòa Cường Nam, Q. Hải Châu, ",Tp. Đà Nẵng,0945879884                              ,info@nhatnamland.vn                               ,http://nhatnamland.vn,Bất Động Sản - Dịch Vụ Bất Động Sản
Công Ty TNHH Tin Học Phi Long,"29/12 Bis Nguyễn Bỉnh Khiêm, P. Đakao, Q. 1 ",Tp. Hồ Chí Minh (TPHCM),(028) 22191307                                ,phile@dothidiaoc.com                              ,http://dothidiaoc.com,Bất Động Sản - Dịch Vụ Bất Động Sản
Hoàng Anh - Công Ty TNHH Thương Mại & Dịch Vụ Địa ốc Hoàng Anh,"5 Bàn Cờ, P. 3, Q. 3, ",Tp. Hồ Chí Minh (TPHCM),(028) 38322450                                , ,,Bất Động Sản - Dịch Vụ Bất Động Sản
Công Ty Seareal Center,"110 Đường 2/3, ",Tp. Đà Nẵng,0905944368                              ,huyentrang.seareal@gmail.com                      ,,Bất Động Sản - Dịch Vụ Bất Động Sản
Công Ty TNHH Nhà Vũng Tàu,"48C Hoàng Hoa Thám, P. 2, TP. Vũng Tàu, ",Bà Rịa-Vũng Tàu,0937109088                              ,info@nhavungtau.vn                                ,http://www.nhavungtau.vn,Bất Động Sản - Dịch Vụ Bất Động Sản
Công Ty TNHH MTV Becaco,"133/ôk KV Bình Phó A, P. Lonh Tuyền, Q. Bình Thủy, ",TP. Cần Thơ,0983083080                              ,quanle.becaco@yahoo.com                           ,,Bất Động Sản - Dịch Vụ Bất Động Sản
Liên San - Công Ty TNHH Liên San,,Hà Nội,(024) 39870987                                ,gdliensan@gmail.com                               ,http://liensan.com.vn,Bất Động Sản - Dịch Vụ Bất Động Sản
Công Ty TNHH Quản Lý Tài Sản Bắc Trung Nam,"48 Giải Phóng, P. 4, Q. Tân Bình, ",Tp. Hồ Chí Minh (TPHCM),0909170917                              ,phung.btnamc@gmail.com                            ,,Bất Động Sản - Dịch Vụ Bất Động Sản
Công Ty Cổ Phần Sàn Giao Dịch Bất Động Sản Đại Phước,"Lý Thái Tổ, Nhơn Trạch, ",Đồng Nai,0916061978                              ,daiphuocland@gmail.com                            ,http://daiphuocland.net,Bất Động Sản - Dịch Vụ Bất Động Sản
Công Ty TNHH Lập Sơn - Sàn Giao Dịch Thế Giới Bất Động Sản,"923 Nguyễn Tất Thành, P. Thanh Bình, Q. Hải Châu, ",Tp. Đà Nẵng,(0236) 3625555                                 ,lapsoncorp@gmail.com                              ,http://thegioibatdongsan.vn,Bất Động Sản - Dịch Vụ Bất Động Sản
Công Ty TNHH A.S.S.I,"14 Trần Thái Tông, P. 15, Q. Tân Bình, ",Tp. Hồ Chí Minh (TPHCM),(028) 6295 8292                               ,assivietnam@gmail.com                             ,http://www.assivietnam.com,Bất Động Sản - Dịch Vụ Bất Động Sản
Bất Động Sản Hưng Thịnh,"45 Hoàng Việt, Phường 4, Quận Tân Bình, ",Tp. Hồ Chí Minh (TPHCM),0986518189                              ,ngahn83@gmail.com                                 ,http://batdongsansaigon.online/,Bất Động Sản - Dịch Vụ Bất Động Sản
Công Ty Cổ Phần Địa ốc Thắng Lợi,"337 Tên Lửa, P. Bình Trị Đông B, Q. Bình Tân, ",Hồ Chí Minh (TP. HCM),(08) 35366969                                , ,http://www.diaocthangloi.com,Bất Động Sản - Dịch Vụ Bất Động Sản
Công Ty Cổ Phần Dịch Vụ Bất Động Sản Asia Properties (á Châu),"R2-L2-03A Khu TTTM Royal City, 72A Nguyễn Trãi, P. Thượng Đình, Q. Thanh Xuân ",Hà Nội,0943183377                              ,info@asiaproperties.vn                            ,http://www.asiaproperties.vn,Bất Động Sản - Dịch Vụ Bất Động Sản
Công Ty TNHH Đào Gia Phát,"21 Hoàng Diệu, Lầu 5, P. 12, Q. 4, ",Tp. Hồ Chí Minh (TPHCM),(028) 837734995                               ,welcome@daogiaphat.com                            ,http://daogiaphat.com,Bất Động Sản - Dịch Vụ Bất Động Sản
Công Ty Đầu Tư Thương Mại Và Dịch Vụ Nhà Đất Tổng Hợp,"57-59 Hồ Tùng Mậu, P. Bến Nghé, Q. 1, ",Tp. Hồ Chí Minh (TPHCM),0938737871                              ,info@nhadattonghop.com                            ,http://nhadattonghop.com.vn,Bất Động Sản - Dịch Vụ Bất Động Sản
Trung Tâm Nhà Đất Thủ Đức,"Số 50 Đường Hiệp Bình, Phường Hiệp Bình Phước, Quận Thủ Đức, ",Tp. Hồ Chí Minh (TPHCM),"0909 246 896, 0909 246 897              ",nhadatthuducvn@gmail.com                          ,http://nhadatthuduc.vn,Bất Động Sản - Dịch Vụ Bất Động Sản
Bất Động Sản Đại An,"Kiot 6, Tòa CT10A, Khu Đô Thị Đại Thanh Cầu Bươu, H. Thanh Trì, ",Hà Nội,(024) 0935 641 626                            ,vanhabg1990@gmail.com                             ,http://www.duanbatdongsan.net,Bất Động Sản - Dịch Vụ Bất Động Sản
