#,name,address,city,phone,email,website,category
1,Công Ty TNHH TM DV Vật Liệu Và Thiết Bị Vĩnh Phú,"725B Đỗ Xuân Hợp, P. Phú Hữu, Q. 9, ",Tp. Hồ Chí Minh (TPHCM),(028) 66589777                                ,ctvinhphu@gmail.com                               ,http://vatlieuxaydungvinhphu.com,Xi Măng - Sản Xuất và Kinh Doanh
2,Cẩm Phả - Công Ty Cổ Phần Xi Măng Cẩm Phả,"Km6 P. Cẩm Thạch, TX. Cẩm Phả,Quốc Lộ 18A, ",Quảng Ninh,(0203) 3721998                                 ,info@camphacement.vn                              ,http://www.ximangcampha.vn,Xi Măng - Sản Xuất và Kinh Doanh
3,Sắt Thép Ngọc Linh - Công Ty TNHH Ngọc Linh,"VP & Cửa Hàng 1: 212 Kỳ Đồng, Q. Thanh Khê, ",Tp. Đà Nẵng,,info@ngoclinhdn.com.vn                            ,http://www.ngoclinhdn.com.vn,Xi Măng - Sản Xuất và Kinh Doanh
4,Vật Liệu Xây Dựng Mạnh Tú - Công Ty TNHH Thương Mại Dịch Vụ Vật Liệu Xây Dựng Mạnh Tú,"90 Võ Văn Kiệt, P. Nguyễn Thái Bình, Q. 1, ",Tp. Hồ Chí Minh (TPHCM),0917 555 999                            ,vlxdmanhtu555@gmail.com                           ,http://vlxdmanhtu.com.vn,Xi Măng - Sản Xuất và Kinh Doanh
5,Công Ty Xi Măng Nghi Sơn,"Xã Hải Thượng, Huyện Tĩnh Gia, ",Thanh Hóa,(0237) 3862013                                 ,sale&planning@nghison.com.vn                      ,http://www.nghison.com.vn,Xi Măng - Sản Xuất và Kinh Doanh
6,Vật Liệu Xây Dựng Nhà Xanh - Công Ty Cổ Phần Đầu Tư Và Phát Triển Xây Dựng Nhà Xanh,"489 Huỳnh Văn Lũy, P. Phú Mỹ, TP. Thủ Dầu Một, ",Bình Dương,"(0274) 3515678, Hotline: 0933.106.187          ",xaydung@nhaxanh.com.vn                            ,http://nhaxanh.com.vn,Xi Măng - Sản Xuất và Kinh Doanh
7,VLXD Tiến Thành Phát - Công Ty TNHH SX VLXD Tiến Thành Phát,"129/34 Nguyễn Chế Nghĩa, P. 12, Q. 8, ",TP. Hồ Chí Minh,"0934 040 777, 0903 166 229              ",sale@gachtienthanhphat.com                        ,http://gachtienthanhphat.com,Xi Măng - Sản Xuất và Kinh Doanh
8,VLXD Hoàng Minh Châu - Công Ty TNHH VLXD Hoàng Minh Châu,"Lô 5 – B1.115 KĐTST Hòa Xuân, P. Hòa Xuân, Q. Cẩm Lệ, ",Tp. Đà Nẵng,Hotline: 0979.668.279 - 0935.911.979    ,Phonhc@gmail.com                                  ,http://vatlieuxaydungdanang.com.vn,Xi Măng - Sản Xuất và Kinh Doanh
9,Vật Liệu Xây Dựng Thành Công - Công Ty TNHH TM DV Vận Tải Thuyết Quỳnh Như,"Tổ 16, Ấp An Qưới, Xã An Tịnh, Huyện Trảng Bàng, ",Tây Ninh,"(0276) 3884 112, 0943 771 314                  ",quynhnhu0409@gmail.com                            ,http://vlxdthuyetquynhnhu.bizz.vn,Xi Măng - Sản Xuất và Kinh Doanh
10,Vật Liệu Xây Dựng Hiệp Hà - Công Ty TNHH MTV Vật Liệu Xây Dựng Hiệp Hà,"33/2 Cao Lỗ, P. 4, Q. 8, ",Tp. Hồ Chí Minh (TPHCM),"(028) 62711440, 0909 67 2222                  ",ctyhiepha@gmail.com                               ,http://vlxdhiepha.com,Xi Măng - Sản Xuất và Kinh Doanh
11,Công Ty TNHH Một Thành Viên Khoáng Sản Vôi Việt,"Số 10 Tân Đẩu Long, P. Tân Thành, TP. Ninh Bình, ",Ninh Bình,(0229) 6559999                                 ,vietlime@gmail.com                                ,http://vietlime.vn,Xi Măng - Sản Xuất và Kinh Doanh
12,Công Ty TNHH MTV Xi Măng Vicem Hoàng Thạch,"Khu Bích Nhôi 2, P. Minh Tân, TX. Kinh Môn, ",Hải Dương,(0220) 3821092                                 ,contact@ximanghoangthach.com                      ,http://www.ximanghoangthach.com,Xi Măng - Sản Xuất và Kinh Doanh
13,Công Ty CP Xi Măng Đỉnh Cao,"Số 166, Đờng Nguyễn Thái Học, P. Quang Trung, TP. Vinh, ",Nghệ An,(028) 73009699                                ,info@topcement.vn                                 ,http://topcement.vn,Xi Măng - Sản Xuất và Kinh Doanh
14,Công Ty TNHH TM Và DV Minh Toàn,"72A Điện Biên Phủ, P. Chính Gián, Q. Thanh Khê, ",Tp. Đà Nẵng,(0236) 3649188                                 ,minhtoan72a@gmail.com                             ,http://minhtoan.vn,Xi Măng - Sản Xuất và Kinh Doanh
15,Công Ty CP Xi Măng Lạng Sơn,"Đường Phai Vệ, P. Đông Kinh, Tp. Lạng Sơn, ",Lạng Sơn,(0205) 3870195                                 ,info@ximanglangson.com.vn                         ,http://ximanglangson.com.vn,Xi Măng - Sản Xuất và Kinh Doanh
16,Công Ty TNHH HAMINCO,"Số 34, Đường 882, P. Phú Hữu, Q. 9, ",Tp. Hồ Chí Minh (TPHCM),(028) 22362616                                ,hamincocongty@gmail.com                           ,http://haminco.com.vn,Xi Măng - Sản Xuất và Kinh Doanh
17,Công Ty CP Nghĩa Thành Viễn Đông,"16 Bis Nguyễn Đình Chiểu, P. Đa Kao, Q. 1, ",Tp. Hồ Chí Minh (TPHCM),(028) 39107138                                ,info@nghiathanhfareast.com                        ,http://nghiathanhfareast.com,Xi Măng - Sản Xuất và Kinh Doanh
18,Công Ty TNHH Thế Giới Bê Tông,"195/12 Xô Viết Nghệ Tĩnh, P. 17, Q. Bình Thạnh, ",Tp. Hồ Chí Minh (TPHCM),(028) 66818492                                ,thegioibetong@gmail.com                           ,http://thegioibetong.vn,Xi Măng - Sản Xuất và Kinh Doanh
19,Công Ty TNHH Bảo Chứng,"89/2 Phan Huy ích, P. 15, Q. Tân Bình, ",Tp. Hồ Chí Minh (TPHCM),(028) 38 155 100 - Hotline: 0909.477.472      ,hathuy.guarantee@gmail.com                        ,http://www.phanphoiximang.vn,Xi Măng - Sản Xuất và Kinh Doanh
20,Công Ty TNHH TM - DV Minh Châu,"Lô 110 Đường A2, KĐT VCN Phước Hải, P. Phước Hải, Tp. Nha Trang, ",Khánh Hòa,0989158819                              ,minhchauctynt@gmail.com                           ,http://cong-ty-xi-mang-minh-chau.business.site,Xi Măng - Sản Xuất và Kinh Doanh
21,Công Ty CP Tập Đoàn Thành Công,"Số 10A Ngô Quyền, Cẩm Thượng, Tp. Hải Dương, ",Hải Dương,(0220) 3898839                                 ,info.thanhconggroup@gmail.com                     ,http://tcgvn.com,Xi Măng - Sản Xuất và Kinh Doanh
22,Công Ty TNHH Sản Xuất Và Thương Mại Hải Vân - Chi Nhánh Đồng Nai,"Số 168, đường ĐT769, X. Lộc An, H. Long Thành, ",Đồng Nai,0909477472                              ,robin.thuyvi@gmail.com                            ,http://www.phanphoiximang.vn,Xi Măng - Sản Xuất và Kinh Doanh
23,Công Ty Cổ Phần Vật Liệu Xây Dựng Miền Trung,"Số 33, Đường Nguyễn Thái Học, P. Lê Lợi, TP. Vinh, ",Nghệ An,(0238) 3536568                                 ,vlxdcencom@gmail.com                              ,http://cencom.vn,Xi Măng - Sản Xuất và Kinh Doanh
24,Công Ty TNHH Xi Măng Khánh Hòa,"158 Lê Hồng Phong, P. Phước Tân, Tp. Nha Trang, ",Khánh Hòa,(0258) 3871275                                 ,ximangkhanhhoa@yahoo.coM                          ,http://ximangkhanhhoa.com,Xi Măng - Sản Xuất và Kinh Doanh
25,Công Ty TNHH Vương Phúc Nguyên,"273, Đường Hồ Văn Cống, P. Tương Bình Hiệp, TP Thủ Dầu Một, ",Bình Dương,0949353598                              ,npp.vuongphucnguyen@gmail.com                     ,http://ximangphucnguyen.com,Xi Măng - Sản Xuất và Kinh Doanh
26,Công Ty Xi Măng Nghi Sơn - VPĐD,"Phòng 801, Tầng 8, Tòa Nhà Mặt Trời Sông Hồng, 23 Phan Chu Trinh, Q. Hoàn Kiếm, ",Hà Nội,(024) 39330912                                ,trangnhung@nghison.com.vn                         ,http://www.nghison.com.vn,Xi Măng - Sản Xuất và Kinh Doanh
27,Công Ty Cổ Phần Xi Măng Công Thanh,"Thôn Tam Sơn, Xã Tân Trường, Thị xã Nghi Sơn, ",Thanh Hóa,0903719090                              ,contact@congthanhgroup.com                        ,http://congthanhgroup.com,Xi Măng - Sản Xuất và Kinh Doanh
28,Fico Tây Ninh - Công Ty Cổ Phần Xi Măng Fico Tây Ninh,"Tầng 6, 9-19 Hồ Tùng Mậu, P. Nguyễn Thái Bình, Q. 1, ",Tp. Hồ Chí Minh (TPHCM),(028) 38212873                                , ,http://tafico.vn,Xi Măng - Sản Xuất và Kinh Doanh
29,Công Ty TNHH Thương Mại Dịch Vụ Xuất Nhập Khẩu Phú Đô Thị,"007 ấp 1B, X. Phước Thái, H. Long Thành, ",Tp. Hồ Chí Minh (TPHCM),(028) 0933846566                              ,tammynguyen.urban@gmail.com                       ,,Xi Măng - Sản Xuất và Kinh Doanh
30,Công Ty CP Sản Xuất Xây Dựng Hưng Long Phước,"Lô B4, KCN Hiệp Phước, X. Hiệp Phước, H. Nhà Bè, ",Tp. Hồ Chí Minh (TPHCM),(028) 62819006                                ,longnguyen@hunglongphuoc.vn                       ,http://hunglongphuoc.vn,Xi Măng - Sản Xuất và Kinh Doanh
31,Công Ty TNHH Huy Phát,"Quốc lộ 1A, TT Sơn Tịnh, Huyện Sơn Tịnh, ",Quảng Ngãi,(0255) 53842176                                ,huyphat.qng@gmail.com                             ,,Xi Măng - Sản Xuất và Kinh Doanh
32,Thùng Phuy Trường Thắng - Công Ty TNHH TM XNK Trường Thắng,"Số 106/9, Đường ĐX 042, Tổ 20, Khu 5, P. Phú Mỹ, TP. Thủ Dầu Một, ",Bình Dương,0347 739 004                            ,kinhdoanh.truongthang@gmail.com                   ,http://atq.com.vn,Xi Măng - Sản Xuất và Kinh Doanh
33,Công Ty TNHH Xây Dựng Thương Mại Xi Măng,"54 Ngõ 8, P. Trung Phụng, Q. Đống Đa, ",Hà Nội,(024) 38515141                                , ,,Xi Măng - Sản Xuất và Kinh Doanh
34,Vận Tải Hùng Đạt - Công Ty Cổ Phần Vận Tải Hùng Đạt,"79 Hoàng Diệu, Tây Lộc, TP. Huế, ",Thừa Thiên Huế,(0234) 3558558                                 ,hungdatjsc@gmail.com                              ,http://vantaihungdat.com,Xi Măng - Sản Xuất và Kinh Doanh
35,Bột Thạch Anh Hoàng Tùng - Công Ty TNHH Hoàng Tùng Bắc Ninh,"Thôn Trác Bút, Thị Trấn Chờ, Huyện Yên Phong, Bắc Ninh ",Bắc Ninh,0978 297 610                            , ,http://botthachanhhoangtungbacninh.bizz.vn,Xi Măng - Sản Xuất và Kinh Doanh
36,Công Ty Xi Măng Lavica,"142 Cao Lỗ, Q. 8, ",Tp. Hồ Chí Minh (TPHCM),0936 899 411                            , ,http://www.LavicaCement.com,Xi Măng - Sản Xuất và Kinh Doanh
37,A R Mines Industries,"Lô Đất Số 21, 22, 23 & D-3/15, KCN Kakoda, Đường Sanguem, Kakoda, , ",Curchorem-Goa,9011230235                              ,arminesind@gmail.com                              ,http://arminesind.com,Xi Măng - Sản Xuất và Kinh Doanh
38,Công Ty TNHH Tài Nguyên Đông Sơn,"Số 24 Lô 6, Đường Trung Yên, Q. Cầu Giấy, ",Hà Nội,0945017758                              ,general@dongsonresources.com                      ,http://dongsonresources.com,Xi Măng - Sản Xuất và Kinh Doanh
39,Công Ty CP TM Xi Măng Trắng Thái Bình,"Tầng 4-5 Tòa Nhà 19M1, KĐT Yên Hòa, Q. Cầu Giấy, ",Hà Nội,(024) 66839666                                , ,,Xi Măng - Sản Xuất và Kinh Doanh
40,Hà Tiên 1 - Công Ty Cổ Phần Xi Măng Hà Tiên 1,"360 Bến Chương Dương, P. Cầu Kho, Q. 1, ",Tp. Hồ Chí Minh (TPHCM),(028) 38368363                                ,hatien1@hatien1.com.vn                            ,http://www.hatien1.com.vn,Xi Măng - Sản Xuất và Kinh Doanh
41,Nghĩa Thành - Công Ty TNHH Nghĩa Thành,"100 Bình Giã, P. 8, Tp. Vũng Tàu, ",Bà Rịa-Vũng Tàu,(0254) 3859396                                 ,nghiathanh100@yahoo.com                           ,http://www.nghiathanh.com,Xi Măng - Sản Xuất và Kinh Doanh
42,Công Ty TNHH Quốc Tế Vũ Phát,"Số 54, Đường Số 8, KP. 2, P. An Lạc, Q. Bình Tân, ",Tp. Hồ Chí Minh (TPHCM),0976487878                              ,levanvu@gmail.com                                 ,http://vuphat.com,Xi Măng - Sản Xuất và Kinh Doanh
43,Công Ty TNHH Xi Măng INSEE,"Lầu 9&10, Fideco Tower 81-83-83B-85 Hàm Nghi, P. Nguyễn Thái Bình, Q. 1, ",Tp. Hồ Chí Minh (TPHCM),(028) 62628989                                ,khanhtruong102@gmail.com                          ,http://vungxaycuocsong.com.vn,Xi Măng - Sản Xuất và Kinh Doanh
44,Tổng Công Ty Công Nghiệp Xi Măng Việt Nam - VICEM,"228 Lê Duẩn, ",Hà Nội,(024) 8512425                                 ,vanphong@vicem.vn                                 ,http://www.vicem.vn,Xi Măng - Sản Xuất và Kinh Doanh
45,Keo Dán Joinmax - Công Ty TNHH Hiệp Hòa,"Số 3/27 Đường Đại Cồ Việt, Q. Hai Bà Trưng, ",Hà Nội,(024) 39952242                                ,hiephoaxd@gmail.com                               ,http://keodangachda.com.vn,Xi Măng - Sản Xuất và Kinh Doanh
46,Công Ty TNHH Huy Phát,"Quốc lộ 1A, TT Sơn Tịnh, Huyện Sơn Tịnh, ",Quảng Ngãi,(0255) 53842176                                ,huyphat.qng@gmail.com                             ,,Xi Măng - Sản Xuất và Kinh Doanh
47,Công Ty TNHH Xây Dựng Thương Mại Xi Măng,"54 Ngõ 8, P. Trung Phụng, Q. Đống Đa, ",Hà Nội,(024) 38515141                                , ,,Xi Măng - Sản Xuất và Kinh Doanh
48,Hà Tiên 1 - Công Ty Cổ Phần Xi Măng Hà Tiên 1,"360 Bến Chương Dương, P. Cầu Kho, Q. 1, ",Tp. Hồ Chí Minh (TPHCM),(028) 38368363                                ,hatien1@hatien1.com.vn                            ,http://www.hatien1.com.vn,Xi Măng - Sản Xuất và Kinh Doanh
49,Tổng Công Ty Công Nghiệp Xi Măng Việt Nam - VICEM,"228 Lê Duẩn, ",Hà Nội,(024) 8512425                                 ,vanphong@vicem.vn                                 ,http://www.vicem.vn,Xi Măng - Sản Xuất và Kinh Doanh
50,Công Ty TNHH Xi Măng INSEE,"Lầu 9&10, Fideco Tower 81-83-83B-85 Hàm Nghi, P. Nguyễn Thái Bình, Q. 1, ",Tp. Hồ Chí Minh (TPHCM),(028) 62628989                                ,khanhtruong102@gmail.com                          ,http://vungxaycuocsong.com.vn,Xi Măng - Sản Xuất và Kinh Doanh
51,Vận Tải Hùng Đạt - Công Ty Cổ Phần Vận Tải Hùng Đạt,"79 Hoàng Diệu, Tây Lộc, TP. Huế, ",Thừa Thiên Huế,(0234) 3558558                                 ,hungdatjsc@gmail.com                              ,http://vantaihungdat.com,Xi Măng - Sản Xuất và Kinh Doanh
52,Công Ty TNHH MTV TM Hóa Chất Lan Kiều,"Ô 35 DC23, KDC Việt Sing, KP. 4, P. An Phú, TX. Thuận An, ",Bình Dương,(0274) 3764958                                 ,zhouhong5515@gmail.com                            ,,Xi Măng - Sản Xuất và Kinh Doanh
53,Công Ty TNHH Vật Liệu Xây Dựng Hưng Gia Bình,"265 Nguyễn Hữu Thọ, P. Hòa Cường Bắc, Q. Hải Châu, ",Tp. Đà Nẵng,0935090252                              ,lienhe@vatlieuxaydung24h.vn                       ,http://vatlieuxaydung24h.vn,Xi Măng - Sản Xuất và Kinh Doanh
54,Công Ty TNHH Xây Dựng TM DV Phúc Nhơn,"99 - 101 Thống Nhất, P. Đạo Long, TP. Phan Rang - Tháp Chàm, ",Ninh Thuận,(0259) 3824780                                 ,vlxdphucnhon@gmail.com                            ,http://vlxdphucnhon.com,Xi Măng - Sản Xuất và Kinh Doanh
55,Công Ty Cổ Phần Thép & Đầu Tư Thụy Sĩ,"61 Nguyễn Phước Tần, P. Hòa Thọ Đông, Q. Cẩm Lệ, ",Tp. Đà Nẵng,(0236) 2816146                                 ,thuysisteel@gmail.com                             ,http://thuysisteel.com.vn,Xi Măng - Sản Xuất và Kinh Doanh
56,Vật Liệu Xây Dựng Hoàng Minh Cường - Công Ty TNHH SX & TM Hoàng Minh Cường,"Số 15, Ấp Hòa Phú, X. An Hòa, H. Trảng Bàng, ",Tây Ninh,"(0276) 3882078, 0909 907 479                   ",hoangminhcuongtn@gmail.com                        ,http://vatlieuxaydungtayninh.bizz.vn,Xi Măng - Sản Xuất và Kinh Doanh
57,Công Ty TNHH MTV Công Nghiệp Gỗ Tây Nam,"Khu 1, TT. Mỹ Phước, Huyện Tân Phước ",Tiền Giang,(0273) 3633838                                 ,nhaphanphoi@gmail.com                             ,,Xi Măng - Sản Xuất và Kinh Doanh
58,Công Ty TNHH VLXD Minh Khang Khánh Hòa,"177 Ngô Gia Tự, Tp. Nha Trang, ",Khánh Hòa,"(0258) 3515032, Hotline: 0913.489.467          ",vlxdquocthien332@gmail.com                        ,http://vatlieuxaydungminhkhang.bizz.vn,Xi Măng - Sản Xuất và Kinh Doanh
59,Công Ty TNHH Vạn Phước Ban Mê,"474 Võ  Văn Kiệt, P. Khánh Xuân, TP. Buôn Ma Thuột, ",Đắc Lắc,0326595959                              ,vanphuocbanme@gmail.com                           ,,Xi Măng - Sản Xuất và Kinh Doanh
60,Công Ty  TNHH Thương Mại Vật Liệu Xây Dựng Đại Trường Giang,"C5/ 16P, Ấp 3,  X. Vĩnh Lộc, H. Bình Chánh, ",Tp. Hồ Chí Minh (TPHCM),0932107789                              ,daitruonggiang462@gmail.com                       ,http://daitruonggiang.com,Xi Măng - Sản Xuất và Kinh Doanh
61,Công Ty Cổ Phần Vật Liệu Xây Dựng DUFAGO,"233 Điện Biên Phủ, P. Hòa Khê, Q. Thanh Khê ",Tp. Đà Nẵng,(0236) 3737973                                 ,info@pacificdinco.com.vn                          ,http://pacificdinco.com.vn,Xi Măng - Sản Xuất và Kinh Doanh
62,Công Ty TNHH Quốc Tế Hùng Anh,"28 Mạc Đĩnh Chi, P. Đa Kao, Q. 1, ",TP. Hồ Chí Minh (TPHCM),"(028) 39390868, 0938 070 538                  ",hungnt@hunganhtrading.vn                          ,http://www.hunganhtrading.vn,Xi Măng - Sản Xuất và Kinh Doanh
63,Công Ty TNHH Công Nghệ Chống Thấm Vichan,"Số 17, Ngõ 25 Đờng Đoàn Kết, P. Biên Giang, Q. Hà Đông ",Hà Nội,0982134534                              ,hoangtuansotin@gmail.com                          ,http://chongthamvichan.com,Xi Măng - Sản Xuất và Kinh Doanh
64,GTS Pacific Việt Nam,"9FL, Tòa Nhà AB, 76A Lê Lai, Q. 1, ",Tp. Hồ Chí Minh (TPHCM),0907603517                              ,admin@gtspacific.com                              ,http://gtspacific.com,Xi Măng - Sản Xuất và Kinh Doanh
65,Công Ty TNHH Việt Hương,"QL 1, X. Hòa Châu, H. Hòa Vang, ",Tp. Đà Nẵng,(0236) 3684999                                 ,quangdn2012@gmail.com                             ,http://viethuongceramic.vn,Xi Măng - Sản Xuất và Kinh Doanh
66,Nguyên Phong - Công Ty Cổ Phần Sản Xuất Thương Mại Dịch Vụ Nguyên Phong,"155/19 Đinh Bộ Lĩnh, P. 26, Q. Bình Thạnh, ",Tp. Hồ Chí Minh (TPHCM),(028) 38984174                                , ,,Xi Măng - Sản Xuất và Kinh Doanh
67,Nghi Xuân - Công Ty TNHH Thương Mại Nghi Xuân,"151/8C Ung Văn Khiêm, P. 25, Q. Bình Thạnh, ",Tp. Hồ Chí Minh (TPHCM),(028) 38997300                                ,thuytran@nghixuan.com                             ,,Xi Măng - Sản Xuất và Kinh Doanh
68,Hùng Cường - Công Ty Cổ Phần Thương Mại Hùng Cường,"230 Lý Thường Kiệt, P. 14, Q. 10, ",Tp. Hồ Chí Minh (TPHCM),(028) 38638888                                ,hungcuong@hungcuong.com.vn                        ,http://www.hungcuong.com.vn,Xi Măng - Sản Xuất và Kinh Doanh
69,Doanh Nghiệp Tư Nhân Thanh Sương,"263 Núi Thành, Q. Hải Châu, ",Tp. Đà Nẵng,(0236) 3628630                                 , ,,Xi Măng - Sản Xuất và Kinh Doanh
70,Chấn Long - Công Ty TNHH Chấn Long,"351 Võ Thị Sáu (A1), TT. Long Điền, H. Long Điền, ",Bà Rịa-Vũng Tàu,(0254) 3862093                                 , ,,Xi Măng - Sản Xuất và Kinh Doanh
71,Công Ty Cổ Phần Nam Toàn Phát,"211/27 Hoàng Hoa Thám, P. 5, Q. Phú Nhuận, ",Tp. Hồ Chí Minh (TPHCM),(028) 35154072                                ,namtoanphathcm@gmail.com                          ,,Xi Măng - Sản Xuất và Kinh Doanh
72,Công Ty CP Thương Mại Vận Tải Vinship,"109 Đường Nguyễn Thị Xiếu, P. Bình Thuận, Q. 7, ",Tp. Hồ Chí Minh (TPHCM),(028) 66522599                                ,"shipping@biendongship.com, shipping@vinship.com   ",http://www.vinship.com,Xi Măng - Sản Xuất và Kinh Doanh
73,Công Ty TNHH Tư Vấn Dịch Vụ Doanh Nghiệp ADZ,"Số 27, Ngõ 7, Phố An Hòa, P. Mộ Lao, Q. Hà Đông, ",Hà Nội,0986746750                              ,tuvandoanhnghiepadz@gmail.com                     ,http://luatadz.vn,Xi Măng - Sản Xuất và Kinh Doanh
74,Vật Liệu Xây Dựng Tấn Đạt,"144 Nguyễn Văn Trỗi, P.Tân Thạnh, TP.Tam Kỳ, ",Quảng Nam,(0235) 3813 818                                ,thuanphan160677@gmail.com                         ,,Xi Măng - Sản Xuất và Kinh Doanh
75,Công Ty TNHH VW Resources,"Số 1, đường số 81, P. Tân Quy, Q. 7, ",Tp. Hồ Chí Minh (TPHCM),(028) 37754075                                ,Trade@carrigold.com                               ,,Xi Măng - Sản Xuất và Kinh Doanh
76,Chi Nhánh - Công Ty Xi Măng Chinfon Hải Phòng,"Tầng 6, Tòa Nhà 3D, Lô C2K, Cụm Công Nghiệp Cầu Giấy, P. Dịch Vọng Hậu, Q. Cầu Giấy, ",Hà Nội,(024) 39430235                                ,hp@cfc.vn                                         ,http://www.cfc.vn/cfc/VN_CNT.aspx,Xi Măng - Sản Xuất và Kinh Doanh
77,Công Ty TNHH TM Thu Hương,"296 Phan Bội Châu, P. Lê Hồng Phong, TP. Quy Nhơn, ",Bình Định,(0256) 3811611                                 ,congtytnhhthuhuong@gmail.com                      ,,Xi Măng - Sản Xuất và Kinh Doanh
78,Công Ty TNHH Lê Lê - Vi,"Số 1135, Đường Phạm Văn Thuận, P. Tân Mai, TP. Biên Hòa, ",Đồng Nai,0945809797                              ,ctytnhhlelevi@gmail.com                           ,,Xi Măng - Sản Xuất và Kinh Doanh
79,Công Ty TNHH Vân Trinh,"176-178 Đường ỷ Lan, TP. Quy Nhơn, ",Bình Định,(0256) 3821153                                 ,ctyvantrinh@yahoo.com                             ,http://vantrinh.com.vn,Xi Măng - Sản Xuất và Kinh Doanh
80,Đoàn Ngọc Hào - Công Ty TNHH Đoàn Ngọc Hào,"653 Quang Trung, Tp. Quảng Ngãi, ",Quảng Ngãi,(0255) 3823860                                 ,ctydoanngochao@yahoo.com                          ,,Xi Măng - Sản Xuất và Kinh Doanh
81,Công Ty Cổ Phần Thương Mại Ngọc Khánh,"9 Đồng Khởi, P. 7, Tp. Tuy Hòa, ",Phú Yên,(0257) 3842920                                 ,ngockhanhpy@dng.vnn.vn                            ,,Xi Măng - Sản Xuất và Kinh Doanh
82,Công Ty Cổ Phần Thành Luân,"279B Đội Cấn, Ba Đình, ",Hà Nội,(024) 62736188                                ,thanhluan.co@gmail.com                            ,,Xi Măng - Sản Xuất và Kinh Doanh
83,Công Ty TNHH Thương Mại Xây Dựng Thiên Vạn Phát,"257/20B Nguyễn Thị Thập, P. Tân Phú, Q. 7, ",Tp. Hồ Chí Minh (TPHCM),(028) 62620906                                ,info@thienvanphat.com                             ,http://www.thienvanphat.com,Xi Măng - Sản Xuất và Kinh Doanh
84,Hà Tiên - Công Ty Cổ Phần Xi Măng Hà Tiên,"X. Bình An, H. Kiên Lương, ",Kiên Giang,"(0297) 3759360, 3759356                        ",ximanghatien@vnn.vn                               ,,Xi Măng - Sản Xuất và Kinh Doanh
85,Công ty Xi Măng COSEVCO 19,"Quốc Lộ 14B, X. Hòa Khương, H. Hòa Vang, ",Tp. Đà Nẵng,(0236) 3780329                                 ,xm19.xm19@cosevco.vn                              ,,Xi Măng - Sản Xuất và Kinh Doanh
86,Công Ty Cổ Phần Vật Tư Vận Tải Xi Măng,"21B Cát Linh, Q. Đống Đa, ",Hà Nội,(024) 38232109                                ,vtvxm@vnn.vn                                      ,http://www.vtvxm.vn,Xi Măng - Sản Xuất và Kinh Doanh
87,Công Ty CP Vật Tư Tổng Hợp Vĩnh Phú,"2316 Đại Lộ Hùng Vương, P. Vân Cơ, Tp. Việt Trì, ",Phú Thọ,(0210) 3810333                                 ,"phongkinhdoanhvmc@gmail.com, vmcco@hn.vnn.vn      ",http://vmcco.com.vn,Xi Măng - Sản Xuất và Kinh Doanh
88,Công Ty CP Tập Đoàn Thủ Đô,"Số 85 Ngụy Như Kon Tum, P. Nhân Chính, Q. Thanh Xuân, ",Hà Nội,(024) 32216800                                , ,http://tapdoanthudo.com,Xi Măng - Sản Xuất và Kinh Doanh
89,Công Ty Việt Hoa Liên Doanh Xi Măng,"Quốc Lộ 1A, X. Tân Ngãi, ",Vĩnh Long,(0270) 3815136                                 , ,,Xi Măng - Sản Xuất và Kinh Doanh
90,Phương Nga - Công Ty TNHH Thương Mại Xây Dựng Sản Xuất Phương Nga,"41 Nguyễn Văn Tráng, P. Bến Thành, Q. 1, ",Tp. Hồ Chí Minh (TPHCM),(028) 39257071                                , ,,Xi Măng - Sản Xuất và Kinh Doanh
91,Công ty TNHH Kinh Doanh Trung Việt,"55 Thanh Niên, P.  Quang Trung, TP. Quy Nhơn, ",Bình Định,(0256) 3823636                                 ,trungnamdntn@gmail.com                            ,,Xi Măng - Sản Xuất và Kinh Doanh
92,Công Ty Cổ Phần Xi Măng Bỉm Sơn,"Phường Ba Đình, TX. Bỉm Sơn, ",Thanh Hóa,(0237) 3824242                                 , ,http://www.ximangbimson.com.vn,Xi Măng - Sản Xuất và Kinh Doanh
93,Công Ty Cổ Phần Xi Măng Hạ Long,"Thôn 2, X. Thống Nhất, H. Hoành Bồ, ",Quảng Ninh,(0203) 3699240                                 , ,http://ximanghalong.vn,Xi Măng - Sản Xuất và Kinh Doanh
94,Phương Nga - Công Ty TNHH Thương Mại Xây Dựng Sản Xuất Phương Nga,"41 Nguyễn Văn Tráng, P. Bến Thành, Q. 1, ",Tp. Hồ Chí Minh (TPHCM),(028) 39257071                                , ,,Xi Măng - Sản Xuất và Kinh Doanh
95,Chemiprotect Engineers,"Lô Đất Số 2114, Đoạn 3, Khu Công Nghiệp G.I.D.C, Vatva, Ahmedabad - 38244, Ấn Độ ",Hà Nội,(79) 25891689                                ,chemiprotect@gmail.com                            ,http://www.acidproofindia.com,Xi Măng - Sản Xuất và Kinh Doanh
96,Vật Liệu Xây Dựng Thuận Bến Thành - Công Ty TNHH Thương Mại Tân Thuận Bến Thành,"Toà Nhà Thăng Long ViNa, Số 371 Nguyễn Kiệm, P. 3, Q. Gò Vấp, ",Tp. Hồ Chí Minh (TPHCM),"0356282828, 0372383838                  ",tanthuanbenthanh@gmail.com                        ,http://thepxaydungbenthanh.com,Xi Măng - Sản Xuất và Kinh Doanh
97,Công Ty Vật Tư Xây Dựng,"104 Nguyễn Du, P. Bến Nghé, Q. 1, ",Tp. Hồ Chí Minh (TPHCM),(028) 38292839                                ,vtxd-hcm@hcm.vnn.vn                               ,,Xi Măng - Sản Xuất và Kinh Doanh
98,Doanh Nghiệp Tư Nhân Tân Xuân Anh,"10/1A Khu Phố 1, P. Tam Hòa, Tp. Biên Hòa, ",Đồng Nai,(0251) 3814111                                 , ,,Xi Măng - Sản Xuất và Kinh Doanh
99,An Khang - Công Ty TNHH An Khang,"E25/2 ấp Hiệp Hòa,Quốc Lộ 22B, X. Hiệp Tân, H. Hòa Thành, ",Tây Ninh,(0276) 3827322                                 , ,,Xi Măng - Sản Xuất và Kinh Doanh
100,Việt Hoa - Công Ty Cổ Phần Việt Hoa,"119 Huỳnh Ngọc Huệ, Q. Thanh Khê, ",Tp. Đà Nẵng,(0236) 3725083                                 , ,,Xi Măng - Sản Xuất và Kinh Doanh
101,Công Ty áng Sơn Xi Măng,"X. Vạn Ninh, H. Quảng Ninh, ",Quảng Bình,(0232) 3872019                                 , ,,Xi Măng - Sản Xuất và Kinh Doanh
102,Hà Tiên Kiên Giang Becamex - Công Ty Cổ Phần Xi Măng Hà Tiên Kiên Giang Becamex,"Khu Công Nghiệp Mỹ Phước 1, Đường Vành Đai,TT. Mỹ Phước, H. Bến Cát, ",Bình Dương,(0274) 3565299                                 , ,,Xi Măng - Sản Xuất và Kinh Doanh
103,Công Ty Xi Măng Hoàng Mai,"Thôn Quỳnh Thiên, H. Quỳnh Lưu, ",Nghệ An,(0238) 3866170                                 ,nccacc@hn.vnn.vn                                  ,,Xi Măng - Sản Xuất và Kinh Doanh
104,Fico Tây Ninh - Chi Nhánh Công Ty Cổ Phần Xi Măng Fico Tây Ninh,"Khu Công Nghiệp Hiệp Phước, Lô A5B,X. Long Thới, H. Nhà Bè, ",Tp. Hồ Chí Minh (TPHCM),(028) 37800512                                , ,,Xi Măng - Sản Xuất và Kinh Doanh
105,Doanh Nghiệp Tư Nhân Thu Minh,"223/43 K2 Phan Đình Phùng, P. Quang Vinh, Tp. Biên Hòa, ",Đồng Nai,(0251) 3825868                                 , ,,Xi Măng - Sản Xuất và Kinh Doanh
106,Quang Châu - Công Ty TNHH Thương Mại Dịch Vụ,"189 Lê Hồng Phong, P. Trà Nóc, Q. Bình Thủy, ",Tp. Cần Thơ,(0292) 3843499                                 , ,,Xi Măng - Sản Xuất và Kinh Doanh
107,Bạch Đằng - Công Ty Cổ Phần Bạch Đằng,"543 Trần Nhân Tông, P. Phan Đình Phùng, ",Nam Định,(0228) 3649191                                 , ,,Xi Măng - Sản Xuất và Kinh Doanh
108,Trang Nguyên - Công Ty TNHH Thương Mại Dịch Vụ Trang Nguyên,"86 Tô Ngọc Vân, P. Linh Tây, Q. Thủ Đức, ",Tp. Hồ Chí Minh (TPHCM),(028) 38979931                                , ,,Xi Măng - Sản Xuất và Kinh Doanh
109,Công Ty Cổ Phần Xi Măng Cao Ngạn,"X. Cao Ngạn,H. Đồng Hỷ, ",Thái Nguyên,(0208) 3820376                                 , ,,Xi Măng - Sản Xuất và Kinh Doanh
110,Mai Long Phước - Công Ty TNHH Mai Long Phước,"204B6/6/2 Nguyễn Văn Hưởng, P. Thảo Điền, Q. 2, ",Tp. Hồ Chí Minh (TPHCM),(028) 62819006                                ,mailongphuoc@gmail.com                            ,,Xi Măng - Sản Xuất và Kinh Doanh
111,Công Ty Xi Măng Bình Định,"H. Tuy Phước, ",Bình Định,(0256) 3833186                                 , ,,Xi Măng - Sản Xuất và Kinh Doanh
112,Fico Tây Ninh - Công Ty Cổ Phần Xi Măng Fico Tây Ninh,"161 Đường 30 Tháng 4, TX. Tây Ninh, ",Tây Ninh,(0276) 3829579                                 , ,,Xi Măng - Sản Xuất và Kinh Doanh
113,Linh Thuận - Công Ty TNHH Thương Mại Xây Dựng Cầu Đường Linh Thuận,"15 TT. An Lộc,Nguyễn Huệ, H. Bình Long, ",Bình Phước,(0271) 3666132                                 ,hoxuanlinh@yahoo.com                              ,,Xi Măng - Sản Xuất và Kinh Doanh
114,Công Ty Tiên Sơn Xi Măng,"X. Hồng Quang, H. ứng Hòa, ",Hà Nội,(024) 3775135                                 , ,,Xi Măng - Sản Xuất và Kinh Doanh
115,Cty Cổ Phần Xi Măng Vật Liệu Xây Dựng Xây Lắp Đà Nẵng (Coxiva)-Cn Bình Định,"72 Tây Sơn, Tp. Quy Nhơn, ",Bình Định,(0256) 3846775                                 , ,http://www.coxiva.com.vn,Xi Măng - Sản Xuất và Kinh Doanh
116,Chi Nhánh Công Ty Cổ Phần Thương Mại Xi Măng,"8/1 Cách Mạng Tháng Tám, Tp. Thái Nguyên, ",Thái Nguyên,(0208) 3832145                                 , ,,Xi Măng - Sản Xuất và Kinh Doanh
117,Công Ty Xi Măng Hải Phòng,"Tràng Kênh, P. Minh Đức, H. Thủy Nguyên, ",Tp. Hải Phòng,(0225) 3675483                                 , ,,Xi Măng - Sản Xuất và Kinh Doanh
118,Doanh Nghiệp Tư Nhân Bích Thủy,"26 Quốc Lộ 1A, Tp. Tuy Hòa, ",Phú Yên,(0257) 3890282                                 , ,,Xi Măng - Sản Xuất và Kinh Doanh
119,Công Ty Xây Lắp & Sản Xuất Vật Liệu Xây Dựng,"Hai Bà Trưng, P. Lê Hồng Phong, Tp. Quảng Ngãi, ",Quảng Ngãi,(0255) 3822519                                 ,licogiqng@vnn.vn                                  ,,Xi Măng - Sản Xuất và Kinh Doanh
120,Duyên Linh - Công Ty Cổ Phần Xi Măng Duyên Linh,"X. Duy Tân, H. Kinh Môn, ",Hải Dương,(0220) 3824900                                 , ,,Xi Măng - Sản Xuất và Kinh Doanh
121,Chi Nhánh - Công Ty Hoàng Thạch Xi Măng,"Khu 2, P. Thị Cầu, ",Bắc Ninh,(0222) 3821392                                 , ,,Xi Măng - Sản Xuất và Kinh Doanh
122,Việt Trung - Chi Nhánh Công Ty Cổ Phần Xi Măng Việt Trung,"47 Ngõ 26,Nguyên Hồng, Q. Đống Đa, ",Hà Nội,(024) 37739441                                , ,,Xi Măng - Sản Xuất và Kinh Doanh
123,Văn Phòng Đại Diện - Công Ty Holcim,,Hà Nội,(024) 39344990                                ,hmac@hn.vnn.vn                                    ,,Xi Măng - Sản Xuất và Kinh Doanh
124,Nhà Máy Xi Măng La Hiên,"Thôn La Hiên,H. Võ Nhai, ",Thái Nguyên,(0208) 3829154                                 , ,,Xi Măng - Sản Xuất và Kinh Doanh
125,Phú Quang - Công Ty TNHH Phú Quang,"56 Thuốc Bắc, Q. Hoàn Kiếm, ",Hà Nội,(024) 38261158                                ,phuquang@hn.vnn.vn                                ,,Xi Măng - Sản Xuất và Kinh Doanh
126,Hạ Long - Vpđd Công Ty Cổ Phần Xi Măng Hạ Long,"162A Nguyễn Tuân, P. Thanh Xuân Nam, Q. Thanh Xuân, ",Hà Nội,(024) 35524892                                , ,,Xi Măng - Sản Xuất và Kinh Doanh
127,Công Ty Cosevco 1 Xi Măng,"Thôn Quảng Trường,H. Quảng Trạch, ",Quảng Bình,(0232) 3512905                                 , ,,Xi Măng - Sản Xuất và Kinh Doanh
128,Cty Cổ Phần  Xi Măng Vật Liệu Xây Dựng Xây Lắp Đà Nẵng-Cn Quảng Nam,"130 Hùng Vương, Tp. Tam Kỳ, ",Quảng Nam,(0235) 3859175                                 , ,http://www.coxiva.com.vn,Xi Măng - Sản Xuất và Kinh Doanh
129,Cửa Hàng Anh Được,"83 Bàu Cát 9, P. 11, Q. Tân Bình, ",Tp. Hồ Chí Minh (TPHCM),(028) 38493607                                , ,,Xi Măng - Sản Xuất và Kinh Doanh
130,Hải Dương - Công Ty Cổ Phần Xi Măng Hải Dương,"Duy Tân, X. Duy Tân, ",Hải Dương,(0220) 3824708                                 , ,,Xi Măng - Sản Xuất và Kinh Doanh
131,Doanh Nghiệp Tư Nhân Lâm Thanh,"Lô C25, Khu Sở Muối,X. Hàm Thắng, Q. Hàm Thuận Bắc, ",Bình Thuận,(0252) 3814445                                 , ,,Xi Măng - Sản Xuất và Kinh Doanh
132,Nhà Máy Coseco Xi Măng,"Xã An Chấn,H. Tuy An, ",Phú Yên,(0257) 3790147                                 , ,,Xi Măng - Sản Xuất và Kinh Doanh
133,Cửa Hàng Vật Liệu Xây Dựng 271,"271 Đường 41, P. 16, Q. 8, ",Tp. Hồ Chí Minh (TPHCM),(028) 54320975                                , ,,Xi Măng - Sản Xuất và Kinh Doanh
134,Công Ty Luks (Việt Nam) Hữu Hạn Xi Măng,"Tt. Tứ Hạ,H. Hương Trà, ",Thừa Thiên Huế,(0234) 3557012                                 ,lukscementvn@pmail.vnn.vn                         ,,Xi Măng - Sản Xuất và Kinh Doanh
135,Công Ty Xi Măng Phú Thọ,"X. Thanh Ba, H. Thanh Ba, ",Phú Thọ,(0210) 3885310                                 , ,,Xi Măng - Sản Xuất và Kinh Doanh
136,Phương Hải - Công Ty Cổ Phần Phương Hải,"Thôn Tri Thủy, X. Tri Hải, H. Ninh Hải, ",Ninh Thuận,(0259) 3873351                                 , ,,Xi Măng - Sản Xuất và Kinh Doanh
137,Đức Xinh - Công Ty TNHH Thương Mại Dịch Vụ Vận Tải Đức Xinh,"6/20 Nguyễn Cảnh Chân, P. Nguyễn Cư Trinh, Q. 1, ",Tp. Hồ Chí Minh (TPHCM),(028) 39202149                                , ,,Xi Măng - Sản Xuất và Kinh Doanh
138,Thiên Phú - Công Ty TNHH Thiên Phú,"72A Khu 2, P. Phước Hải,Lê Hồng Phong, Tp. Nha Trang, ",Khánh Hòa,(0258) 3875163                                 , ,,Xi Măng - Sản Xuất và Kinh Doanh
139,Doanh Nghiệp Tư Nhân Đức Tiến,"Lô 44, Khu Kho Cảng Bình Tân,Đường 2, P. Vĩnh Nguyên, Tp. Nha Trang, ",Khánh Hòa,(0258) 3883209                                 , ,,Xi Măng - Sản Xuất và Kinh Doanh
140,Bataco - Công Ty Cổ Phần Xi Măng Bataco,"Khu Phố 7, P. Trường Thọ, Q. Thủ Đức, ",Tp. Hồ Chí Minh (TPHCM),(028) 36402543                                , ,,Xi Măng - Sản Xuất và Kinh Doanh
141,Công Ty Xi Măng Phú Thọ,"X. Thanh Ba, H. Thanh Ba, ",Phú Thọ,(0210) 3885310                                 , ,,Xi Măng - Sản Xuất và Kinh Doanh
142,Cty Cổ Phần Xi Măng Vật Liệu Xây Dựng Xây Lắp Đà Nẵng-Cn Quảng Ngãi,"132 Quang Trung, Tp. Quảng Ngãi, ",Quảng Ngãi,(0255) 3822209                                 , ,http://www.coxiva.com.vn,Xi Măng - Sản Xuất và Kinh Doanh
143,Công Ty Liên Doanh Xi Măng Sao Mai - VPĐD,,Hà Nội,(024) 39782011                                ,phung.quoc.hung@saomai.com                        ,,Xi Măng - Sản Xuất và Kinh Doanh
144,An Cát - Công Ty TNHH An Cát,"23 Khu Phố 4,Đường 10, P. An Phú, Q. 2, ",Tp. Hồ Chí Minh (TPHCM),(028) 38963262                                , ,,Xi Măng - Sản Xuất và Kinh Doanh
145,Việt Trung - Chi Nhánh Công Ty Cổ Phần Xi Măng Việt Trung,"47 Ngõ 26,Nguyên Hồng, Q. Đống Đa, ",Hà Nội,(024) 37739441                                , ,,Xi Măng - Sản Xuất và Kinh Doanh
146,Chi Nhánh - Công Ty Xi Măng Hà Tiên 2,"Tầng3, 09-19 Hồ Tùng Mậu, P. Nguyễn Thái Bình, Q. 1, ",Tp. Hồ Chí Minh (TPHCM),(028) 38290324                                , ,,Xi Măng - Sản Xuất và Kinh Doanh
147,Thăng Long - Chi Nhánh Công Ty Cổ Phần Xi Măng Tỉnh Quảng Ninh Thăng Long,,Tp. Hồ Chí Minh (TPHCM),(028) 37800912                                , ,,Xi Măng - Sản Xuất và Kinh Doanh
148,Công Ty TNHH Hải Âu,"Thị Trấn Phú Thái, H. Kim Thành, ",Hải Dương,(0220) 3720582                                 , ,,Xi Măng - Sản Xuất và Kinh Doanh
149,Mai Long Phước - Công Ty TNHH Mai Long Phước,"204B6/6/2 Nguyễn Văn Hưởng, P. Thảo Điền, Q. 2, ",Tp. Hồ Chí Minh (TPHCM),(028) 62819006                                ,mailongphuoc@gmail.com                            ,,Xi Măng - Sản Xuất và Kinh Doanh
150,Fico Tây Ninh - Chi Nhánh Công Ty Cổ Phần Xi Măng Fico Tây Ninh,"Khu Công Nghiệp Hiệp Phước, Lô A5B,X. Long Thới, H. Nhà Bè, ",Tp. Hồ Chí Minh (TPHCM),(028) 37800512                                , ,,Xi Măng - Sản Xuất và Kinh Doanh
151,Chi Nhánh - Công Ty Xi Măng Hà Tiên 2,"1B Ngô Quyền, P. Mỹ Bình, Tp. Long Xuyên, ",An Giang,(0296) 3853412                                 , ,,Xi Măng - Sản Xuất và Kinh Doanh
152,Công Ty Xi Măng Quảng Trị,"Km8 Quốc Lộ 9A, TX. Đông Hà, ",Quảng Trị,(0233) 3852460                                 , ,,Xi Măng - Sản Xuất và Kinh Doanh
153,Công Ty Vinacimex XNK Xi Măng Hà Nội,"228 Lê Duẩn, Q. Hoàn Kiếm, ",Hà Nội,(024) 38517780                                , ,,Xi Măng - Sản Xuất và Kinh Doanh
154,Hạ Long - Vpđd Công Ty Cổ Phần Xi Măng Hạ Long,"162A Nguyễn Tuân, P. Thanh Xuân Nam, Q. Thanh Xuân, ",Hà Nội,(024) 35524892                                , ,,Xi Măng - Sản Xuất và Kinh Doanh
155,Nhà Máy Xi Măng An Giang,"Quốc Lộ 91, P. Mỹ Thạnh, Tp. Long Xuyên, ",An Giang,(0296) 3834328                                 ,cementag@hcm.vnn.vn                               ,http://www.xaylapag.com,Xi Măng - Sản Xuất và Kinh Doanh
156,Việt An - Công Ty TNHH Việt An,"54 Ngõ 8,Trung Phụng, Q. Đống Đa, ",Hà Nội,(024) 38515141                                , ,,Xi Măng - Sản Xuất và Kinh Doanh
157,Cửa Hàng Anh Được,"83 Bàu Cát 9, P. 11, Q. Tân Bình, ",Tp. Hồ Chí Minh (TPHCM),(028) 38493607                                , ,,Xi Măng - Sản Xuất và Kinh Doanh
158,Công Ty TNHH Hướng Dương Xi Măng-Nhà Máy Xi Măng Pomihoa,"Tổ 21,P. Nam Sơn, TX. Tam Điệp, ",Ninh Bình,(0229) 3825825                                 ,xmpomihoa@gmail.com                               ,http://www.pomihoa.com.vn,Xi Măng - Sản Xuất và Kinh Doanh
159,Công Ty Cổ Phần Vật Liệu Xây Dựng & Trang Trí Nội Thất (CMID),"215-217 Trần Hưng Đạo, P. Cô Giang, Q. 1, ",Tp. Hồ Chí Minh (TPHCM),(028) 38367969                                ,cmid@hcm.fpt.vn                                   ,http://www.cmid.com.vn,Xi Măng - Sản Xuất và Kinh Doanh
160,Mai Long Phước - Chi Nhánh Công Ty TNHH Mai Long Phước,"Khu 6, P. Phú Thọ, TX. Thủ Dầu Một, ",Bình Dương,(0274) 3812613                                 ,mailongphuoc@gmail.com                            ,,Xi Măng - Sản Xuất và Kinh Doanh
161,Công Ty TNHH 402,"81/402 Phạm Văn Thuận,Khu Phố 1, P. Tân Mai, Tp. Biên Hòa, ",Đồng Nai,(0251) 3822172                                 , ,,Xi Măng - Sản Xuất và Kinh Doanh
162,Nhà Máy Xi Măng La Hiên,"Thôn La Hiên,H. Võ Nhai, ",Thái Nguyên,(0208) 3829154                                 , ,,Xi Măng - Sản Xuất và Kinh Doanh
163,Công Ty Xây Lắp & Sản Xuất Công Nghiệp,"275 Nguyễn Trãi, Q. Thanh Xuân, ",Hà Nội,(024) 35582198                                ,cip@vista.gov.vn                                  ,,Xi Măng - Sản Xuất và Kinh Doanh
164,Công Ty Holcim Việt Nam Liên Doanh Xi Măng,"Tầng4, Cao ốc Văn Phòng Sài Gòn Riverside, 2A-4A Tôn Đức Thắng, P. Bến Nghé, Q. 1, ",Tp. Hồ Chí Minh (TPHCM),(028) 38244101                                ,info-vnm@holcim.com                               ,http://www.holcim.com.vn,Xi Măng - Sản Xuất và Kinh Doanh
165,Cty Cổ Phần  Xi Măng Vật Liệu Xây Dựng Xây Lắp Đà Nẵng-Cn Quảng Nam,"130 Hùng Vương, Tp. Tam Kỳ, ",Quảng Nam,(0235) 3859175                                 , ,http://www.coxiva.com.vn,Xi Măng - Sản Xuất và Kinh Doanh
166,Đức Thịnh - Công Ty TNHH Sản Xuất Thương Mại Dịch Vụ Đức Thịnh,,Tp. Hồ Chí Minh (TPHCM),(028) 37661148                                , ,,Xi Măng - Sản Xuất và Kinh Doanh
167,Công Ty Nội Thương Xi Măng,"TT. Liên Sơn, H. Kim Bảng, ",Hà Nam,(0226) 3820133                                 , ,,Xi Măng - Sản Xuất và Kinh Doanh
168,Cửa Hàng Cẩm Minh,"21/21 Trần Thái Tông, P. 15, Q. Tân Bình, ",Tp. Hồ Chí Minh (TPHCM),(028) 38151096                                , ,,Xi Măng - Sản Xuất và Kinh Doanh
169,Công Ty TNHH Thương Mại Đầu Tư Thanh Long,"54 Ngõ 8 Tổ 31,Trung Phụng, Q. Đống Đa, ",Hà Nội,(024) 35114259                                , ,,Xi Măng - Sản Xuất và Kinh Doanh
170,Công Ty Cổ Phần Xi Măng  FICO,"ấp 1, X. Thượng Tân, H. Tân Uyên, ",Bình Dương,(0274) 3680104                                 ,biceco@hcm.vnn.vn                                 ,,Xi Măng - Sản Xuất và Kinh Doanh
171,Công Ty Xi Măng Hệ Dưỡng,"X. Hội Sơn, H. Hoa Lư, ",Ninh Bình,(0229) 3610192                                 , ,,Xi Măng - Sản Xuất và Kinh Doanh
172,Xí Nghiệp Xi Măng Lâm Nghiệp,"Tân Xuân, P. Bố Hạ, H. Yên Thế, ",Bắc Giang,(0204) 3877322                                 , ,,Xi Măng - Sản Xuất và Kinh Doanh
173,Công Ty Holcim Việt Nam Liên Doanh Xi Măng-Trạm Nghiền Thị Vải,"Khu Công Nghiệp Phú Mỹ 1, H. Tân Thành, ",Bà Rịa-Vũng Tàu,(0254) 3921071                                 , ,http://www.holcim.com.vn,Xi Măng - Sản Xuất và Kinh Doanh
174,Thành An - Chi Nhánh Công Ty TNHH Thương Mại Thành An,"51 Tô Hiệu, Q. Cầu Giấy, ",Hà Nội,(024) 37567319                                ,thanhan_tac@email.vnn.vn                          ,http://www.thanhan.com.vn,Xi Măng - Sản Xuất và Kinh Doanh
175,Hòn Khói - Công Ty Cổ Phần Xi Măng Hòn Khói,"Thôn Mỹ á,X. Ninh Thụy, H. Ninh Hòa, ",Khánh Hòa,3870156                                 , ,,Xi Măng - Sản Xuất và Kinh Doanh
176,Công Ty TNHH Thương Mại & Xây Lắp Quy Nhơn,"2B Phan Chu Trinh, Tp. Quy Nhơn, ",Bình Định,(0256) 3892031                                 ,vlxlqn@vnn.vn                                     ,,Xi Măng - Sản Xuất và Kinh Doanh
177,Chi Nhánh - Công Ty Xi Măng Chinfon,,Tp. Hồ Chí Minh (TPHCM),(028) 38220222                                ,chc@hn.vnn.vn                                     ,,Xi Măng - Sản Xuất và Kinh Doanh
178,Công Ty Cổ Phần Xi Măng Cao Ngạn,"X. Cao Ngạn,H. Đồng Hỷ, ",Thái Nguyên,(0208) 3820376                                 , ,,Xi Măng - Sản Xuất và Kinh Doanh
179,Công Ty Cổ Phần Đầu Tư Thương Mại Phát Triển Trường Sươn,"Số 25A, Tổ 22, Chùa Hà, Q. Cầu Giấy, ",Hà Nội,(024) 62813855                                ,kinhdoanhtruongson@yahoo.com.vn                   ,,Xi Măng - Sản Xuất và Kinh Doanh
180,Fico Tây Ninh - Công Ty Cổ Phần Xi Măng Fico Tây Ninh,"161 Đường 30 Tháng 4, TX. Tây Ninh, ",Tây Ninh,(0276) 3829579                                 , ,,Xi Măng - Sản Xuất và Kinh Doanh
181,Công Ty Hoà Bình Xi Măng,"Khối 3,TT. Lương Sơn, H. Lương Sơn, ",Hòa Bình,(0218) 3824211                                 , ,,Xi Măng - Sản Xuất và Kinh Doanh
182,Hà Tiên Kiên Giang - Công Ty Cổ Phần Xi Măng Hà Tiên Kiên Giang,"P. Bình An, H. Kiên Lương, ",Kiên Giang,(0297) 3854359                                 , ,,Xi Măng - Sản Xuất và Kinh Doanh
183,Sài Sơn - Công Ty Cổ Phần Xi Măng Sài Sơn,"X. Sài Sơn, H. Quốc Oai, ",Hà Nội,(024) 3843110                                 , ,,Xi Măng - Sản Xuất và Kinh Doanh
184,Quang Châu - Công Ty TNHH Thương Mại Dịch Vụ,"189 Lê Hồng Phong, P. Trà Nóc, Q. Bình Thủy, ",Tp. Cần Thơ,(0292) 3843499                                 , ,,Xi Măng - Sản Xuất và Kinh Doanh
185,Hạ Long - Vpđd Công Ty Cổ Phần Xi Măng Hạ Long,"162A Nguyễn Tuân, P. Thanh Xuân Nam, Q. Thanh Xuân, ",Hà Nội,(024) 35524892                                , ,,Xi Măng - Sản Xuất và Kinh Doanh
186,Phú Quang - Công Ty TNHH Phú Quang,"56 Thuốc Bắc, Q. Hoàn Kiếm, ",Hà Nội,(024) 38261158                                ,phuquang@hn.vnn.vn                                ,,Xi Măng - Sản Xuất và Kinh Doanh
187,Xí Nghiệp Thành Công,"7 Nguyễn Bỉnh Khiêm, Tp. Buôn Ma Thuột, ",Đắc Lắc,, ,,Xi Măng - Sản Xuất và Kinh Doanh
188,Đức Thịnh - Công Ty TNHH Sản Xuất Thương Mại Dịch Vụ Đức Thịnh,,Tp. Hồ Chí Minh (TPHCM),(028) 37661148                                , ,,Xi Măng - Sản Xuất và Kinh Doanh
189,Liên - Công Ty TNHH Liên,"E3/101 ấp Nguyễn Huệ, X. Quang Trung,H. Thống Nhất, ",Đồng Nai,(0251) 3763563                                 ,ctytnhh@yahoo.com                                 ,,Xi Măng - Sản Xuất và Kinh Doanh
190,Việt Hoa - Công Ty Cổ Phần Việt Hoa,"119 Huỳnh Ngọc Huệ, Q. Thanh Khê, ",Tp. Đà Nẵng,(0236) 3725083                                 , ,,Xi Măng - Sản Xuất và Kinh Doanh
191,Minh Tuấn - Công Ty TNHH Thương Mại & Sản Xuất Minh Tuấn,"2/127D ấp Đình, X. Tân Xuân, H. Hóc Môn, ",Tp. Hồ Chí Minh (TPHCM),(028) 38835224                                ,minhtuanod@yahoo.com                              ,http://www.minhtuancement.com.vn,Xi Măng - Sản Xuất và Kinh Doanh
192,Công Ty Cổ Phần Xi Măng Kiên Giang,"ấp Lò Bom, TT. Kiên Lương, H. Kiên Lương, ",Kiên Giang,(0297) 3853548                                 , ,,Xi Măng - Sản Xuất và Kinh Doanh
193,Công Ty Tiên Sơn Xi Măng,"X. Hồng Quang, H. ứng Hòa, ",Hà Nội,(024) 3775135                                 , ,,Xi Măng - Sản Xuất và Kinh Doanh
194,Hải Vân - Công Ty TNHH Sản Xuất & Thương Mại Hải Vân,"ấp 1A, X. An Phú, H. Thuận An, ",Bình Dương,(0274) 3712749                                 , ,,Xi Măng - Sản Xuất và Kinh Doanh
195,Hà Tiên Kiên Giang Becamex - Công Ty Cổ Phần Xi Măng Hà Tiên Kiên Giang Becamex,"Khu Công Nghiệp Mỹ Phước 1, Đường Vành Đai,TT. Mỹ Phước, H. Bến Cát, ",Bình Dương,(0274) 3565299                                 , ,,Xi Măng - Sản Xuất và Kinh Doanh
196,Công Ty Xi Măng Lào Cai,"X. Pom Han, H. Cam Đường, ",Lào Cai,(0214) 3825938                                 , ,,Xi Măng - Sản Xuất và Kinh Doanh
197,Chi Nhánh - Công Ty Xi Măng Hà Tiên 2,"1B Ngô Quyền, P. Mỹ Bình, Tp. Long Xuyên, ",An Giang,(0296) 3853412                                 , ,,Xi Măng - Sản Xuất và Kinh Doanh
198,Doanh Nghiệp Tư Nhân Đức Tiến,"Lô 44, Khu Kho Cảng Bình Tân,Đường 2, P. Vĩnh Nguyên, Tp. Nha Trang, ",Khánh Hòa,(0258) 3883209                                 , ,,Xi Măng - Sản Xuất và Kinh Doanh
199,Xí Nghiệp Tuyên Quang Xi Măng,"X. Tràng Đà, ",Tuyên Quang,(0207) 3822269                                 , ,,Xi Măng - Sản Xuất và Kinh Doanh
200,Cty Cổ Phần Xi Măng Vật Liệu Xây Dựng Xây Lắp Đà Nẵng-Cn Ninh Thuận,"30C Ngô Gia Tự, TX. Phan Rang-Tháp Chàm, ",Ninh Thuận,(0259) 3839906                                 , ,http://www.coxiva.com.vn,Xi Măng - Sản Xuất và Kinh Doanh
201,Thăng Long Quảng Ninh - Công Ty Cổ Phần Xi Măng - VPĐD,"Phòng 603, Tòa Nhà Thăng Long, 105 Láng Hạ, Q. Đống Đa, ",Hà Nội,(024) 35622726                                , ,,Xi Măng - Sản Xuất và Kinh Doanh
202,Công Ty Cosevco Sông Gianh Xi Măng,"X. Tiến Hóa,H. Tuyên Hóa, ",Quảng Bình,(0232) 3516179                                 ,songgianhcement@yahoo.com                         ,,Xi Măng - Sản Xuất và Kinh Doanh
203,Công Ty Lafarge Liên Doanh Xi Măng,"Tầng12, Tháp Bitexco, 19-25 Nguyễn Huệ, P. Bến Nghé, Q. 1, ",Tp. Hồ Chí Minh (TPHCM),(028) 38212582                                ,info@vn.lafarge.com                               ,http://www.lafarge.com,Xi Măng - Sản Xuất và Kinh Doanh
204,Công Ty Cổ Phần Xi Măng  FICO,"ấp 1, X. Thượng Tân, H. Tân Uyên, ",Bình Dương,(0274) 3680104                                 ,biceco@hcm.vnn.vn                                 ,,Xi Măng - Sản Xuất và Kinh Doanh
205,Mai Long Phước - Công Ty TNHH Mai Long Phước,"204B6/6/2 Nguyễn Văn Hưởng, P. Thảo Điền, Q. 2, ",Tp. Hồ Chí Minh (TPHCM),(028) 62819006                                ,mailongphuoc@gmail.com                            ,,Xi Măng - Sản Xuất và Kinh Doanh
206,Công Ty Xi Măng Hệ Dưỡng,"X. Hội Sơn, H. Hoa Lư, ",Ninh Bình,(0229) 3610192                                 , ,,Xi Măng - Sản Xuất và Kinh Doanh
207,Công Ty Cosevco 1 Xi Măng,"Thôn Quảng Trường,H. Quảng Trạch, ",Quảng Bình,(0232) 3512905                                 , ,,Xi Măng - Sản Xuất và Kinh Doanh
208,Công Ty TNHH Thương Mại & Xây Lắp Quy Nhơn,"2B Phan Chu Trinh, Tp. Quy Nhơn, ",Bình Định,(0256) 3892031                                 ,vlxlqn@vnn.vn                                     ,,Xi Măng - Sản Xuất và Kinh Doanh
209,Thạch Nguyên - Công Ty Cổ Phần Thạch Nguyên,"Tầng1, 795 Trường Chinh, P. Tây Thạnh, Q. Tân Phú, ",Tp. Hồ Chí Minh (TPHCM),(028) 22400482                                , ,,Xi Măng - Sản Xuất và Kinh Doanh
210,Chi Nhánh - Công Ty Xi Măng Hà Tiên 2,"Tầng3, 09-19 Hồ Tùng Mậu, P. Nguyễn Thái Bình, Q. 1, ",Tp. Hồ Chí Minh (TPHCM),(028) 38290324                                , ,,Xi Măng - Sản Xuất và Kinh Doanh
211,Thăng Long - Chi Nhánh Công Ty Cổ Phần Xi Măng Tỉnh Quảng Ninh Thăng Long,,Tp. Hồ Chí Minh (TPHCM),(028) 37800912                                , ,,Xi Măng - Sản Xuất và Kinh Doanh
212,Doanh Nghiệp Tư Nhân Vĩnh Phước,"68 Núi Thành, P. Hòa Thuận Đông, Q. Hải Châu, ",Tp. Đà Nẵng,(0236) 3623607                                 , ,,Xi Măng - Sản Xuất và Kinh Doanh
213,Xí Nghiệp Quảng Bình Xi Măng,"58 Trần Hưng Đạo, TX. Đồng Hới, ",Quảng Bình,(0232) 3822490                                 , ,,Xi Măng - Sản Xuất và Kinh Doanh
214,Công Ty TNHH 402,"81/402 Phạm Văn Thuận,Khu Phố 1, P. Tân Mai, Tp. Biên Hòa, ",Đồng Nai,(0251) 3822172                                 , ,,Xi Măng - Sản Xuất và Kinh Doanh
215,Nhà Máy Xi Măng La Hiên,"Thôn La Hiên,H. Võ Nhai, ",Thái Nguyên,(0208) 3829154                                 , ,,Xi Măng - Sản Xuất và Kinh Doanh
216,Ngũ Hành Sơn - Công Ty Cổ Phần Xi Măng Ngũ Hành Sơn,"Khu Công Nghiệp Liên Chiểu, 67 Nguyễn Văn Cừ, Q. Liên Chiểu, ",Tp. Đà Nẵng,(0236) 3772003                                 , ,,Xi Măng - Sản Xuất và Kinh Doanh
217,Công Ty Holcim Việt Nam Liên Doanh Xi Măng,"Tầng4, Cao ốc Văn Phòng Sài Gòn Riverside, 2A-4A Tôn Đức Thắng, P. Bến Nghé, Q. 1, ",Tp. Hồ Chí Minh (TPHCM),(028) 38244101                                ,info-vnm@holcim.com                               ,http://www.holcim.com.vn,Xi Măng - Sản Xuất và Kinh Doanh
218,Doanh Nghiệp Tư Nhân Tú Tú,"Tổ 1,ấp Bến Đò 1, X. Tân Phú Trung, H. Củ Chi, ",Tp. Hồ Chí Minh (TPHCM),(028) 38922065                                , ,,Xi Măng - Sản Xuất và Kinh Doanh
219,Mai Long Phước - Chi Nhánh Công Ty TNHH Mai Long Phước,"Khu 6, P. Phú Thọ, TX. Thủ Dầu Một, ",Bình Dương,(0274) 3812613                                 ,mailongphuoc@gmail.com                            ,,Xi Măng - Sản Xuất và Kinh Doanh
220,Hải Vân - Công Ty Cổ Phần Xi Măng Hải Vân,"65 Nguyễn Văn Cừ, Q. Liên Chiểu, ",Tp. Đà Nẵng,(0236) 3842502                                 ,info@haivancement.vn                              ,,Xi Măng - Sản Xuất và Kinh Doanh
221,Công Ty Xi Măng Gia Lai,"P. Yên Thế, Tp. Plây Cu, ",Gia Lai,(0269) 3825205                                 , ,,Xi Măng - Sản Xuất và Kinh Doanh
222,Công Ty Holcim Việt Nam Liên Doanh Xi Măng-Vpgd,"Khóm Đông Thạnh,Quốc Lộ 91, P. Mỹ Thạnh, Tp. Long Xuyên, ",An Giang,(0296) 3835878                                 , ,,Xi Măng - Sản Xuất và Kinh Doanh
223,Cửa Hàng Huyền Trân,"108 ấp Bàu Tre, X. Tân An Hội, H. Củ Chi, ",Tp. Hồ Chí Minh (TPHCM),(028) 38920841                                , ,,Xi Măng - Sản Xuất và Kinh Doanh
224,Công Ty Xi Măng Chinfon Hải Phòng,"Tràng Kênh, P. Minh Đức, H. Thủy Nguyên, ",Tp. Hải Phòng,(0225) 3875480                                 ,chc@hn.vnn.vn                                     ,,Xi Măng - Sản Xuất và Kinh Doanh
225,Xí Nghiệp Xi Măng Lâm Nghiệp,"Tân Xuân, P. Bố Hạ, H. Yên Thế, ",Bắc Giang,(0204) 3877322                                 , ,,Xi Măng - Sản Xuất và Kinh Doanh
226,Công Ty TNHH Xây Dựng Tuấn Phát,"58 Trần Quốc Toản, Q. Hoàn Kiếm, ",Hà Nội,0989879694                              ,quangtuanxd36@gmail.com                           ,,Xi Măng - Sản Xuất và Kinh Doanh
227,Công Ty Cổ Phần Thạch Cao Xi Măng,"24 Hà Nội, Tp. Huế, ",Thừa Thiên Huế,(0234) 3825432                                 ,contact@thachcaoximang.com.vn                     ,http://www.thachcaoximang.com.vn,Xi Măng - Sản Xuất và Kinh Doanh
228,Công Ty CP Hồng Hà Sài Gòn,"100 Đường D2, P. Tăng Nhơn Phú, Q. 9, ",Tp. Hồ Chí Minh (TPHCM),(028) 38481999                                ,betongvietnam.vnc@gmail.com                       ,http://honghasaigon.com,Xi Măng - Sản Xuất và Kinh Doanh
229,Công Ty Hà Giang Xi Măng,"Tổ 11,X. Ngọc Dương, ",Hà Giang,(0219) 3866802                                 , ,,Xi Măng - Sản Xuất và Kinh Doanh
230,Văn Phòng Đại Diện - Công Ty Holcim,,Hà Nội,(024) 39344990                                ,hmac@hn.vnn.vn                                    ,,Xi Măng - Sản Xuất và Kinh Doanh
231,Nhà Máy Cao Bằng Xi Măng,"Km 6 Đông Khê, X. Duyệt Chung, ",Cao Bằng,(0206) 3852010                                 , ,,Xi Măng - Sản Xuất và Kinh Doanh
232,An Khang - Công Ty TNHH An Khang,"E25/2 ấp Hiệp Hòa,Quốc Lộ 22B, X. Hiệp Tân, H. Hòa Thành, ",Tây Ninh,(0276) 3827322                                 , ,,Xi Măng - Sản Xuất và Kinh Doanh
233,Cửa Hàng Vật Liệu Xây Dựng 271,"271 Đường 41, P. 16, Q. 8, ",Tp. Hồ Chí Minh (TPHCM),(028) 54320975                                , ,,Xi Măng - Sản Xuất và Kinh Doanh
234,Cửa Hàng Huyền Trân,"108 ấp Bàu Tre, X. Tân An Hội, H. Củ Chi, ",Tp. Hồ Chí Minh (TPHCM),(028) 38920841                                , ,,Xi Măng - Sản Xuất và Kinh Doanh
235,Công Ty Xi Măng 18,"X. Đồng Phong, H. Nho Quan, ",Ninh Bình,(0229) 3866062                                 , ,,Xi Măng - Sản Xuất và Kinh Doanh
236,Huy Thắng - Chi Nhánh Công Ty Cổ Phần Huy Thắng,"28A Nguyễn Thái Bình, P. Tân Thành, Q. Tân Phú, ",Tp. Hồ Chí Minh (TPHCM),(028) 22152374                                , ,,Xi Măng - Sản Xuất và Kinh Doanh
237,Thành An - Chi Nhánh Công Ty TNHH Thương Mại Thành An,"51 Tô Hiệu, Q. Cầu Giấy, ",Hà Nội,(024) 37567319                                ,thanhan_tac@email.vnn.vn                          ,http://www.thanhan.com.vn,Xi Măng - Sản Xuất và Kinh Doanh
238,Việt Trung - Công Ty Cổ Phần Xi Măng Việt Trung,"X. Thanh Hải, H. Thanh Liêm, ",Hà Nam,(0226) 3888005                                 , ,,Xi Măng - Sản Xuất và Kinh Doanh
239,Công Ty Holcim Việt Nam Liên Doanh Xi Măng-Vpgd,"Khóm Đông Thạnh,Quốc Lộ 91, P. Mỹ Thạnh, Tp. Long Xuyên, ",An Giang,(0296) 3835878                                 , ,,Xi Măng - Sản Xuất và Kinh Doanh
240,Công Ty Xi Măng Phúc Sơn,"Thị Trấn Phú Thư, Kinh Môn ",Hải Dương,(0220) 3824812                                 , ,,Xi Măng - Sản Xuất và Kinh Doanh
241,Duyên Linh - Công Ty Cổ Phần Xi Măng Duyên Linh,"X. Duy Tân, H. Kinh Môn, ",Hải Dương,(0220) 3824900                                 , ,,Xi Măng - Sản Xuất và Kinh Doanh
242,Công Ty Xi Măng Hà Tiên 2-Cn Đồng Tháp,"Mỹ Thọ, Tp. Cao Lãnh, ",Đồng Tháp,(0277) 3822244                                 ,ho-chanh@yahoo.com                                ,,Xi Măng - Sản Xuất và Kinh Doanh
243,Ngũ Hành Sơn - Công Ty Cổ Phần Xi Măng Ngũ Hành Sơn,"Khu Công Nghiệp Liên Chiểu, 67 Nguyễn Văn Cừ, Q. Liên Chiểu, ",Tp. Đà Nẵng,(0236) 3772003                                 , ,,Xi Măng - Sản Xuất và Kinh Doanh
244,Yên Bái - Công Ty Cổ Phần Xi Măng Yên Bái,"TT. Yên Bình, H. Yên Bình, ",Yên Bái,(0216) 3885154                                 , ,,Xi Măng - Sản Xuất và Kinh Doanh
245,Doanh Nghiệp Tư Nhân Phượng Trần Thương Mại & Vận Tải,"10D Trường Chinh, P. 12, Q. Tân Bình, ",Tp. Hồ Chí Minh (TPHCM),(028) 38440259                                , ,,Xi Măng - Sản Xuất và Kinh Doanh
246,Hiếu Trung - Công Ty TNHH Hiếu Trung,"C6 Đỗ Xuân Hợp, P. Phước Long B, Q. 6, ",Tp. Hồ Chí Minh (TPHCM),(028) 37281674                                , ,,Xi Măng - Sản Xuất và Kinh Doanh
247,Chi Nhánh - Công Ty Hoàng Thạch Xi Măng,"286 Nguyễn Tất Thành, P. 13, Q. 4, ",Tp. Hồ Chí Minh (TPHCM),(028) 39404758                                , ,,Xi Măng - Sản Xuất và Kinh Doanh
248,Công Ty TNHH Thương Mại Đầu Tư Thanh Long,"54 Ngõ 8 Tổ 31,Trung Phụng, Q. Đống Đa, ",Hà Nội,(024) 35114259                                , ,,Xi Măng - Sản Xuất và Kinh Doanh
249,Đại Lý Vân Hà,"95/2 Quang Trung, P. 8, Q. Gò Vấp, ",Tp. Hồ Chí Minh (TPHCM),(028) 39969936                                , ,,Xi Măng - Sản Xuất và Kinh Doanh
250,Công Ty Cổ Phần DIC Energy,"13 Bis Kỳ Đồng, Phường 9, Quận 3, ",Tp. Hồ Chí Minh (TPHCM),(028) 35261472                                ,info@dicenergy.vn                                 ,http://www.dicenergy.vn,Xi Măng - Sản Xuất và Kinh Doanh
251,Cty Cổ Phần Xi Măng Vật Liệu Xây Dựng Xây Lắp Đà Nẵng (Coxiva)-Cn Bình Định,"72 Tây Sơn, Tp. Quy Nhơn, ",Bình Định,(0256) 3846775                                 , ,http://www.coxiva.com.vn,Xi Măng - Sản Xuất và Kinh Doanh
252,Công Ty Xi Măng Hà Tiên 2,"TT. Kiên Lương, H. Kiên Lương, ",Kiên Giang,(0297) 3853004                                 ,xmht2@vnn.vn                                      ,http://www.xmht2.com,Xi Măng - Sản Xuất và Kinh Doanh
253,Hà Tiên Kiên Giang - Công Ty Cổ Phần Xi Măng Hà Tiên Kiên Giang,"P. Bình An, H. Kiên Lương, ",Kiên Giang,(0297) 3854359                                 , ,,Xi Măng - Sản Xuất và Kinh Doanh
254,Công Ty Quảng Ninh-Hoàn Cầu Xi Măng Liên Doanh,"Tổ 1,P. Thống Nhất, H. Hoành Bộ, ",Quảng Ninh,(0203) 3845655                                 , ,,Xi Măng - Sản Xuất và Kinh Doanh
255,Công Ty TNHH Thương Mại & Xây Lắp Quy Nhơn,"2B Phan Chu Trinh, Tp. Quy Nhơn, ",Bình Định,(0256) 3892031                                 ,vlxlqn@vnn.vn                                     ,,Xi Măng - Sản Xuất và Kinh Doanh
256,Công Ty Holcim Việt Nam Liên Doanh Xi Măng-Nhà Máy Xi Măng Hòn Chông,"P. Bình An, H. Kiên Lương, ",Kiên Giang,(0297) 3854745                                 , ,http://www.holcim.com.vn,Xi Măng - Sản Xuất và Kinh Doanh
257,Mai Long Phước1 - Chi Nhánh Công Ty TNHH Mai Long Phước1,"ấp 2, X. Thanh Phước, H. Tân Uyên, ",Bình Dương,(0274) 3658212                                 , ,,Xi Măng - Sản Xuất và Kinh Doanh
258,Cty Cổ Phần Xi Măng Vật Liệu Xây Dựng Xây Lắp Đà Nẵng-Cn Quảng Ngãi,"132 Quang Trung, Tp. Quảng Ngãi, ",Quảng Ngãi,(0255) 3822209                                 , ,http://www.coxiva.com.vn,Xi Măng - Sản Xuất và Kinh Doanh
259,Bỉm Sơn - Công Ty Cổ Phần VLXD Bỉm Sơn,"P. Ngọc Trạo, TX. Bỉm Sơn, ",Thanh Hóa,(0237) 3770254                                 , ,,Xi Măng - Sản Xuất và Kinh Doanh
260,Nhà Máy Hà Tu Xi Măng,"Lê Thánh Tông, X. Hà Phong, Tp. Hạ Long, ",Quảng Ninh,(0203) 3835211                                 , ,,Xi Măng - Sản Xuất và Kinh Doanh
261,Chi Nhánh - Công Ty Hoàng Thạch Xi Măng,"Khu 2, P. Thị Cầu, ",Bắc Ninh,(0222) 3821392                                 , ,,Xi Măng - Sản Xuất và Kinh Doanh
262,Công Ty Nội Thương Xi Măng,"TT. Liên Sơn, H. Kim Bảng, ",Hà Nam,(0226) 3820133                                 , ,,Xi Măng - Sản Xuất và Kinh Doanh
263,Trường Đức - Công Ty Cổ Phần Trường Đức,"1234 Khu Phố 2,Kha Vạn Cân, P. Linh Trung, Q. Thủ Đức, ",Tp. Hồ Chí Minh (TPHCM),(028) 38963477                                , ,,Xi Măng - Sản Xuất và Kinh Doanh
264,Cty Cổ Phần Xi Măng Vật Liệu Xây Dựng Xây Lắp Đà Nẵng-Cn Ninh Thuận,"30C Ngô Gia Tự, TX. Phan Rang-Tháp Chàm, ",Ninh Thuận,(0259) 3839906                                 , ,http://www.coxiva.com.vn,Xi Măng - Sản Xuất và Kinh Doanh
265,Việt An - Công Ty TNHH Việt An,"54 Ngõ 8,Trung Phụng, Q. Đống Đa, ",Hà Nội,(024) 38515141                                , ,,Xi Măng - Sản Xuất và Kinh Doanh
266,Phương Hải - Công Ty Cổ Phần Phương Hải,"Thôn Tri Thủy, X. Tri Hải, H. Ninh Hải, ",Ninh Thuận,(0259) 3873351                                 , ,,Xi Măng - Sản Xuất và Kinh Doanh
267,Chi Nhánh - Công Ty Luks Việt Nam Hữu Hạn Xi Măng,"Phòng 2906, Tầng29, Ttâm Thương Mại Sài Gòn, 37 Tôn Đức Thắng, P. Bến Nghé, Q. 1, ",Tp. Hồ Chí Minh (TPHCM),(028) 39100174                                ,tangphu@lukscement.com                            ,,Xi Măng - Sản Xuất và Kinh Doanh
268,Công Ty Lafarge Liên Doanh Xi Măng,"Tầng12, Tháp Bitexco, 19-25 Nguyễn Huệ, P. Bến Nghé, Q. 1, ",Tp. Hồ Chí Minh (TPHCM),(028) 38212582                                ,info@vn.lafarge.com                               ,http://www.lafarge.com,Xi Măng - Sản Xuất và Kinh Doanh
269,Công Ty Cổ Phần Thạch Cao Xi Măng,"24 Hà Nội, Tp. Huế, ",Thừa Thiên Huế,(0234) 3825432                                 ,contact@thachcaoximang.com.vn                     ,http://www.thachcaoximang.com.vn,Xi Măng - Sản Xuất và Kinh Doanh
270,Vạn Xuân - Công Ty Cổ Phần Đầu Tư Vạn Xuân,"263 Trần Đăng Ninh, P. Dịch Vọng, Q. Cầu Giấy, ",Hà Nội,(024) 37545069                                ,cduong@hn.vnn.vn                                  ,,Xi Măng - Sản Xuất và Kinh Doanh
271,Công Ty Cổ Phần Xi Măng Dầu Khí Nghệ An,"Km62, Quốc Lộ 7, X. Hội Sơn, H. Anh Sơn, ",Nghệ An,(0238) 3872131                                 ,xmdk@xinmangdaukhi.vn                             ,http://ximangdaukhi.vn,Xi Măng - Sản Xuất và Kinh Doanh
272,Công Ty Cổ Phần Vận Tải Hùng Đạt,"79 Hoàng Diệu, Tây Lộc, ",Thừa Thiên Huế,,duongpy78@gmail.com                               ,http://www.hungdatjsc.znn.vn,Xi Măng - Sản Xuất và Kinh Doanh
273,Công Ty TNHH Thiên Tự Phước,"Pâng Pung, Đinh Văn, Lâm Hà, ",Lâm Đồng,(0263) 3829653                                 ,thientuphuoc@gmail.com                            ,http://thientuphuoc.com.vn,Xi Măng - Sản Xuất và Kinh Doanh
