name,address,city,phone,email,website,category
Chuỗi ắc Quy PowerLand - Công Ty Cổ Phần Năng Lượng Powerland,"36 Cù Lao, Phường 2, Quận Phú Nhuận ",Tp. Hồ Chí Minh (TPHCM),"(028) 7303 3388, Hotline: 0948 918 008        ",chido@powerland.vn                                ,http://powerland.vn,ắc Quy Xe Nâng
ắc Quy Total Việt Nam - Công Ty TNHH Total Việt Nam,"Khu 5, Xã Chu Hóa, Thành Phố Việt Trì, ",Tỉnh Phú Thọ,"(0210) 3772368, Hotline : 0913.99.2323         ",totalbattery@gmail.com                            ,http://acquytotal.com,ắc Quy Xe Nâng
ắc Quy Sebang Battery Vina - Công Ty TNHH Sebang Battery Vina,"Lô B2, KCN Dệt May Nhơn Trạch, TT. Hiệp Phước, H. Nhơn Trạch, ",Đồng Nai,0939 421 521                            , ,,ắc Quy Xe Nâng
Dịch vụ xe nâng Phúc Minh - Công Ty TNHH Thương Mại Dịch Vụ Kỹ Thuật Xe Nâng Phúc Minh,Số 52/1 BĐường ĐT 769H.Long Thành T.Đồng Nai ,Đồng Nai,"(0274) 46502555, 0975023619                    ",xenangphucminh@gmail.com                          ,http://binhdienxenang48v.com,ắc Quy Xe Nâng
Ắc Quy Nhật Mai Group - Công Ty TNHH Nhật Mai Group,"Số 157, Đường Thạnh Lộc 15, P. Thạnh Lộc, Q. 12, ",Tp. Hồ Chí Minh (TPHCM),0909179929  -  0913233279               ,vanquyen@nhatmai.vn                               ,http://nhatmai.vn,ắc Quy Xe Nâng
Công Ty TNHH K&V,"Lô A-3K-CN, KCN Mỹ Phước 3, P. Mỹ Phước, TX. Bến Cát, ",Bình Dương,"(0274) 3567945, 0934605687                     ",kv.battery@gmail.com                              ,http://kvbattery.com,ắc Quy Xe Nâng
Công Ty Cổ Phần Pin ắc Quy Miền Nam (PINACO),"321 Trần Hưng Đạo, P. Cô Giang, Q. 1, ",TPHCM,"(028) 39203062, 39203063                      ",pinaco@pinaco.com.vn                              ,http://pinaco.com,ắc Quy Xe Nâng
Công Ty TNHH TM SX Ắc Quy Hàn Châu,"Số 58, Đường Số 3A, Cư Xá Bình Thới, P. 8, Q. 11, ",Tp. Hồ Chí Minh (TPHCM),"(028) 37660757, 39627440, 38581309            ",acquihanchau@gmail.com                            ,http://oriolebattery.com.vn,ắc Quy Xe Nâng
Công Ty TNHH Máy Và Thiết Bị TNT Việt Nam,"Tòa nhà MD Complex Tower, 68 Nguyễn Cơ Thạch, P. Cầu Diễn, Q. Nam Từ Liêm, ",Hà Nội,0973263344                              ,info@tntvn.com.vn                                 ,http://dichvuxenang.com,ắc Quy Xe Nâng
Công Ty TNHH MTV Ắc Quy Xe Điện V Và H,"Lô A-3K-CN, KCN Mỹ Phước 3, P. Mỹ Phước, TX. Bến Cát, ",Bình Dương,(0274) 3567945                                 ,vanphu.kv@gmail.com                               ,http://acquyxenang.vn,ắc Quy Xe Nâng
Dịch vụ xe nâng Phúc Minh - Công Ty TNHH Thương Mại Dịch Vụ Kỹ Thuật Xe Nâng Phúc Minh,"189/4B KP.Đông An , P.Tân Đông Hiệp , TX Dĩ An , Bình Dương ",Bình Dương,0975023619                              ,xenangphucminh@gmail.com                          ,http://binhdienxenang48v.com,ắc Quy Xe Nâng
ắc Quy Thanh Tâm - Công Ty TNHH MTV Thương Mại Dịch Vụ Kỹ Thuật Thanh Tâm,"55/1Q Ấp Nam Lân, Xã Bà Điểm, Huyện Hóc Môn, ",Tp. Hồ Chí Minh (TPHCM),0909 756 125                            ,info@acquythanhtam.vn                             ,http://acquythanhtam.vn,ắc Quy Xe Nâng
Công Ty TNHH MTV Ắc Quy Đức Hải,"Số 1/1, KP. Bình Đáng, P. Bình Hòa, TX. Thuận An, ",Bình Dương,(0274) 3844111                                 ,dovanan2666@gmail.com                             ,,ắc Quy Xe Nâng
Công Ty TNHH Dịch Vụ - Thương Mại CSC,"6/8A Phan Xích Long, P. 3, Q. Phú Nhuận, ",Tp. Hồ Chí Minh (TPHCM),(028) 38458450                                ,tuyetmaidoan@gmail.com                            ,,ắc Quy Xe Nâng
Công Ty TNHH TM DV Xe Nâng Đức Tín,"105 Đường 7A, P. Bình Trị Đông B, Q. Bình Tân, ",Tp. Hồ Chí Minh (TPHCM),0904222540                              ,info@binhxenang.com                               ,http://binhxenang.com,ắc Quy Xe Nâng
Công Ty TNHH Lumber Link,"Thửa Đất Số 192, Tờ Bản Đồ Số 12, KP. Khánh Hội, P. Tân Phước Khánh, TX. Tân Uyên, ",Bình Dương,0913558335                              ,kim@lumberlink.com.vn	                            ,http://banxenangcu.com	,ắc Quy Xe Nâng
Công ty TNHH TM DV Quang Phát Đạt,"112/2 Kp.1B, P.An Phú, Tx. Thuận An, ",Bình Dương,0904222540                              ,info@binhxenang.com                               ,http://www.binhxenang.com,ắc Quy Xe Nâng
Công Ty Cổ Phần ắc Quy Minh Châu,"Số 1A Ngõ 461 Minh Khai, Q. Hai Bà Trưng, ",Hà Nội,(024) 36366548                                ,minhchaubatteryjsc@gmail.com                      ,http://www.acquyminhchau.com,ắc Quy Xe Nâng
Ắc Quy Việt - Công Ty TNHH Thương Mại Và Dịch Vụ Ắc Quy Việt,"A4/15A Ấp 1, X. Lê Minh Xuân, H. Bình Chánh, ",Tp. Hồ Chí Minh (TPHCM),0919687087                              ,acquyviet.com@gmail.com                           ,http://acquyviet.com.vn,ắc Quy Xe Nâng
Công Ty Cổ Phần Công Nghệ ắc Quy MICROTEX Việt Nam,"Số 32 Nguyễn Bỉnh Khiêm, P. 1, Q. Gò Vấp, ",Tp. Hồ Chí Minh (TPHCM),(028) 22668368                                ,info.microtexvietnam@gmail.com                    ,http://microtexindia.com,ắc Quy Xe Nâng
Công Ty TNHH N.V.N,"64/1 Xuân Diệu, P. 4, Q. Tân Bình, ",Tp. Hồ Chí Minh (TPHCM),(028) 38116078                                ,nichiyuvn@hcm.vnn.vn                              ,http://nichiyu.com.sg,ắc Quy Xe Nâng
Công Ty TNHH BR MAX,"144 Quốc Lộ 1A, P. Thanh Xuân, Q. 12, ",Tp. Hồ Chí Minh (TPHCM),(028) 37166094                                ,trinhnguyen0211@gmail.com                         ,http://brmax.vn,ắc Quy Xe Nâng
Công Ty TNHH Kết Nối Việt Nam,"Số 14B, Đường Trần Ngọc Diện, P. Thảo Điền, ",Tp. Hồ Chí Minh (TPHCM),(028) 35125998                                ,vinalinks@asia.com                                ,http://ac-quy.com,ắc Quy Xe Nâng
Công Ty TNHH Thương Mại Xuất Nhập Khẩu Bảo Vân,"195 QL 1A, KP 3A, P. Thạnh Lộc, Q. 12, ",Tp. Hồ Chí Minh (TPHCM),(028) 22420171                                ,baovan.aq@gmail.com                               ,http://www.acquybaovan.com,ắc Quy Xe Nâng
Công Ty TNH,145B Cách Mạng Tháng Tám ,Đà Nẵng,"3699959 ,  0905 129 539                 ", ,,ắc Quy Xe Nâng
Công Ty TNHH Phụ Tùng Xe Nâng Việt Nam,"22 Đường DN 9, P. Tân Hưng Thuận, Q. 12, ",Tp. Hồ Chí Minh (TPHCM),(028) 54275672                                ,sales@phutungxenang.vn                            ,http://phutungxenang.vn,ắc Quy Xe Nâng
Công Ty CP Pin ắc Quy Vĩnh Phú,"X. Chu Hóa, Tp. Việt Trì, ",Phú Thọ,(0210) 3825123                                 ,cshk@vibaco.com.vn                                ,http://vibaco.com.vn,ắc Quy Xe Nâng
Công Ty TNHH Crown Equipment (Việt Nam),"Factory NX2, Lot S10-S11, Tan Tap-Long Hau Road,  Long Hau IP, Long Hau Ward, Can Giuoc Dist., ",Long An,(0272) 6255000                                 ,contact.vietnam@crown.com                         ,http://crown.com/en-sg,ắc Quy Xe Nâng
Xe Nâng ASA - Công Ty TNHH Xe Nâng ASA,"423 Vườn Lài, Phường An Phú Đông, Quận  12, ",Tp. Hồ Chí Minh (TPHCM),"(028) 3719 5030, 0911 755 700                 ",xenangasa@gmail.com                               ,http://suaxenang.com,ắc Quy Xe Nâng
"Xe Nâng, Máy Phát Điện, Máy Nén Khí","511 - 521, Nguyễn Đức Thuận, Gia Lâm, ",Hà Nội,0983901116                              ,hung.ls.maycongnghiep@gmail.com                   ,http://chothuexenangvn.com,ắc Quy Xe Nâng
Công Ty TNHH Đô Hai,"1104 Trường Chinh,P. Hòa Phát, Q. Cẩm Lệ, ",Tp. Đà Nẵng,"0935535444,                             ",congtydohai@gmail.com                             ,,ắc Quy Xe Nâng
