#,name,address,city,phone,email,website,category
1,Công Ty Đá Thạch Anh Trắng Giá Tốt,"Tổ 12, P. Quyết Thắng, TP. Sơn La, ",Sơn La,,damquanglan1957@gmail.com                         ,,Khoáng Sản - Công Ty Khoáng Sản
2,Khoáng Sản Thanh Tâm - Công Ty TNHH Thanh Tâm,"Số 25, Đường Phan Đình Phùng, TP. Đông Hà, ",Quảng Trị,"0233.552.957, 0983459999                ",thanhtamtitan@yahoo.com                           ,http://thanhtamtitan.com,Khoáng Sản - Công Ty Khoáng Sản
3,Khoáng Sản Nam Khánh - Công Ty TNHH Sản Xuất Thương Mại Và Vật Tư Khoáng Sản Nam Khánh,"Số 9 Khu TT Liên Đoàn Intergeo, Xóm 1A, Thôn Hoàng 4, Phường Cổ Nhuế 1, Quận Bắc Từ Liêm, ",Hà Nội,"Hotline: 0913343428, 0982271111         ",talcnamkhanh@gmail.com                            ,http://talcnamkhanh.com,Khoáng Sản - Công Ty Khoáng Sản
4,Khoáng Sản Hiếu Nga - Công Ty TNHH Sản Xuất Thương Mại Hiếu Nga,"Khu 3, Tam Cường, Tam Nông, ",Phú Thọ,(0210) 6533999                                 ,hieungacompany@gmail.com                          ,http://botmica.com,Khoáng Sản - Công Ty Khoáng Sản
5,Khoáng Sản Nguyễn Đức - Doanh Nghiệp Tư Nhân Nguyễn Đức,"Tổ 14, P. Trưng Vương, TP. Thái Nguyên, ",Thái Nguyên,Hotline:  0368 888 999                  ,nguyenduc.dntn@gmail.com                          ,http://nguyenduc.bizz.vn,Khoáng Sản - Công Ty Khoáng Sản
6,Bột Đá K.H.V - Công Ty Cổ Phần K.H.V,,Tp. Hải Phòng,(0225) 3652116                                 ,marketing@khv.com.vn                              ,http://www.khv.com.vn,Khoáng Sản - Công Ty Khoáng Sản
7,Than Mạnh Thành Công - Công Ty TNHH MTV Mạnh Thành Công,"Số D8, Tổ 5, Khu Phố 4, Phường Tân Hiệp, Biên Hòa, ",Đồng Nai,"0825 428 333, Hotline: 0903 664 579     ",manhthanhcong@gmail.com                           ,http://www.manhthanhcong.com,Khoáng Sản - Công Ty Khoáng Sản
8,Than Đá Minh Tuân - Công Ty TNHH XD Và Đầu Tư Thương Mại Minh Tuân,"Số 11b Thôn Chúc Lý, X. Ngọc Hòa, H. Chương Mỹ, ",Hà Nội,0976820219                              ,minhtuanxddt@gmail.com                            ,http://thankhoangsan.com,Khoáng Sản - Công Ty Khoáng Sản
9,Than Nam Hải - Công Ty TNHH Chế Biến Và Kinh Doanh Than Nam Hải,,Tp. Hồ Chí Minh (TPHCM),0909 029 898                            ,thannamhai@yahoo.com                              ,http://thannamhai.com,Khoáng Sản - Công Ty Khoáng Sản
10,Công Ty TNHH Khoáng Sản Sơn Hà 18,"Núi Mâm Xôi, X. Thanh Sơn, H. Kim Bảng, ",Hà Nam,931717698 / +84932222698                ,Shcgroup.vn@gmail.com                             ,http://Shcgroup.vn,Khoáng Sản - Công Ty Khoáng Sản
11,Bột Đá Tân Trường Hưng - Công Ty TNHH Tân Trường Hưng,"Khu Công nghiệp Thi Sơn, Kim Bảng, ",Hà Nam,Hotline: 0978 206 887 - 0904 363 893    ,kd.tantruonghung@gmail.com                        ,http://botdavoi.com,Khoáng Sản - Công Ty Khoáng Sản
12,Vôi Càng Long - Công Ty TNHH Một Thành Viên Vôi Càng Long Long An,"52A Bến Phú Định, P. 16, Q. 8, ",Tp. Hồ Chí Minh (TPHCM),"(028) 22441111, 38765431, 0909607080          ",voicanglong@gmail.com                             ,http://voicanglong.com,Khoáng Sản - Công Ty Khoáng Sản
13,Công Ty TNHH Đầu Tư Phát Triển Quốc Tế Sơn Hà,"Head Office: Vĩnh Quỳnh, H. Thanh Trì, ",Hà Nội,0936.162.698/0934.689.598/ 0936.454.698 ,"SHCgroup.vn@gmail.com, kd1.shcgroup@gmail.com,    ",http://shcgroup.vn,Khoáng Sản - Công Ty Khoáng Sản
14,Vôi Tấn Phương Nam - Công Ty TNHH Thương Mại Và Dịch Vụ Vận Tải Tấn Phương Nam,"Thôn Nhân Lý, Xã Cao Sơn, Huyện Thủy Nguyên, ",Tp. Hải Phòng,"0934 363 351, 0904 366 198              ",tanphuongnamxdhp@gmail.com                        ,http://tanphuongnam.vn,Khoáng Sản - Công Ty Khoáng Sản
15,Bột Cao Lanh Sam Com - Công Ty TNHH Một Thành Viên Sam Com,"Thửa Đất Số 595, Tờ Bản Đồ Số 21, Khu Phố Tân Bình, P. Tân Hiệp, TX. Tân Uyên, ",Bình Dương,"(0274) 3632153, 0903991741                     ",ctysamcom@gmail.com                               ,http://caolanhvinhhungphu.com,Khoáng Sản - Công Ty Khoáng Sản
16,Khoáng Sản Trường Hải - Công Ty CP TM Tư Vấn Bất Động Sản Trường Hải,"Số 90 Nguyễn Thị Thập, P. Tân Hưng, Q. 7, ",Tp. Hồ Chí Minh (TPHCM),"(028) 62983894, Hotline: 0904338338           ",salestruonghai01@gmail.com                        ,http://vnkaolin.com,Khoáng Sản - Công Ty Khoáng Sản
17,Khoáng Sản Hải Phòng - Công Ty CP Khoáng Sản Hải Phòng,"KCN An Tràng, TT.  Trường Sơn, H. An Lão, ",Tp. Hải Phòng,(0225) 3891268                                 ,khoangsanhaiphong@gmail.com                       ,http://khoangsanhaiphong.com,Khoáng Sản - Công Ty Khoáng Sản
18,VINACOMIN - Tập Đoàn Công Nghiệp Than - Khoáng Sản Việt Nam,"226 Lê Duẩn, Q. Đống Đa, ",Hà Nội,(024) 35180141                                ,vp.tkv@vinacomin.vn                               ,http://vinacomin.vn,Khoáng Sản - Công Ty Khoáng Sản
19,Công Ty Cổ Phần Kỹ Nghệ Khoáng Sản Quảng Nam,"Cụm Công nghiệp Hà Lam - Chợ Được,H. Thăng Bình, ",Quảng Nam,(0235) 3665022                                 ,minco@dng.vnn.vn                                  ,http://www.minco.com.vn,Khoáng Sản - Công Ty Khoáng Sản
20,Hiệp Phú - Công Ty Cổ Phần Hiệp Phú,"KCN Gia Hiệp, H. Di Linh, ",Lâm Đồng,(0263) 3781009                                 ,cophanhiepphu@gmail.com                           ,http://www.hiepphubentonite.com.vn,Khoáng Sản - Công Ty Khoáng Sản
21,Khoáng Sản Thiên Sơn - Công Ty CP Xây Dựng Và Khoáng Sản Thiên Sơn,"Thôn Bút Sơn, X. Thanh Sơn, H. Kim Bảng, ",Hà Nam,0918602186                              ,baoly87@gmail.com                                 ,http://nguyenlieubotda.com.vn,Khoáng Sản - Công Ty Khoáng Sản
22,Công Ty Cổ Phần Khai Thác Khoáng Sản Hà An Phát,"Tầng 2, Số nhà 20, Tổ 5, Ngõ Liên Cơ 1, P. Cầu Diễn, Q. Nam Từ Liêm, ",Hà Nội,(0238) 3786868                                 ,haanphat3979@gmail.com                            ,http://hapminerals.com,Khoáng Sản - Công Ty Khoáng Sản
23,Công Ty Cổ Phần Khoáng Chất Công Nghiệp Việt Nam,"TDP Số 6, TT Quang Minh, H. Mê Linh, ",Hà Nội,(024) 62951338                                ,info@khoangchatcongnghiep.com                     ,http://www.khoangchatcongnghiep.com,Khoáng Sản - Công Ty Khoáng Sản
24,Công Ty Cổ Phần Khoáng Sản Á Châu,"Lô 32, Khu C, KCN Nam Cấm, H. Nghi Lộc, ",Nghệ An,(0238) 3791777                                 ,amc@amcvina.vn                                    ,http://amcvina.com,Khoáng Sản - Công Ty Khoáng Sản
25,Tập Đoàn Hóa Chất Việt Nam,"1A Tràng Tiền, Q. Hoàn Kiếm, ",Hà Nội,(024) 38240551                                ,infor.office@vinachem.com.vn                      ,http://www.vinachem.com.vn,Khoáng Sản - Công Ty Khoáng Sản
26,Công Ty CP Nam Trung Nghệ An,"Cụm CN Nghĩa Mỹ, TX. Thái Hòa, ",Nghệ An,(0238) 3810677                                 ,info@namtrungnghean.com                           ,http://www.namtrungnghean.com,Khoáng Sản - Công Ty Khoáng Sản
27,Công Ty Cổ Phần Tập Đoàn Khoáng Sản Hoàng Gia,"Xóm Đồng Sòng, X. Đồng Hợp, H. Quỳ Hợp, ",Nghệ An,0988841080                              ,info@hoanggiamineralgroup.com.vn                  ,http://hoanggiamineralgroup.com,Khoáng Sản - Công Ty Khoáng Sản
28,Chi Nhánh Công Ty Phát Triển Số 1 - Nhà Máy Chế Biến Đá Trắng CaCo3,"KCN Phía Nam, Xã Văn Tiến, ",Yên Bái,0981 408 658                            ,nguyenhien.pts1.yb@gmail.com	                     ,http://ptso1.com,Khoáng Sản - Công Ty Khoáng Sản
29,Công Ty CP Mitco Việt Nam,"409 Tam Trinh, Q. Hoàng Mai, ",Hà Nội,(024) 62544527                                ,tranhungmitco@outlook.com.vn                      ,,Khoáng Sản - Công Ty Khoáng Sản
30,Công Ty Cổ Phần Nhật Anh,"Khu B, KCN Sông Công 1, P. Bách Quang, TP. Sông Công, ",Thái Nguyên,(0208) 6272868                                 ,ctycophannhatanhtn@gmail.com                      ,http://ctcpnhatanhtn.com,Khoáng Sản - Công Ty Khoáng Sản
31,Công Ty TNHH Khoáng Sản Nhật Việt,"Tầng 4, Tòa Nhà SaigonHome, Số 39 Nguyễn Bỉnh Khiêm, Phường 1, Quận Gò Vấp, ",Tp. Hồ Chí Minh (TPHCM),"(028) 37650660, 35001794, 0901348179          ",huynam.minerals@gmail.com                         ,http://www.javichem.com,Khoáng Sản - Công Ty Khoáng Sản
32,Công Ty Cổ Phần Khoáng Sản Và Cơ Khí,"Số 2 Đặng Thái Thân, Q. Hoàn Kiếm, ",Hà Nội,(024) 38265106                                ,ksck@mimeco.vn                                    ,http://www.mimeco.vn,Khoáng Sản - Công Ty Khoáng Sản
33,Xí Nghiệp Chế Biến Lâm Sản Xuất Khẩu Pisico - Chi Nhánh Pisico,"Khu Vực 7, P. Nhơn Phú, TP. Quy Nhơn, ",Bình Định,(0256) 3514018                                 ,pisico1@pisico1.com.vn                            ,http://pisico.com.vn,Khoáng Sản - Công Ty Khoáng Sản
34,Công Ty TNHH Thương Mại Việt Siêu,"85/4 Tây Lân, P. Bình Trị Đông A, Q. Bình Tân, ",Tp. Hồ Chí Minh (TPHCM),(028) 37540458                                ,vietsieu@hoachatvietsieu.com.vn                   ,http://www.hoachatvietsieu.com.vn,Khoáng Sản - Công Ty Khoáng Sản
35,Công Ty TNHH Một Thành Viên Apatit Việt Nam,"Đại Lộ Trần Hưng Đạo, Tổ 19, P. Bắc Cường, TP. Lào Cai, ",Lào Cai,(0214) 3852275                                 ,vinaapaco@vinaapaco.com                           ,http://vinaapaco.com,Khoáng Sản - Công Ty Khoáng Sản
36,Công Ty Cổ Phần Mông Sơn,"Tổ 18, Thị Trấn Yên Bình, H. Yên Bình, ",Yên Bái,(0216) 3885647                                 ,sales@mongson.vn                                  ,http://mongson.vn,Khoáng Sản - Công Ty Khoáng Sản
37,Công Ty TNHH Đầu Tư Và Thương Mại Hưng Thịnh An,"Số 10 Ngõ 77/10 Bùi Xương Trạch, P. Khương Đình, Q. Thanh Xuân ",Hà Nội,(024) 35593057                                ,kt.hungthinhan@gmail.com                          ,http://www.hungthinhan.com,Khoáng Sản - Công Ty Khoáng Sản
38,Công Ty TNHH Một Thành Viên Khoáng Sản Vôi Việt,"Số 10 Tân Đẩu Long, P. Tân Thành, TP. Ninh Bình, ",Ninh Bình,(0229) 6559999                                 ,vietlime@gmail.com                                ,http://vietlime.vn,Khoáng Sản - Công Ty Khoáng Sản
39,Vôi Thái Hòa - Công Ty TNHH Vôi Thái Hòa,"26 lô D, Phạm Văn Chí, P. 7, Q. 6, ",Tp. Hồ Chí Minh (TPHCM),0918.202.139                            ,voithaihoa@gmail.com                              ,http://voithaihoa.com,Khoáng Sản - Công Ty Khoáng Sản
40,Công Ty Cổ Phần Khoáng Sản 3 - Vimico,"Tổ 30, P. Duyên Hải, TP. Lào Cai, ",Lào Cai,(0214) 3821292                                 ,khoangsan3lc@gmail.com                            ,http://www.khoangsan3.com.vn,Khoáng Sản - Công Ty Khoáng Sản
41,Công Ty TNHH MRB Việt Nam,"Tầng 4 Tòa Nhà Hòa Anh Đào, Ngõ 33, Đường Lưu Hữu Tước, P. Mỹ Đình I, Q. Nam Từ Liêm, ",Hà Nội,(024) 62920216                                ,jason@mbr.com                                     ,http://mrb.vn,Khoáng Sản - Công Ty Khoáng Sản
42,Khoáng Sản Sơn Nam - Công Ty TNHH Khoáng Sản Sơn Nam,"1283/32/7 Huỳnh Tấn Phát, P. Phú Thuận, Q. 7, ",Tp. Hồ Chí Minh (TPHCM),0909133211                              ,vunguyen838383@gmail.com                          ,http://khoangsanmiennam.com,Khoáng Sản - Công Ty Khoáng Sản
43,Công Ty Cổ Phần Tập Đoàn Khoáng Sản Và Thương Mại VQB,"Tầng 9, Tòa Nhà Văn Phòng 24T1, Số 1 Nguyễn Huy Tưởng, Q. Thanh Xuân, ",Hà Nội,(024) 3734 6333                               ,vqb@vqbgroup.com                                  ,http://vqbgroup.com,Khoáng Sản - Công Ty Khoáng Sản
44,Công Ty CP Đầu Tư Xuất Nhập Khẩu Khoáng Sản Phú Gia Phát,"327 Quốc Lộ 20, Thôn Ánh Mai 2, Xã Lộc Châu, TP. Bảo Lộc, ",Lâm Đồng,(0263) 3722333                                 ,phugiaphat@gmail.com                              ,http://phugiaphat.com.vn,Khoáng Sản - Công Ty Khoáng Sản
45,Công Ty CP Xuất Nhập Khẩu Petrolimex,"54-56 Bùi Hữu Nghĩa, P. 5, Q. 5, ",Tp. Hồ Chí Minh (TPHCM),(028) 38383400                                ,pitco@pitco.com.vn                                ,http://pitco.com.vn,Khoáng Sản - Công Ty Khoáng Sản
46,Công Ty Cổ Phần Khoáng Sản Thăng Long,"Thôn Hồng Sơn, X. Thanh Sơn, H. Kim Bảng, ",Hà Nam,0915219628                              ,steve.lim1368@gmail.com                           ,,Khoáng Sản - Công Ty Khoáng Sản
47,Công Ty TNHH Một Thành Viên Apatit Việt Nam,"Đại Lộ Trần Hưng Đạo, Tổ 19, P. Bắc Cường, TP. Lào Cai, ",Lào Cai,(0214) 3852275                                 ,vinaapaco@vinaapaco.com                           ,http://vinaapaco.com,Khoáng Sản - Công Ty Khoáng Sản
48,Công Ty TM Phân Lân Nung Chảy Lào Cai,"21/37, Ngõ 183, Đặng Tiến Đông, Đống Đa, ",Hà Nội,0936 197 675                            ,inc@lafco.vn                                      ,http://lafco.vn,Khoáng Sản - Công Ty Khoáng Sản
49,Công Ty Cổ Phần Thương Mại Và Khai Thác Khoáng Sản Dương Hiếu,"Số 1309, Ngõ 1581, Đờng 3/2, Tổ 20, P. Thành, TP. Thái Nguyên, ",Thái Nguyên,(0208) 3832410                                 ,info@duonghieu.com.vn                             ,http://www.duonghieu.com.vn,Khoáng Sản - Công Ty Khoáng Sản
50,Công Ty TNHH Đầu Tư Và Thương Mại Hưng Thịnh An,"Số 10 Ngõ 77/10 Bùi Xương Trạch, P. Khương Đình, Q. Thanh Xuân ",Hà Nội,(024) 35593057                                ,kt.hungthinhan@gmail.com                          ,http://www.hungthinhan.com,Khoáng Sản - Công Ty Khoáng Sản
51,Công Ty TNHH Một Thành Viên Khoáng Sản Vôi Việt,"Số 10 Tân Đẩu Long, P. Tân Thành, TP. Ninh Bình, ",Ninh Bình,(0229) 6559999                                 ,vietlime@gmail.com                                ,http://vietlime.vn,Khoáng Sản - Công Ty Khoáng Sản
52,Công Ty TNHH Thương Mại Việt Siêu,"85/4 Tây Lân, P. Bình Trị Đông A, Q. Bình Tân, ",Tp. Hồ Chí Minh (TPHCM),(028) 37540458                                ,vietsieu@hoachatvietsieu.com.vn                   ,http://www.hoachatvietsieu.com.vn,Khoáng Sản - Công Ty Khoáng Sản
53,Công Ty TNHH Miền Duyên Hải,"Tầng 23, Tòa Nhà A&B, 76A Lê Lai, P. Bến Thành, Q. 1, ",Tp. Hồ Chí Minh (TPHCM),(028) 22450996                                ,coastal.pigment@gmail.com                         ,http://www.botmau.net,Khoáng Sản - Công Ty Khoáng Sản
54,Công Ty CP Xuất Nhập Khẩu Petrolimex,"54-56 Bùi Hữu Nghĩa, P. 5, Q. 5, ",Tp. Hồ Chí Minh (TPHCM),(028) 38383400                                ,pitco@pitco.com.vn                                ,http://pitco.com.vn,Khoáng Sản - Công Ty Khoáng Sản
55,Công Ty TNHH Công Nghiệp Quốc Tế Trường Thành,"O2 Tòa Nhà Điều Hành VSIP Hải Phòng, H. Thủy Nguyên, ",Tp. Hải Phòng,(0225) 2838938                                 , ,http://truongthanhlime.com,Khoáng Sản - Công Ty Khoáng Sản
56,Công Ty TNHH Vận Tải Biển Trung Thành,"14D1 Thảo Điền, P. Thảo Điền, Q. 2, ",Tp. Hồ Chí Minh (TPHCM),0915641635                              ,info@ttshipping.vn                                ,http://ttshipping.vn,Khoáng Sản - Công Ty Khoáng Sản
57,Quốc Tế Việt Mỹ - Vpđd Công Ty TNHH Khoáng Sản Quốc Tế Việt Mỹ,"Khu Công Nghiệp Đông Xuyên, Tp. Vũng Tàu, ",Bà Rịa-Vũng Tàu,(0254) 38446104                                , ,,Khoáng Sản - Công Ty Khoáng Sản
58,Khoáng Sản An Bình - Công Ty TNHH Thương Mại Dịch Vụ Khai Thác Khoáng Sản An Bình,"472/18 Cách Mạng Tháng Tám, P. 11, Q. 3, ",Tp. Hồ Chí Minh (TPHCM),0911110515                              ,khoangsananbinh@gmail.com                         ,,Khoáng Sản - Công Ty Khoáng Sản
59,Công Ty Cổ Phần Đầu Tư Và Thương Mại Doanh Nhân,"59 Phạm Ngọc Thạch, P. 6, Q. 3, ",Tp. Hồ Chí Minh (TPHCM),(028) 38205313                                ,info@bitracorp.com                                ,http://bitracorp.com,Khoáng Sản - Công Ty Khoáng Sản
60,Nam Đại Việt - Công Ty TNHH Nam Đại Việt,"I1/5 Nguyễn Ái Quốc, KP. 6, P. Trung Dũng, Tp. Biên Hòa, ",Đồng Nai,(0251) 8820589                                 ,namdaivietgroup@gmail.com                         ,http://namdaivietgroup.com,Khoáng Sản - Công Ty Khoáng Sản
61,Trung Dũng - Công Ty TNHH Thương Mại Trung Dũng,"KCN Châu Sơn, Tp. Phủ Lý, ",Hà Nam,(0226) 3848016                                 ,tranvandunghn@yahoo.com                           ,,Khoáng Sản - Công Ty Khoáng Sản
62,Vật Liệu Lọc Nước Dương Hưng - Công Ty TNHH MTV Vật Liệu Lọc Nước Dương Hưng,"Thôn Bắc, Cổ Dũng, Kim Thành, ",Hải Dương,(0220) 3562568                                 ,duongdanhtinh1958@gmail.com                       ,http://duonghung.com.vn,Khoáng Sản - Công Ty Khoáng Sản
63,"Ningxia Panson Coal and Carbon Co., LTD","Tòa Nhà CBD Insurance, Đường Shuangzi, Jinfeng Area, TP. Yinchuan, TT. Ningxia ",,+86 51162367                            ,alyssa@nxpanson.com                               ,http://nxpansons.com,Khoáng Sản - Công Ty Khoáng Sản
64,A R Mines Industries,"Lô Đất Số 21, 22, 23 & D-3/15, KCN Kakoda, Đường Sanguem, Kakoda, , ",Curchorem-Goa,9011230235                              ,arminesind@gmail.com                              ,http://arminesind.com,Khoáng Sản - Công Ty Khoáng Sản
65,Công Ty CP Tập Đoàn Hoành Sơn,"Tổ dân phố Thuận Minh, P. Đức Thuận, TX. Hồng Lĩnh, ",Hà Tĩnh,(0239) 3575555                                 ,info@hoanhsongroup.net                            ,http://hoanhsongroup.net,Khoáng Sản - Công Ty Khoáng Sản
66,Vôi Hương Hải - Công Ty TNHH Hương Hải Group,"Ô 2, Khu Biệt Thự Cao Cấp Đường Hạ Long, P. Bãi Cháy, TP. Hạ Long, ",Quảng Ninh,(0203) 6560186                                 ,sales@vietnamlime.com                             ,http://vietnamlime.com,Khoáng Sản - Công Ty Khoáng Sản
67,Linh Thành - Công Ty Cổ Phần Tập Đoàn Linh Thành,"55 Cộng Hòa, P. 4, Q. Tân Bình, ",Tp. Hồ Chí Minh (TPHCM),(028) 38117839                                ,infor@linhthanhgroup                              ,http://www.linhthanhgroup.com,Khoáng Sản - Công Ty Khoáng Sản
68,Công Ty CP Phát Triển Thương Mại An Khánh,"Tổ 22, P. Quang Trung, TP. Thái Nguyên, ",Thái Nguyên,(0208) 6252333                                 ,kinhdoanh@khoangsanankhanh.com.vn                 ,http://www.khoangsanankhanh.com.vn,Khoáng Sản - Công Ty Khoáng Sản
69,Vico Silica - Công Ty TNHH MTV Vico Silica,"A17 Nguyễn Hữu Thọ, Q. Hải Châu, ",Tp. Đà Nẵng,(0236) 3787556                                 ,vico-mt@dng.vnn.vn                                ,,Khoáng Sản - Công Ty Khoáng Sản
70,Công Ty TNHH Nhật Mỹ Phát,"52 Đường Thạnh Mỹ Lợi, P. Thạnh Mỹ Lợi, Q. 2, ",Tp. Hồ Chí Minh (TPHCM),(028) 37420628                                ,nhatmyphat@gmail.com                              ,http://www.nhatmyphat.com.vn,Khoáng Sản - Công Ty Khoáng Sản
71,Vôi Hà Nam - Công Ty TNHH Sản Xuất Và Thương Mại Vôi Hà Nam,"Quốc Lộ 1A, Thanh Hương, Thanh Liêm, ",Hà Nam,0972268833                              ,congtyvoihanam@gmail.com                          ,http://voihanam.vn,Khoáng Sản - Công Ty Khoáng Sản
72,Công Ty TNHH MTV Nguyên Vật Liệu Vôi Việt Nam,"Thôn Châu Giang, TT. Kiện Khê, H. Thanh Liêm, ",Hà Nam,0913610922                              ,nvlvoivietnam@gmail.com                           ,,Khoáng Sản - Công Ty Khoáng Sản
73,Công Ty TNHH YFA,"Khu 5, TT. Thanh Thuỷ, H. Thanh Thuỷ, ",Phú Thọ,(0210) 3686702                                 ,info@yfa.com.vn                                   ,http://www.yfa.com.vn,Khoáng Sản - Công Ty Khoáng Sản
74,Vận Tải Hùng Đạt - Công Ty Cổ Phần Vận Tải Hùng Đạt,"79 Hoàng Diệu, Tây Lộc, TP. Huế, ",Thừa Thiên Huế,(0234) 3558558                                 ,hungdatjsc@gmail.com                              ,http://vantaihungdat.com,Khoáng Sản - Công Ty Khoáng Sản
75,Công Ty CP Đầu Tư XNK Và Khai Thác Khoáng Sản Việt Nam,"KCN Kiện Khê, H. Thanh Liêm, ",Hà Nam,"0944607997, 0962566566                  ",sales@khoangsanvietnam.com.vn                     ,http://khoangsanvietnam.com.vn,Khoáng Sản - Công Ty Khoáng Sản
76,ASUKA Exports,"Số 289, New Street, Ayavoo Colony, Aminjikarai, Chennai, ấn Độ ",,+914443063070                           ,asukaexport@gmail.com                             ,http://asukaminerals.com,Khoáng Sản - Công Ty Khoáng Sản
77,Công Ty CP Hà Phát Việt Nam,"Số 2, Ngách 639/39, Hoàng Hoa Thám, Vĩnh Phúc, Q. Ba Đình, ",Hà Nội,(024) 62923299                                ,cphaphatvn@gmail.com                              ,http://haphatvn.com,Khoáng Sản - Công Ty Khoáng Sản
78,Công Ty CP Nguyên Thanh Hương,"24 Giang Cự Vọng, P. Trung Mỹ Tây, Q. 12, ",Tp. Hồ Chí Minh (TPHCM),(028) 62522533                                ,nguyenthanhhuong_72@yahoo.com.vn                  ,http://nguyenthanhhuong.com.vn,Khoáng Sản - Công Ty Khoáng Sản
79,Công Ty CP Thương Mại Và Vận Tải Sao Bắc,"35 M2 KĐT. Yên Hòa, P. Yên Hòa, Q. Cầu Giấy, ",Hà Nội,(024) 37726273                                ,info@saobac.com                                   ,http://saobac.com,Khoáng Sản - Công Ty Khoáng Sản
80,Công Ty TNHH Khoáng Sản Đá Vôi Hà Nam,"KCN Kiện Khê, ",Hà Nam,0904657922                              ,sales.khoangsanhanam@gmail.com                    ,http://khoangsanhanam.vn,Khoáng Sản - Công Ty Khoáng Sản
81,Công Ty TNHH Kosaxumi Việt Nam,"3/29 Ngõ 68, P. Triều Khúc, ",Hà Nội,(024) 8582865                                 ,kosaxumi.fcm@gmail.com                            ,http://www.kosaxumi.com,Khoáng Sản - Công Ty Khoáng Sản
82,Môi Trường HELPLINES - Công Ty TNHH HELPLINES,"Số 1/77/254 Minh Khai, P. Mai Động, Q. Hoàng Mai, ",Hà Nội,"(024) 85898936, 0904 646 809                  ",hse.vn@hotmail.com                                ,http://services.mov.mn,Khoáng Sản - Công Ty Khoáng Sản
83,Công Ty TNHH Tầm Nhìn Quốc Tế Việt Nam,"Xóm 10, X. Thi Sơn, H. Kim Bảng, ",Hà Nam,0913048775                              ,tamnhinquocte@gmail.com                           ,,Khoáng Sản - Công Ty Khoáng Sản
84,Đồng Lợi - Công Ty TNHH Đồng Lợi,"3/9 Khu Phố Đông Tân, TT. Dĩ An, H. Dĩ An, ",Bình Dương,(0274) 3742031                                 , ,,Khoáng Sản - Công Ty Khoáng Sản
85,Công Ty Cổ Phần Vôi Miền Bắc,"Số 111 Đường Biên Hòa, P. Lương Khánh Thiện, TP. Phủ Lý, ",Hà Nam,"0936175511, 0989685511                  ",voimienbac@gmail.com                              ,http://voimienbac.com.vn,Khoáng Sản - Công Ty Khoáng Sản
86,Công Ty TNHH Hóa Chất Và Khoáng Sản Việt World,"Lầu 6, Tòa Nhà NGE, Số 292 Ung Văn Khiêm, Phường 25, Quận Bình Thạnh, ",Tp. Hồ Chí Minh (TPHCM),(028) 35122108                                ,ctyvietworld@gmail.com                            ,http://vichemico.com,Khoáng Sản - Công Ty Khoáng Sản
87,Công Ty TNHH Khoáng Sản KMB Miền Bắc,"Nhà máy khoáng sản KMB Miền Bắc, KCN Thi Sơn, Kim Bảng, ",Hà Nam,0973035533                              ,lienhe@khoangsanmienbac.com                       ,http://khoangsanmienbac.com,Khoáng Sản - Công Ty Khoáng Sản
88,Công Ty TNHH TM DV Phát Triển Kỹ Thuật Kim Minh,"38/3B ấp Tây Lân, Xã Bà Điểm, Huyện Hóc Môn, ",Tp. Hồ Chí Minh (TPHCM),(028) 62723652                                ,kimminhtrading@gmail.com                          ,http://www.kimminhco.com,Khoáng Sản - Công Ty Khoáng Sản
89,Công ty TNHH Lingshou County Huayuan Mica,"KCN Liugou, H. Lingshou, ",Hebei,+86-0311-82675210                       ,grace@huayuanmica.com                             ,http://huayuanmica.com,Khoáng Sản - Công Ty Khoáng Sản
90,Công Ty TNHH Tài Nguyên Đông Sơn,"Số 24 Lô 6, Đường Trung Yên, Q. Cầu Giấy, ",Hà Nội,0945017758                              ,general@dongsonresources.com                      ,http://dongsonresources.com,Khoáng Sản - Công Ty Khoáng Sản
91,Công Ty TNHH Tài Nguyên Đông Sơn,"Số 24 Lô 6, Đường Trung Yên, Q. Cầu Giấy, ",Hà Nội,0945017758                              ,general@dongsonresources.com                      ,http://dongsonresources.com,Khoáng Sản - Công Ty Khoáng Sản
92,Công Ty TNHH TM DV Phát Triển Kỹ Thuật Kim Minh,"38/3B ấp Tây Lân, Xã Bà Điểm, Huyện Hóc Môn, ",Tp. Hồ Chí Minh (TPHCM),(028) 62723652                                ,kimminhtrading@gmail.com                          ,http://www.kimminhco.com,Khoáng Sản - Công Ty Khoáng Sản
93,Công Ty TNHH Khai Thác Chế Biến Khoáng Sản KL,"339 Nguyễn Thượng Hiền, P. 11, Q. 10, ",Tp. Hồ Chí Minh (TPHCM),"(028) 38326063, 0938415910                    ",vandung@kl-corp.com.vn                            ,http://www.kl-corp.com.vn,Khoáng Sản - Công Ty Khoáng Sản
94,Công Ty Cổ Phần 3.2,"Km1322 Quốc Lộ 1, X. An Phú, Tp. Tuy Hòa, ",Phú Yên,(0257) 3793121                                 , ,,Khoáng Sản - Công Ty Khoáng Sản
95,Công Ty Cổ Phần Xây Dựng Công Trình Giao Thông 505,"1 Hàn Thuyên, P. Xương Huân, Tp. Nha Trang, ",Khánh Hòa,(0258) 3822320                                 ,cienco5-505@vnn.vn                                ,,Khoáng Sản - Công Ty Khoáng Sản
96,Transcend Việt Nam - Công Ty TNHH Khoáng Sản (Cát Thủy Tinh) Transcend Việt Nam,"Khu Công Nghiệp Hòa Khánh, Lô G,Đường 3, Q. Liên Chiểu, ",Tp. Đà Nẵng,(0236) 3730973                                 ,ylh@dng.vnn.vn                                    ,,Khoáng Sản - Công Ty Khoáng Sản
97,Deng2minerals,"Box 5678, Đường Hai Cinema, Juba, ",Juba,(+211) 924 719 799                             ,abduldeng31@gmail.com                             ,http://deng2minerals.com,Khoáng Sản - Công Ty Khoáng Sản
98,Công Ty TNHH Khai Thác Và Chế Biến Khoáng Sản Linh Vũ Trân,"Thôn 1, X. Phong Phú, H. Tuy Phong, ",Bình Thuận,(0252) 3976797                                 ,linhvutranbentonite@gmail.com                     ,,Khoáng Sản - Công Ty Khoáng Sản
99,Công Ty Cổ Phần Khoáng Sản Tây Giang Cao Bằng,"Ngũ Lão, Hòa An, ",Cao Bằng,(0206) 6253189                                 ,contact@tgm2.vn                                   ,http://www.tgm2.vn,Khoáng Sản - Công Ty Khoáng Sản
100,Công Ty TNHH MTV Thương Mại Trung Kiên,"Khu 4, CCN Ngô Quyền, Cẩm Thượng, TP. Hải Dương, ",Hải Dương,0904127255                              ,ctytrungkien72@gmail.com                          ,http://hoachattrungkien.com,Khoáng Sản - Công Ty Khoáng Sản
101,Công Ty Cổ Phần Đầu Tư Thương Mại & Vận Tải Thành Trang,"31 Chương Dương, Hạ Lý, Q. Hồng Bàng, ",Tp. Hải Phòng,(0225) 3759399                                 ,thanhtrang@thanhtranghp.vn                        ,http://thanhtranghp.vn,Khoáng Sản - Công Ty Khoáng Sản
102,Công Ty Khai Thác Vận Tải Thủy Nội Địa,"T8 Quang Trung, Phủ Lý, ",Hà Nam,0915668168                              ,dnt252@gmail.com                                  ,,Khoáng Sản - Công Ty Khoáng Sản
103,Công Ty Cổ Phần Vận Tải Biển Vạn An,"129 Đường Số 59, P. 14, Q. Gò Vấp, ",Tp. Hồ Chí Minh (TPHCM),(028) 38117557                                ,ops@vanangroup.com                                ,http://vananshipping.com,Khoáng Sản - Công Ty Khoáng Sản
104,Công Ty TNHH Thế Lực,"9/5 Nguyễn Quy Yêm, P. An Lạc, Q. Bình Tân, ",Tp. Hồ Chí Minh (TPHCM),(028) 38768317                                ,intheluc@gmail.com                                ,,Khoáng Sản - Công Ty Khoáng Sản
105,Công Ty CP Kim Loại Mầu Thái Nguyên - VIMICO,"Tổ 6, P.Phú Xá,Tp. Thái Nguyên, ",Thái Nguyên,(0208) 3847229                                 ,thainguyentmc@gmail.com                           ,http://kimloaimau.com.vn,Khoáng Sản - Công Ty Khoáng Sản
106,Tân Uyên - Công Ty Cổ Phần Khoáng Sản Xây Dựng Tân Uyên XiCo,"ấp Tân Lợi, Xã Đất Cuốc,H. Bắc Tân Uyên, ",Bình Dương,(0274) 3656318                                 ,ktcbkstanuyen@hcm.vnn.vn                          ,,Khoáng Sản - Công Ty Khoáng Sản
107,Công Ty TNHH Một Thành Viên Hòa Phát Thành,"24 Đường 18, KDT Mới Him Lam, P. Tân Hưng, Q.7 ",Tp. Hồ Chí Minh (TPHCM),(028) 38932578                                ,customer.service@hoaphatthanh.com.vn              ,,Khoáng Sản - Công Ty Khoáng Sản
108,Bàn Thạch - Công Ty TNHH Bàn Thạch,"Số 9 Thanh Niên, P. An Xuân,Thanh Niên, Tp. Tam Kỳ, ",Quảng Nam,(0235) 3851463                                 ,banthachco@gmail.com                              ,,Khoáng Sản - Công Ty Khoáng Sản
109,Công Ty CP Simco Sông Đà,"Tòa SIMCO Sông Đà, tiểu khu ĐTM Vạn Phúc, phường Vạn Phúc, quận Hà Đông, ",Hà Nội,(024) 35520402                                ,songda@simco.vn                                   ,http://simco.vn,Khoáng Sản - Công Ty Khoáng Sản
110,Đá Mài Hải Dương - Công Ty Cổ Phần Đá Mài Hải Dương,"314 Điện Biên Phủ, P. Bình Hàn, ",Hải Dương,,admin@damaihd.com.vn                              ,http://damaihaiduong.com.vn,Khoáng Sản - Công Ty Khoáng Sản
111,Công Ty Cổ Phần SX & TM Sơn Thanh Phong,"Tân Ninh, Triệu Sơn, ",Thanh Hóa,(0237) 3563295                                 ,Sonthanhphong1111@gmail.com                       ,,Khoáng Sản - Công Ty Khoáng Sản
112,Bảo Linh - Công Ty Cổ Phần Vận Tải & Thương Mại Quốc Tế Bảo Linh,"356 Đà Nẵng, Q. Ngô Quyền, ",Tp. Hải Phòng,(0225) 3825343                                 ,info@baolinhjsc.com.vn                            ,http://www.baolinhjsc.com.vn,Khoáng Sản - Công Ty Khoáng Sản
113,Ban Mai - Công Ty TNHH Sản Xuất & Thương Mại Khoáng Sản Ban Mai,"178 P. Ngô Mây,Nguyễn Thái Học, Tp. Quy Nhơn, ",Bình Định,(0256) 3523952                                 ,thuhien_banmai@yahoo.com                          ,,Khoáng Sản - Công Ty Khoáng Sản
114,Công Ty TNHH Mai Linh C,"Số 51 Ngõ 49 Triều Khúc, Thanh Xuân Nam, Thanh Xuân, ",Hà Nội,(024) 38548828                                ,mailinhc2012@gmail.com                            ,,Khoáng Sản - Công Ty Khoáng Sản
115,Công Ty CP Khoáng Sản Pha Lê,"8th Floor, 169 Nguyen Ngoc Vu Str., Cau Giay Dist., ",Hà Nội,(024) 35551669                                ,phuongnm@phalecorp.com                            ,http://www.phalecorp.com,Khoáng Sản - Công Ty Khoáng Sản
116,Công Ty CPKS & TM Thiên Hà (Galaxy Minerals),"Số 12/3/2, Đường Ven Sông Lam, P. Bến Thủy, Tp, Vinh, ",Nghệ An,(0238) 8604666                                 ,thtminerals@gmail.com                             ,http://www.thtminerals.com,Khoáng Sản - Công Ty Khoáng Sản
117,Công Ty CP Công Nghiệp Đông Bắc Việt Nam,"Tổ 7, Khu 9, P. Bãi Cháy, TP. Hạ Long, ",Quảng Ninh,0911636189                              ,vanduyenhmxom10@gmail.com                         ,,Khoáng Sản - Công Ty Khoáng Sản
118,Công Ty TNHH Trung Thành Thái Nguyên,"Tổ 9, P. Trung Thành, TP. Thái Nguyên, ",Thái Nguyên,(0208) 3832469                                 ,trungthanhtn@trungthanhtn.com.vn                  ,http://trungthanhtn.com.vn,Khoáng Sản - Công Ty Khoáng Sản
119,Công Ty TNHH Sản Xuất & Thương Mại ABB,"Hưng Nguyên, ",Nghệ An,(038) 3821386                                 ,Ctyabb@gmail.com                                  ,,Khoáng Sản - Công Ty Khoáng Sản
120,Công Ty Cổ Phần Kỹ Thuật Thương Mại Thiên Hỏa Long,,Hà Nội,(024) 62754763                                ,thienhoalonghn@gmail.com                          ,http://www.thienhoalong.vn,Khoáng Sản - Công Ty Khoáng Sản
121,Công Ty Vôi Đá Lương Sơn - Hòa Bình,"TT. Lương Sơn, H. Lương Sơn, ",Hòa Bình,(0218) 3824120                                 , ,,Khoáng Sản - Công Ty Khoáng Sản
122,Công Ty TNHH Thương Mại Và Kỹ Thuật Việt Nhật,"Số 221, Tổ 7, P. Thắng Lợi, TX. Sông Công, ",Thái Nguyên,(0208) 3509716                                 ,contact@vietnhatgroup.com                         ,http://vietnhatgroup.com,Khoáng Sản - Công Ty Khoáng Sản
123,Tổng Công Ty Cổ Phần Khoáng Sản NA Rì HAMICO,"Lũng Hoàn, Xã Xuất Hóa, TX Bắc Kạn, ",Bắc Cạn,(0209) 6286786                                 , ,http://www.narihamico.vn,Khoáng Sản - Công Ty Khoáng Sản
124,Hoàng Nguyên - Công Ty Cổ Phần Khoáng Sản Hoàng Nguyên,"55 Bạch Đằng, TT. Núi Đèo, H. Thủy Nguyên, ",Tp. Hải Phòng,(0225) 3642084                                 , ,,Khoáng Sản - Công Ty Khoáng Sản
125,Công Ty TNHH Đầu Tư Và Tư Vấn Xây Dựng Bình Minh,"P102, Nhà E10, Ngõ 132 Trung Kính, Cầu Giấy, ",Hà Nội,(024) 62694144                                ,quytrungdc@gmail.com                              ,http://binhminhcic.com,Khoáng Sản - Công Ty Khoáng Sản
126,Công Ty Cổ Phần Khoáng Sản Công Nghiệp Miền Bắc,"Văn Phòng Giao Dịch: Ô Số 11, Lô 1A.1.2, N02 KĐT Mỹ Đình 1, Mỹ Đình, Q. Nam Từ Liêm, ",Hà Nội,"(024) 6295757, 0914 573 223,                  ",info@talcvietnam.com.vn                           ,http://talcvietnam.com.vn,Khoáng Sản - Công Ty Khoáng Sản
127,Kim Hoàng Long - Công Ty Cổ Phần Khoáng Sản Quốc Tế Kim Hoàng Long,"147 Nguyễn Thông, P. 9, Q. 3, ",Tp. Hồ Chí Minh (TPHCM),(028) 38435317                                ,oanhlong6002@yahoo.com.vn                         ,,Khoáng Sản - Công Ty Khoáng Sản
128,"Công Ty Cổ Phần Trung Đức, X. Nghi Khánh, H. Nghi Lộc,","Xã Nghi Khánh, H. Nghi Lộc, ",Nghệ An,(0238) 3945230                                 ,ctytrungducnk@yahoo.com                           ,http://trungducjsc.net,Khoáng Sản - Công Ty Khoáng Sản
129,Công Ty Cổ Phần Khoáng Sản & Luyện Kim Cao Bằng,"Kim Đồng, TX. Cao Bằng, ",Cao Bằng,(0206) 3855015                                 , ,,Khoáng Sản - Công Ty Khoáng Sản
130,Công Ty TNHH Danh Thành Đạt,"Số 277 Đường Lạc Long Quân , P. Trần Quang Diệu , TP. Quy Nhơn, ",Bình Định,(0256) 3941279                                 , ,,Khoáng Sản - Công Ty Khoáng Sản
131,Địa Hoàng Phú - Công Ty Cổ Phần Khoáng Sản Kim Loại Công Nghiệp Địa Hoàng Phú,"30B Đoàn Thị Điểm, P. Quốc Tử Giám, Q. Đống Đa, ",Hà Nội,(024) 62754138                                ,diahoangphu2@gmail.com                            ,http://www.diahoangphu.com.vn,Khoáng Sản - Công Ty Khoáng Sản
132,Bồng Miêu - Công Ty TNHH Khai Thác Vàng Bồng Miêu,"996 P. An Hải Đông, Q. Sơn Trà, ",Tp. Đà Nẵng,(0236) 3945288                                 ,hr@bsra.com                                       ,,Khoáng Sản - Công Ty Khoáng Sản
133,Xí Nghiệp Địa Chất & Khoáng Sản,"Trung Văn, H. Từ Liêm, ",Hà Nội,(024) 35530480                                , ,,Khoáng Sản - Công Ty Khoáng Sản
134,Công Ty Cổ Phần Xây Dựng Và Thương Mại Lepro Việt Nam,"Phòng 607, Nhà 178T, THNC, Thanh Xuân, Hà Nội ",Tp. Hồ Chí Minh (TPHCM),(028) 5576082                                 ,info@leprocons.com.vn                             ,http://www.leprocons.com.vn,Khoáng Sản - Công Ty Khoáng Sản
135,Xí Nghiệp Graphit Khai Thác Tuyến Lọc,"X. Cổ Phúc, H. Trấn Yên, ",Yên Bái,(0216) 3825114                                 , ,,Khoáng Sản - Công Ty Khoáng Sản
136,Doanh Nghiệp Tư Nhân Hoàng Minh,"Khóm 4,P. 5, TX. Trà Vinh, ",Trà Vinh,(0294) 3844616                                 , ,,Khoáng Sản - Công Ty Khoáng Sản
137,Công Ty Cổ Phần Phát Triển Khoáng Sản,"166 Đ. Tựu Liệt, X. Tam Hiệp,H. Thanh Trì, ",Hà Nội,(024) 38612384                                , ,,Khoáng Sản - Công Ty Khoáng Sản
138,Công Ty Khoáng Sản Thanh Hóa,"7 Đường Cầu Cao, Tp. Thanh Hóa, ",Thanh Hóa,(0237) 3853150                                 , ,,Khoáng Sản - Công Ty Khoáng Sản
139,Công Ty Cổ Phần Khoáng Sản Bình Định,"11 Hà Huy Tập, Tp. Quy Nhơn, ",Bình Định,(0256) 3822204                                 ,bimicovn@dng.vnn.vn                               ,,Khoáng Sản - Công Ty Khoáng Sản
140,Công Ty Cổ Phần Khoáng Sản Bắc Giang,"Xã Tân Dĩnh, Huyện Lạng Giang, ",Bắc Giang,(0204) 3854215                                 ,info@khoangsanbg.com.vn                           ,http://www.khoangsanbg.com.vn,Khoáng Sản - Công Ty Khoáng Sản
141,Tổng Công Ty Cổ Phần Khoáng Sản NA Rì HAMICO,"Lũng Hoàn, Xã Xuất Hóa, TX Bắc Kạn, ",Bắc Cạn,(0209) 6286786                                 , ,http://www.narihamico.vn,Khoáng Sản - Công Ty Khoáng Sản
142,Vinashin - Công Ty Cổ Phần Khoáng Sản Đầu Tư Vinashin,"109 Quán Thánh, P. Quán Thánh, Q. Ba Đình, ",Hà Nội,(024) 35377466                                , ,,Khoáng Sản - Công Ty Khoáng Sản
143,Công Ty TNHH Danh Thành Đạt,"Số 277 Đường Lạc Long Quân , P. Trần Quang Diệu , TP. Quy Nhơn, ",Bình Định,(0256) 3941279                                 , ,,Khoáng Sản - Công Ty Khoáng Sản
144,Việt Dũng - Công Ty TNHH Việt Dũng,"26 Tổ 23,Chùa Hà, Q. Cầu Giấy, ",Hà Nội,(024) 38336263                                ,dungchuaha@hn.vnn.vn                              ,,Khoáng Sản - Công Ty Khoáng Sản
145,Công Ty Cổ Phần Xuất Nhập Khẩu Khoáng Sản,"6 Phạm Ngũ Lão, Q. Hoàn Kiếm, ",Hà Nội,(024) 38260673                                , ,,Khoáng Sản - Công Ty Khoáng Sản
146,Bình Dương - Công Ty Cổ Phần Lâm Sản & Xuất Nhập Khẩu Tổng Hợp Bình Dương,"612 Đại Lộ Bình Dương, P. Hiệp Thành, TP. Thủ Dầu Một, ",Bình Dương,(0274) 3822612                                 ,genimex@genimex.com.vn                            ,http://www.genimex.com.vn,Khoáng Sản - Công Ty Khoáng Sản
147,VMC - Công Ty TNHH Hóa Chất & Khoáng Sản VMC,"18 Ngách 12/21,Đào Tấn, Q. Ba Đình, ",Hà Nội,(024) 37664964                                ,vinhtd_vmc@hn.vnn.vn                              ,,Khoáng Sản - Công Ty Khoáng Sản
148,Kim Hoàng Long - Công Ty Cổ Phần Khoáng Sản Quốc Tế Kim Hoàng Long,"147 Nguyễn Thông, P. 9, Q. 3, ",Tp. Hồ Chí Minh (TPHCM),(028) 38435317                                ,oanhlong6002@yahoo.com.vn                         ,,Khoáng Sản - Công Ty Khoáng Sản
149,Tổng Công Ty Đầu Tư Phát Triển Xây Dựng (DIC),"265 Lê Hồng Phong, P. 8, Tp. Vũng Tàu, ",Bà Rịa-Vũng Tàu,(0254) 3859248                                 ,thientuandic@hcm.vnn.vn                           ,http://www.dicgroup.com.vn,Khoáng Sản - Công Ty Khoáng Sản
150,Công Ty Cổ Phần Đầu Tư Xuất Nhập Khẩu Nam Hoa,"66 Trần Thái Tông, P. Dịch Vọng, Q. Cầu Giấy, Hà Nội ",Hà Nội,(024) 35149888                                ,info@noithathoaxinh.vn                            ,http://www.namhoa.vn,Khoáng Sản - Công Ty Khoáng Sản
151,Thăng Long - Công Ty Cổ Phần Đầu Tư Khoáng Sản & Thủy Điện Thăng Long,"Phòng 611, Khu Công Nghiệp Mỹ Đình, CT6 H. Từ Liêm, ",Hà Nội,(024) 37875373                                ,thanglongjsc2007@vnn.vn                           ,,Khoáng Sản - Công Ty Khoáng Sản
152,Công Ty TNHH MTV Nguyễn Thành Trung,"Đại Hồng, Đại Lộc, ",Quảng Nam,(0235) 3770789                                 ,phuongdung0202.vt@gmail.com                       ,,Khoáng Sản - Công Ty Khoáng Sản
153,Văn Phòng Đại Diện - Công Ty Gimpex,"224 Cộng Hòa, P. 12, Q. Tân Bình, ",Tp. Hồ Chí Minh (TPHCM),(028) 39485191                                ,gimpexltdvn@vnn.vn                                ,http://www.gimpex.com,Khoáng Sản - Công Ty Khoáng Sản
154,Bồng Miêu - Công Ty TNHH Khai Thác Vàng Bồng Miêu,"996 P. An Hải Đông, Q. Sơn Trà, ",Tp. Đà Nẵng,(0236) 3945288                                 ,hr@bsra.com                                       ,,Khoáng Sản - Công Ty Khoáng Sản
155,Công Ty Cổ Phần Xây Dựng Và Thương Mại Lepro Việt Nam,"Phòng 607, Nhà 178T, THNC, Thanh Xuân, Hà Nội ",Tp. Hồ Chí Minh (TPHCM),(028) 5576082                                 ,info@leprocons.com.vn                             ,http://www.leprocons.com.vn,Khoáng Sản - Công Ty Khoáng Sản
156,Hoa Sen - Công Ty Cổ Phần Hoa Sen,"50B Nam Kỳ Khởi Nghĩa, P. Thắng Tam, Tp. Vũng Tàu, ",Bà Rịa-Vũng Tàu,(0254) 3525090                                 , ,,Khoáng Sản - Công Ty Khoáng Sản
157,Minh Tiến - Công Ty Cổ Phần Khoáng Sản Minh Tiến,"Tầng3, 99 Nguyễn Thị Minh Khai, P. Bến Thành, Q. 1, ",Tp. Hồ Chí Minh (TPHCM),(028) 39919770                                ,mitecorp@vnn.vn                                   ,,Khoáng Sản - Công Ty Khoáng Sản
158,Công Ty Cổ Phần Kỹ Thuật Thương Mại Thiên Hỏa Long,,Hà Nội,(024) 62754763                                ,thienhoalonghn@gmail.com                          ,http://www.thienhoalong.vn,Khoáng Sản - Công Ty Khoáng Sản
159,Công Ty TNHH Đông Phong,"15A Ngô Đức Kế, P. 7, Tp. Vũng Tàu, ",Bà Rịa-Vũng Tàu,(0254) 3732475                                 ,dongphongvt@yahoo.com.vn                          ,,Khoáng Sản - Công Ty Khoáng Sản
160,Doanh Nghiệp Tư Nhân Đông Hiệp,"Khóm 2, TT. Duyên Hải, H. Duyên Hải, ",Trà Vinh,(0294) 3832077                                 , ,,Khoáng Sản - Công Ty Khoáng Sản
161,Công Ty Million Link (China) Investment Ltd.,"Phòng 405, Khách Sạn Bin Bop, Khu 10, Tổ 1,P. Trần Hưng Đạo, Tp. Hạ Long, ",Quảng Ninh,(0203) 3655292                                 ,vietnama@millionlink.com                          ,http://www.millionlink.com,Khoáng Sản - Công Ty Khoáng Sản
162,Văn Phòng Đại Diện - Công Ty TNHH MTV Apatit Việt Nam,"2 Ngõ Quan Thổ 1,Tôn Đức Thắng, Q. Đống Đa, ",Hà Nội,(024) 35112238                                , ,,Khoáng Sản - Công Ty Khoáng Sản
163,Công Ty TNHH Thương Mại Và Kỹ Thuật Việt Nhật,"Số 221, Tổ 7, P. Thắng Lợi, TX. Sông Công, ",Thái Nguyên,(0208) 3509716                                 ,contact@vietnhatgroup.com                         ,http://vietnhatgroup.com,Khoáng Sản - Công Ty Khoáng Sản
164,Địa Hoàng Phú - Công Ty Cổ Phần Khoáng Sản Kim Loại Công Nghiệp Địa Hoàng Phú,"30B Đoàn Thị Điểm, P. Quốc Tử Giám, Q. Đống Đa, ",Hà Nội,(024) 62754138                                ,diahoangphu2@gmail.com                            ,http://www.diahoangphu.com.vn,Khoáng Sản - Công Ty Khoáng Sản
165,Hương Hải - Công Ty TNHH Hương Hải,"1 Vườn Đào, H. Bãi Cháy, ",Quảng Ninh,(0203) 3847614                                 , ,http://www.halongdiscover.com,Khoáng Sản - Công Ty Khoáng Sản
166,Tổng Công Ty Hà Tĩnh Khoáng Sản & Thương Mại,"2 Vũ Quang, P. Thanh Nhàn, TX. Hà Tĩnh, ",Hà Tĩnh,(0239) 3855601                                 ,tepecht@vnn.vn                                    ,,Khoáng Sản - Công Ty Khoáng Sản
167,Công Ty Cổ Phần Phát Triển Công Nghiệp,"X. Cam Thanh, Tp. Cẩm Phả, ",Quảng Ninh,(0203) 3713686                                 , ,,Khoáng Sản - Công Ty Khoáng Sản
168,Công Ty Khoáng Sản Thừa Thiên Huế,"53 Nguyễn Gia Thiều, X. Phú Hiệp, Tp. Huế, ",Thừa Thiên Huế,(0234) 3523695                                 ,humexco@dng.vnn.vn                                ,,Khoáng Sản - Công Ty Khoáng Sản
169,Công Ty TNHH Sản Xuất Ngọn Lửa Việt,"Số 2 Nguyễn Sỹ Sách,  P.15,  Q.Tân Bình, ",Tp. Hồ Chí Minh (TPHCM),(028) 38625021                                ,ngonluaviet.ltd@gmail.com                         ,,Khoáng Sản - Công Ty Khoáng Sản
170,Công Ty Cổ Phần Khoáng Sản Và Xi Măng Cần Thơ,"Quốc Lộ 80, P. Thới Thuận, Q. Thốt Nốt, ",Tp. Cần Thơ,(0292) 3859216                                 ,ximangcantho@vnn.vn                               ,,Khoáng Sản - Công Ty Khoáng Sản
171,Thành Đạt - Công Ty TNHH Thành Đạt,"11 Đường 23 Tháng 10, Tp. Nha Trang, ",Khánh Hòa,(0258) 3822441                                 ,ctthanhdat@dng.vnn.vn                             ,,Khoáng Sản - Công Ty Khoáng Sản
172,Minh Tiến - Chi Nhánh Công Ty Cổ Phần Khoáng Sản Minh Tiến,"ấp Thanh Long, TT. Đất Đỏ,H. Đất Đỏ, ",Bà Rịa-Vũng Tàu,(0254) 3866184                                 , ,,Khoáng Sản - Công Ty Khoáng Sản
173,Hà Nam - Công Ty Cổ Phần Khoáng Sản Hà Nam,"Tổ 14,Lương Khánh Thiện, TX. Phủ Lý, ",Hà Nam,(0226) 3826332                                 , ,,Khoáng Sản - Công Ty Khoáng Sản
174,Công Ty Phát Triển Khoáng Sản 4,"Lê Viết Thuận, X. Hưng Lộc, Tp. Vinh, ",Nghệ An,(0238) 3858665                                 , ,,Khoáng Sản - Công Ty Khoáng Sản
175,Hoàng Nguyên - Công Ty Cổ Phần Khoáng Sản Hoàng Nguyên,"55 Bạch Đằng, TT. Núi Đèo, H. Thủy Nguyên, ",Tp. Hải Phòng,(0225) 3642084                                 , ,,Khoáng Sản - Công Ty Khoáng Sản
176,Công Ty Cổ Phần Khoáng Sản Công Nghiệp Miền Bắc,"Văn Phòng Giao Dịch: Ô Số 11, Lô 1A.1.2, N02 KĐT Mỹ Đình 1, Mỹ Đình, Q. Nam Từ Liêm, ",Hà Nội,"(024) 6295757, 0914 573 223,                  ",info@talcvietnam.com.vn                           ,http://talcvietnam.com.vn,Khoáng Sản - Công Ty Khoáng Sản
177,Công Ty Cổ Phần Khoáng Sản và Xây Dựng Phú Thịnh,"Số 67 Phố Thụy Khuê, Phường Thụy Khuê, Quận Tây Hồ, ",Hà Nội,(024) 7252540                                 ,phuthinh.seles@hotmail.com                        ,http://phuthinhstone.com.vn,Khoáng Sản - Công Ty Khoáng Sản
178,Công Ty TNHH Hội Tụ Quốc Tế,"B23 Trung Hòa, X. Nhân Chính, Q. Thanh Xuân, ",Hà Nội,(024) 35569948                                ,info@afflux.com.vn                                ,http://www.afflux.com.vn,Khoáng Sản - Công Ty Khoáng Sản
179,"Công Ty TNHH Một Thành Viên Khai Thác, Chế Biến, Xuất Khẩu Khoáng Sản Khánh Hòa","248 Thống Nhất, P. Tân Lập, Tp. Nha Trang, ",Khánh Hòa,(0258) 3821282                                 ,minexcokh@dng.vnn.vn                              ,,Khoáng Sản - Công Ty Khoáng Sản
180,Ngọc Quí - Công Ty TNHH Ngọc Quí,"Quốc Lộ 1K, X. Tân Đông Hiệp, H. Dĩ An, ",Bình Dương,(0274) 3729705                                 , ,,Khoáng Sản - Công Ty Khoáng Sản
181,Molybden Việt Nam - Công Ty Cổ Phần Molybden Việt Nam,"738 P. Nhật Tân,Lạc Long Quân, Q. Tây Hồ, ",Hà Nội,(024) 37198888                                , ,,Khoáng Sản - Công Ty Khoáng Sản
182,Công Ty Cổ Phần Xây Dựng Và Thương Mại Lepro Việt Nam,"Phòng 607, Nhà 178T, THNC, Thanh Xuân, Hà Nội ",Tp. Hồ Chí Minh (TPHCM),(028) 5576082                                 ,info@leprocons.com.vn                             ,http://www.leprocons.com.vn,Khoáng Sản - Công Ty Khoáng Sản
183,Công Ty Cổ Phần Khoáng Sản Công Nghiệp Miền Bắc,"Văn Phòng Giao Dịch: Ô Số 11, Lô 1A.1.2, N02 KĐT Mỹ Đình 1, Mỹ Đình, Q. Nam Từ Liêm, ",Hà Nội,"(024) 6295757, 0914 573 223,                  ",info@talcvietnam.com.vn                           ,http://talcvietnam.com.vn,Khoáng Sản - Công Ty Khoáng Sản
184,Công Ty TNHH Xây Dựng Thương Mại Cầu Đường Chơn Thanh,"180 Nguyễn Du, Khu Phố Phú Hưng, P. Phú Thịnh, TX. Bình Long, ",Bình Phước,(0271) 666657                                  ,lethanhcan65@yahoo.com.vn                         ,,Khoáng Sản - Công Ty Khoáng Sản
185,Đường Chân Trời - Công Ty Cổ Phần Đường Chân Trời,"20 Tổ 26,P. Láng Thượng, Q. Đống Đa, ",Hà Nội,(024) 37755870                                , ,,Khoáng Sản - Công Ty Khoáng Sản
186,Công Ty Khoáng Sản Bình Định Việt Nam Malaysia,"160 Trần Hưng Đạo, Tp. Quy Nhơn, ",Bình Định,(0256) 3824784                                 ,bimal@dng.vnn.vn                                  ,,Khoáng Sản - Công Ty Khoáng Sản
187,Doanh Nghiệp Tư Nhân Bảo Việt,"40 Đường 400,ấp Cây Dầu, P. Tân Phú, Q. 9, ",Tp. Hồ Chí Minh (TPHCM),(028) 38967118                                , ,,Khoáng Sản - Công Ty Khoáng Sản
188,KENEE (Việt Nam) - Công Ty TNHH CP KENEE Việt Nam,"541/2 Sư Vạn Hạnh, P. 13, Q. 10, ",Tp. Hồ Chí Minh (TPHCM),(028) 38621508                                ,mail@kenee.com                                    ,http://www.kenee.com,Khoáng Sản - Công Ty Khoáng Sản
189,Hà Thành - Công Ty TNHH Thương Mại & Chế Biến Khoáng Sản Hà Thành,"175 Kim Ngưu, Q. Hai Bà Trưng, ",Hà Nội,(024) 39875796                                , ,,Khoáng Sản - Công Ty Khoáng Sản
190,Duy Ngân - Công Ty TNHH Khoáng Sản Duy Ngân,"Thôn Nhị Dinh 3, X. Điện Phước,H. Điện Bàn, ",Quảng Nam,(0235) 3741887                                 , ,,Khoáng Sản - Công Ty Khoáng Sản
191,Miền Nam - Công Ty Cổ Phần Khai Thác Khoáng Sản & Xây Dựng Miền Nam,"ấp Song Vĩnh, X. Tân Phước,H. Tân Thành, ",Bà Rịa-Vũng Tàu,(0254) 3894603                                 , ,,Khoáng Sản - Công Ty Khoáng Sản
192,Tây Bắc - Công Ty Cổ Phần Xây Dựng Khai Thác Chế Biến Khoáng Sản Tây Bắc,"6B Ngõ 155, Hẻm 37/3,Cầu Giấy, Q. Cầu Giấy, ",Hà Nội,(024) 37671752                                , ,,Khoáng Sản - Công Ty Khoáng Sản
193,Xí Nghiệp Xây Dựng & Thương Mại Quảng Ninh,"55A Lê Thánh Tông, Tp. Hạ Long, ",Quảng Ninh,(0203) 3629284                                 , ,,Khoáng Sản - Công Ty Khoáng Sản
194,Phan Gia Miền Trung - Công Ty Cổ Phần Phan Gia Miền Trung,"Khối 4, TT. Vĩnh Điện,H. Điện Bàn, ",Quảng Nam,(0235) 3867515                                 , ,,Khoáng Sản - Công Ty Khoáng Sản
195,Phan Xi Păng - Công Ty TNHH Xây Dựng Thương Mại Phan Xi Păng,"12B Yên Thế, P. 2, Q. Tân Bình, ",Tp. Hồ Chí Minh (TPHCM),(028) 38486380                                ,pxp@hcm.vnn.vn                                    ,,Khoáng Sản - Công Ty Khoáng Sản
196,Vượng Phúc - Công Ty Cổ Phần Khoáng Sản Vượng Phúc,"30B Đoàn Thị Điểm, P. Quốc Tử Giám, Q. Đống Đa, ",Hà Nội,(024) 22429042                                ,vuongphuc@fpt.vn                                  ,,Khoáng Sản - Công Ty Khoáng Sản
197,Tiến Thành Đạt - Công Ty Cổ Phần Thương Mại Tiến Thành Đạt,"4 Nguyên Hồng, Ngõ 45/10, P. Láng Hạ, Q. Đống Đa, ",Hà Nội,(024) 37717437                                , ,,Khoáng Sản - Công Ty Khoáng Sản
198,Khang Thịnh - Công Ty TNHH Khoáng Sản Khang Thịnh,"5/4 Quốc Lộ 1A, P. Tam Bình, Q. Thủ Đức, ",Tp. Hồ Chí Minh (TPHCM),(028) 38977267                                ,khathico@hcm.vnn.vn                               ,,Khoáng Sản - Công Ty Khoáng Sản
199,Tiến Dũng - Công Ty TNHH Thương Mại Dịch Vụ Khai Thác Chế Biến Khoáng Sản Tiến Dũng,"8/25C Thống Nhất, P. 16, Q. Gò Vấp, ",Tp. Hồ Chí Minh (TPHCM),(028) 38947071                                , ,,Khoáng Sản - Công Ty Khoáng Sản
200,Công Ty TNHH Thái Dương SPS,"23-63 Long Biên, ",Hà Nội,(024) 66512551                                ,thaiduongsps@gmail.com                            ,http://spsquartzstone.com.vn,Khoáng Sản - Công Ty Khoáng Sản
201,Xí Nghiệp Quảng Ninh Hoá Chất Mỏ,"Tp. Hạ Long, ",Quảng Ninh,(0203) 3825349                                 , ,,Khoáng Sản - Công Ty Khoáng Sản
202,Quang Tiến - Công Ty TNHH Một Thành Viên Quang Tiến,"Khu 2, TT. ái Nghĩa, H. Đại Lộc, ",Quảng Nam,(0235) 3865678                                 , ,,Khoáng Sản - Công Ty Khoáng Sản
203,Công Ty Cổ Phần Khai Thác Khoáng Sản Tây Ninh,"15 Võ Thị Sáu, P. 3, TP. Tây Ninh, ",Tây Ninh,(0276) 3818677                                 ,tanimico@yahoo.com.vn                             ,,Khoáng Sản - Công Ty Khoáng Sản
204,Công Ty Rarraprodex Đất Hiếm,"6 Phạm Ngũ Lão, Q. Hoàn Kiếm, ",Hà Nội,(024) 38264694                                , ,,Khoáng Sản - Công Ty Khoáng Sản
205,Công Ty Cổ Phần Khoáng Sản Việt Nam,"Phòng 605, 115 Lê Duẩn, Q. Hai Bà Trưng, ",Hà Nội,(024) 39420675                                ,vina-mine@fpt.vn                                  ,http://www.vina-minejsc.com,Khoáng Sản - Công Ty Khoáng Sản
206,Công Ty Cổ Phần Thương Mại & Hợp Tác Đầu Tư Việt Nam,"92 Phố Đốc Ngữ, Kim Mã, Q. Ba Đình, ",Hà Nội,(024) 37262034                                ,vtic@vietel.com.vn                                ,,Khoáng Sản - Công Ty Khoáng Sản
207,Công Ty Khai Thác Chế Biến Khoáng Sản Xuất Khẩu,"4 Đình Hương, ",Thanh Hóa,(0237) 3961130                                 , ,,Khoáng Sản - Công Ty Khoáng Sản
208,Thủy Tiên - Công Ty TNHH Thương Mại Xây Dựng Dịch Vụ Thủy Tiên,"70/8A Lê Văn Thọ, P. 8, Q. Gò Vấp, ",Tp. Hồ Chí Minh (TPHCM),(028) 39965813                                ,backcat@yahoo.com                                 ,,Khoáng Sản - Công Ty Khoáng Sản
209,Huy Hảo - Công Ty TNHH Sản Xuất Thương Mại Dịch Vụ Huy Hảo,"Thôn Bích Trung, X. Tam Xuân 1, H. Núi Thành, ",Quảng Nam,(0235) 3581188                                 , ,,Khoáng Sản - Công Ty Khoáng Sản
210,Thanh Minh Ngọc - Công Ty TNHH Thanh Minh Ngọc,"Khối 5, TT. Khâm Đức, H. Phước Sơn, ",Quảng Nam,(0235) 3881337                                 , ,,Khoáng Sản - Công Ty Khoáng Sản
211,Thiên Ân - Công Ty TNHH Thiên Ân,"5B Phan Đăng Lưu, P. 3, Tp. Vũng Tàu, ",Bà Rịa-Vũng Tàu,(0254) 3541982                                 ,thienan@hanmail.net                               ,,Khoáng Sản - Công Ty Khoáng Sản
212,Công Ty Kiện Khê Đá Vôi,"TT. Kiện Khê, H. Thanh Liêm, ",Hà Nam,(0226) 3851757                                 , ,,Khoáng Sản - Công Ty Khoáng Sản
213,Tấn Quang - Công Ty TNHH Tấn Quang,"X. Tân Lập,ấp 1, H. Tân Uyên, ",Bình Dương,(0274) 3682121                                 , ,,Khoáng Sản - Công Ty Khoáng Sản
214,Công Ty Cổ Phần Đầu Tư V.E.D.A,"Số 86, Đường Nguyễn Đức Thuận, Tp.Thủ Dầu Một, ",Bình Dương,(0274) 3826411                                 ,Veda@vedaijsc.com                                 ,http://Vedaijsc.com,Khoáng Sản - Công Ty Khoáng Sản
215,Hoàng Hạc - Công Ty TNHH Đầu Tư Kinh Doanh Bất Động Sản & Dịch Vụ Thương Mại Hoàng Hạc,"K64/12 Lê Đình Lý, P. Thạc Gián, Q. Thanh Khê, ",Tp. Đà Nẵng,(0236) 3652029                                 , ,,Khoáng Sản - Công Ty Khoáng Sản
216,Công Ty TNHH Đầu Tư Và Thương Mại Khoáng Sản Thành Phát,"Số 39A, Tổ 9, P. Mộ Lao, Q. Hà Đông, ",Hà Nội,0988377031                              ,khoangsanthanhphat@gmail.com                      ,http://khoangsanthanhphat.com,Khoáng Sản - Công Ty Khoáng Sản
217,Tân Quang Cường - Công Ty TNHH Thương Mại,"343/5S Tô Hiến Thành, P. 12, Q. 10, ",Tp. Hồ Chí Minh (TPHCM),(028) 38628615                                , ,,Khoáng Sản - Công Ty Khoáng Sản
218,Công Ty TNHH Khai Thác Khoáng Sản Tuấn Hùng,"X. Châu Hồng, H. Quỳ Hợp, ",Nghệ An,0976 983 555                            ,tuanha1963@gmail.com                              ,,Khoáng Sản - Công Ty Khoáng Sản
219,Công Ty Phát Triển Khoáng Sản 3,"X. Tản Lĩnh, H. Ba Vì, ",Hà Nội,(024) 3881033                                 , ,,Khoáng Sản - Công Ty Khoáng Sản
220,Trung Ngọc - Công Ty Cổ Phần Thương Mại Và Đầu Tư Khoáng Sản Trung Ngọc,"607 Hoàng Hoa Thám, Q. Ba Đình, ",Hà Nội,(024) 37611352                                ,hvtc_2002@yahoo.com.vn                            ,,Khoáng Sản - Công Ty Khoáng Sản
221,Bến Cát - Công Ty TNHH Thương Mại & Dịch Vụ Bến Cát,"Thôn Mỹ Tây, X. Đại Phong,H. Đại Lộc, ",Quảng Nam,(0235) 3971701                                 , ,,Khoáng Sản - Công Ty Khoáng Sản
222,Công Ty Cổ Phần Quản Lý & Xây Dựng Đường Bộ Khánh Hòa,"Số 01 Phan Bội Châu, P. Hương Xuân, Tp. Nha Trang, ",Khánh Hòa,(0258) 3822256                                 , ,,Khoáng Sản - Công Ty Khoáng Sản
223,Liên Hiệp Khoa Học Địa Chất & Du Lịch,"Phòng 407, C3 P. Thanh Xuân Bắc, Q. Thanh Xuân, ",Hà Nội,(024) 38541747                                , ,,Khoáng Sản - Công Ty Khoáng Sản
224,4 - Công Ty Cổ Phần Phát Triển Khoáng Sản 4,"Xã Mỹ Thượng, Huyện Hưng Lộc, ",Nghệ An,(0238) 3857213                                 , ,,Khoáng Sản - Công Ty Khoáng Sản
225,Phúc Thịnh - Công Ty TNHH Khai Thác & Chế Biến Khoáng Sản Phúc Thịnh,"X. Tân Lập,ấp 1, H. Tân Uyên, ",Bình Dương,(0274) 3682069                                 , ,,Khoáng Sản - Công Ty Khoáng Sản
226,Doanh Nghiệp Tư Nhân Phước Nhân Khoáng Sản,"X. Tân Thành,ấp 5, H. Tân Uyên, ",Bình Dương,(0274) 3656577                                 , ,,Khoáng Sản - Công Ty Khoáng Sản
227,Duy Ngân - Công Ty TNHH Khoáng Sản Duy Ngân,"Thôn Nhị Dinh 3, X. Điện Phước,H. Điện Bàn, ",Quảng Nam,(0235) 3741887                                 , ,,Khoáng Sản - Công Ty Khoáng Sản
228,Công Ty Cổ Phần Khai Thác Khoáng Sản 699 Quảng Nam,"Khối 6, TT. Khâm Đức, H. Phước Sơn, ",Quảng Nam,(0235) 2216612                                 , ,,Khoáng Sản - Công Ty Khoáng Sản
229,5 Sao - Công Ty Cổ Phần Tranh Đá Quý 5 Sao,"51B Quốc Tử Giám, P. Văn Chương, Q. Đống Đa, ",Hà Nội,(024) 35535684                                , ,,Khoáng Sản - Công Ty Khoáng Sản
230,Công Ty TNHH MTV Thiên Nam Sơn,"D11, KP. 8, P. Tân Phong, TP. Biên Hòa, ",Đồng Nai,(0251) 6272444                                 ,namson.petro@gmail.com                            ,http://www.thiennamson.vn,Khoáng Sản - Công Ty Khoáng Sản
231,Công Ty Cổ Phần Cát Phước Bình,"306, ấp 1, Tổ 8, X. Phước Bình, H. Long Thành, ",Đồng Nai,0907230072                              ,dinhsuu_ctcpcpb@yahoo.com.vn                      ,,Khoáng Sản - Công Ty Khoáng Sản
232,Huong Hai Group,"Ô 2, Khu Biệt Thự Cao cấp, Đường Hạ Long, Phường Bãi Cháy, Thành Phố Hạ Long, ",Quảng Ninh,(0203) 3845042                                 ,sales@vietnamlime.com                             ,http://vietnamlime.com,Khoáng Sản - Công Ty Khoáng Sản
233,Cao Bằng - Công Ty Cổ Phần Khoáng Sản & Luyện Kim Cao Bằng,"Kim Đồng, X. Hợp Giang, TX. Cao Bằng, ",Cao Bằng,(0206) 3853102                                 , ,,Khoáng Sản - Công Ty Khoáng Sản
234,Doanh Nghiệp Tư Nhân Nhất Phương Trang Trại & Dịch Vụ Nông Lâm Nghiệp,"Thôn 6, X. Quế Thọ, H. Hiệp Đức, ",Quảng Nam,(0235) 3565939                                 , ,,Khoáng Sản - Công Ty Khoáng Sản
235,Cao Bằng - Công Ty Cổ Phần Khoáng Sản & Luyện Kim Cao Bằng,"Kim Đồng, X. Hợp Giang, TX. Cao Bằng, ",Cao Bằng,(0206) 3853102                                 , ,,Khoáng Sản - Công Ty Khoáng Sản
236,Công Ty Pyrit,"Giáp Lai, P. Gia Thụy, H. Thanh Sơn, ",Phú Thọ,(0210) 3873400                                 , ,,Khoáng Sản - Công Ty Khoáng Sản
237,Công Ty TNHH Đầu Tư Và Thương Mại Khoáng Sản Thành Phát,"Số 39A, Tổ 9, P. Mộ Lao, Q. Hà Đông, ",Hà Nội,0988377031                              ,khoangsanthanhphat@gmail.com                      ,http://khoangsanthanhphat.com,Khoáng Sản - Công Ty Khoáng Sản
238,Công Ty CP Gạch Xây Dựng Và Thương Mại Phú Sỹ Hương,"151, Khai Quang, Vĩnh Yên, ",Vĩnh Phúc,(0211) 3615555                                 ,phusyhuong@phusyhuong.com                         ,http://www.phusyhuong.com,Khoáng Sản - Công Ty Khoáng Sản
239,Thành An - Công Ty TNHH Khoáng Sản Thành An,"01 P. Nguyễn Văn Cừ,Chương Dương, Tp. Quy Nhơn, ",Bình Định,(0256) 3646053                                 , ,,Khoáng Sản - Công Ty Khoáng Sản
240,Công Ty TNHH Xây Dựng Thương Mại Cầu Đường Chơn Thanh,"180 Nguyễn Du, Khu Phố Phú Hưng, P. Phú Thịnh, TX. Bình Long, ",Bình Phước,(0271) 666657                                  ,lethanhcan65@yahoo.com.vn                         ,,Khoáng Sản - Công Ty Khoáng Sản
241,Phan Gia Miền Trung - Công Ty Cổ Phần Phan Gia Miền Trung,"Khối 4, TT. Vĩnh Điện,H. Điện Bàn, ",Quảng Nam,(0235) 3867515                                 , ,,Khoáng Sản - Công Ty Khoáng Sản
242,Mai Hồng - Cty Cổ Phần Xây Dựng & Thương Mại,"Lô 43, Khu Dân Cư Số 1 Nguyễn Huy Tưởng,P. Hòa An, Q. Cẩm Lệ, ",Tp. Đà Nẵng,(0236) 3765254                                 , ,,Khoáng Sản - Công Ty Khoáng Sản
243,Teparak - Công Ty TNHH Quốc Tế Teparak,"4/12 Dốc Bác Cổ, Q. Hoàn Kiếm, ",Hà Nội,(024) 38251156                                , ,,Khoáng Sản - Công Ty Khoáng Sản
244,Hà Thành - Công Ty TNHH Thương Mại & Chế Biến Khoáng Sản Hà Thành,"175 Kim Ngưu, Q. Hai Bà Trưng, ",Hà Nội,(024) 39875796                                , ,,Khoáng Sản - Công Ty Khoáng Sản
245,Công Ty Cổ Phần Khai Thác Khoáng Sản 699 Quảng Nam,"Khối 6, TT. Khâm Đức, H. Phước Sơn, ",Quảng Nam,(0235) 2216612                                 , ,,Khoáng Sản - Công Ty Khoáng Sản
246,Công Ty TNHH Alliance Minerals - VPĐD,"NV-B55 khu ĐTM Trung Hòa Nhân Chính,X. Nhân Chính, Q. Thanh Xuân, ",Hà Nội,(024) 35568761                                ,hanoioffice@allianceminerals.com                  ,,Khoáng Sản - Công Ty Khoáng Sản
247,Thiết Sơn - Công Ty Cổ Phần Tư Vấn Xây Dựng Thiết Sơn,"59 Ông ích Khiêm, Q. Hải Châu, ",Tp. Đà Nẵng,(0236) 3519032                                 , ,http://www.thietson.com.vn,Khoáng Sản - Công Ty Khoáng Sản
248,Đất Quảng Chu Lai - Công Ty Cổ Phần Đất Quảng Chu Lai,"Khối 2,Phạm Văn Đồng, TT. Núi Thành, H. Núi Thành, ",Quảng Nam,(0235) 2244008                                 , ,,Khoáng Sản - Công Ty Khoáng Sản
249,Công Ty Phát Triển Khoáng Sản 3,"X. Tản Lĩnh, H. Ba Vì, ",Hà Nội,(024) 3881033                                 , ,,Khoáng Sản - Công Ty Khoáng Sản
250,Công Ty Cổ Phần Xây Dựng & Đầu Tư Phát Triển Hạ Tầng Đô Thị Hà Nội,"28B/93 Hoàng Văn Thái, P. Khương Trung, Q. Thanh Xuân, ",Hà Nội,(024) 35658245                                , ,,Khoáng Sản - Công Ty Khoáng Sản
251,Công Ty Cổ Phần Nông Cao,"Quyết Thắng, TP. Thái Nguyên, ",Thái Nguyên,0913881961                              ,nongcaotn@gmail.com                               ,,Khoáng Sản - Công Ty Khoáng Sản
252,Hoàng Hạc - Công Ty TNHH Đầu Tư Kinh Doanh Bất Động Sản & Dịch Vụ Thương Mại Hoàng Hạc,"K64/12 Lê Đình Lý, P. Thạc Gián, Q. Thanh Khê, ",Tp. Đà Nẵng,(0236) 3652029                                 , ,,Khoáng Sản - Công Ty Khoáng Sản
253,Thành Lộc Sơn - Công Ty TNHH Thành Lộc Sơn,"TT. Khâm Đức, H. Phước Sơn,Khối 6, ",Quảng Nam,(0235) 3881711                                 , ,,Khoáng Sản - Công Ty Khoáng Sản
254,Thành Tâm - Công Ty Cổ Phần Thành Tâm,"Thôn Khánh Thọ,X. Tam Thái, H. Phú Ninh, ",Quảng Nam,(0235) 6272792                                 , ,,Khoáng Sản - Công Ty Khoáng Sản
255,Anh Quân - Công Ty TNHH Anh Quân,"256 P. An Mỹ,Phan Chu Trinh, Tp. Tam Kỳ, ",Quảng Nam,(0235) 3812323                                 , ,,Khoáng Sản - Công Ty Khoáng Sản
256,Đông Bắc - Công Ty Cổ Phần Xây Dựng Thương Mại & Khoáng Sản Đông Bắc,"10N1 Hoàng Cầu, Q. Đống Đa, ",Hà Nội,(024) 35130384                                , ,,Khoáng Sản - Công Ty Khoáng Sản
257,Đức Vinh - Công Ty Cổ Phần Phát Triển Đức Vinh,"49 Hòa Bình, Q. Đống Đa, ",Hà Nội,(024) 38511612                                , ,,Khoáng Sản - Công Ty Khoáng Sản
258,Doanh Nghiệp Tư Nhân Phước Nhân Khoáng Sản,"X. Tân Thành,ấp 5, H. Tân Uyên, ",Bình Dương,(0274) 3656577                                 , ,,Khoáng Sản - Công Ty Khoáng Sản
259,Doanh Nghiệp Tư Nhân Bảo Việt,"40 Đường 400,ấp Cây Dầu, P. Tân Phú, Q. 9, ",Tp. Hồ Chí Minh (TPHCM),(028) 38967118                                , ,,Khoáng Sản - Công Ty Khoáng Sản
260,Công Ty Cổ Phần Thương Mại - Xây Dựng Đầu Tư Địa ốc Đất Thủ,"1/88 Đại Lộ Bình Dương, Thuận Giao, Thuận An, ",Bình Dương,(0274) 6555568                                 ,trungtamnhadatvietnam@gmail.com                   ,,Khoáng Sản - Công Ty Khoáng Sản
261,Đồng Thiện - Công Ty Cổ Phần Đồng Thiện,"21/26 Nguyễn Thiện Thuật, P. 2, Q. 3, ",Tp. Hồ Chí Minh (TPHCM),(028) 38325171                                , ,,Khoáng Sản - Công Ty Khoáng Sản
262,Huong Hai Group,"Ô 2, Khu Biệt Thự Cao cấp, Đường Hạ Long, Phường Bãi Cháy, Thành Phố Hạ Long, ",Quảng Ninh,(0203) 3845042                                 ,sales@vietnamlime.com                             ,http://vietnamlime.com,Khoáng Sản - Công Ty Khoáng Sản
263,Thanh Lâm - Công Ty TNHH Thanh Lâm,"115B ấp Nội Hóa, X. Bình An, H. Dĩ An, ",Bình Dương,(0274) 3751507                                 , ,,Khoáng Sản - Công Ty Khoáng Sản
264,Phúc Thịnh - Công Ty TNHH Khai Thác & Chế Biến Khoáng Sản Phúc Thịnh,"X. Tân Lập,ấp 1, H. Tân Uyên, ",Bình Dương,(0274) 3682069                                 , ,,Khoáng Sản - Công Ty Khoáng Sản
265,Phương Đông - Công Ty TNHH Một Thành Viên Phương Đông,"Thôn Tích Phú, X. Đại Hiệp,H. Đại Lộc, ",Quảng Nam,(0235) 3762110                                 , ,,Khoáng Sản - Công Ty Khoáng Sản
266,Huy Hảo - Công Ty TNHH Sản Xuất Thương Mại Dịch Vụ Huy Hảo,"Thôn Bích Trung, X. Tam Xuân 1, H. Núi Thành, ",Quảng Nam,(0235) 3581188                                 , ,,Khoáng Sản - Công Ty Khoáng Sản
267,Miền Đông - Công Ty TNHH Khoáng Sản Miền Đông,"Đường 46, TT. Phú Mỹ, H. Tân Thành, ",Bà Rịa-Vũng Tàu,(0254) 3893750                                 , ,,Khoáng Sản - Công Ty Khoáng Sản
268,Phương Bắc - Công Ty Cổ Phần Khoáng Sản & Vận Tải Phương Bắc,"21B Nguyễn Hữu Cảnh, P. 19, Q. Bình Thạnh, ",Tp. Hồ Chí Minh (TPHCM),(028) 35141331                                ,norstarvn@vnn.vn                                  ,,Khoáng Sản - Công Ty Khoáng Sản
269,Công Ty TNHH Thương Mại Nam Vỹ,"Số 1/40 Lâm Tường, P. Hồ Nam, Q. Lê Chân, ",Tp. Hải Phòng,(0225) 3744139                                 ,namvyhaiphong@gmail.com                           ,,Khoáng Sản - Công Ty Khoáng Sản
270,Hóa Trường Giang - Cty Cổ Phần Xuất Nhập Khẩu Thương Mại Sản Xuất Khoáng Sản,"143/23/2T Phan Anh, P. Bình Trị Đông, Q. Bình Tân, ",Tp. Hồ Chí Minh (TPHCM),(028) 39615640                                , ,,Khoáng Sản - Công Ty Khoáng Sản
271,KENEE (Việt Nam) - Công Ty TNHH CP KENEE Việt Nam,"541/2 Sư Vạn Hạnh, P. 13, Q. 10, ",Tp. Hồ Chí Minh (TPHCM),(028) 38621508                                ,mail@kenee.com                                    ,http://www.kenee.com,Khoáng Sản - Công Ty Khoáng Sản
272,Vpđd - Công Ty Cổ Phần Phát Triển Khoáng Sản 6,"136 Hồ Bá Kiện, P. 15, Q. 10, ",Tp. Hồ Chí Minh (TPHCM),(028) 39707485                                , ,,Khoáng Sản - Công Ty Khoáng Sản
273,Công Ty Việt Nam Resource - VPĐD,"25 Nguyễn Khắc Hiếu, Q. Ba Đình, ",Hà Nội,(024) 37150170                                , ,,Khoáng Sản - Công Ty Khoáng Sản
274,Cúc Phương - Vpđd Công ty TNHH Nước Khoáng Cúc Phương,"179 Hoàng Văn Thái, Q. Thanh Xuân, ",Hà Nội,(024) 35652395                                , ,http://www.cucphuong.com,Khoáng Sản - Công Ty Khoáng Sản
275,Liên Hiệp Khoa Học Địa Chất & Du Lịch,"Phòng 407, C3 P. Thanh Xuân Bắc, Q. Thanh Xuân, ",Hà Nội,(024) 38541747                                , ,,Khoáng Sản - Công Ty Khoáng Sản
276,Tiến Thành Đạt - Công Ty Cổ Phần Thương Mại Tiến Thành Đạt,"4 Nguyên Hồng, Ngõ 45/10, P. Láng Hạ, Q. Đống Đa, ",Hà Nội,(024) 37717437                                , ,,Khoáng Sản - Công Ty Khoáng Sản
277,Công Ty Khoáng Sản Bình Định Việt Nam Malaysia,"160 Trần Hưng Đạo, Tp. Quy Nhơn, ",Bình Định,(0256) 3824784                                 ,bimal@dng.vnn.vn                                  ,,Khoáng Sản - Công Ty Khoáng Sản
278,Phan Xi Păng - Công Ty TNHH Xây Dựng Thương Mại Phan Xi Păng,"12B Yên Thế, P. 2, Q. Tân Bình, ",Tp. Hồ Chí Minh (TPHCM),(028) 38486380                                ,pxp@hcm.vnn.vn                                    ,,Khoáng Sản - Công Ty Khoáng Sản
279,Tân Quang Cường - Công Ty TNHH Thương Mại,"343/5S Tô Hiến Thành, P. 12, Q. 10, ",Tp. Hồ Chí Minh (TPHCM),(028) 38628615                                , ,,Khoáng Sản - Công Ty Khoáng Sản
280,Thành An - Công Ty TNHH Khoáng Sản Thành An,"01 P. Nguyễn Văn Cừ,Chương Dương, Tp. Quy Nhơn, ",Bình Định,(0256) 3646053                                 , ,,Khoáng Sản - Công Ty Khoáng Sản
281,Tâm Đức - Công Ty TNHH Tâm Đức,"241 P. An Sơn,Trần Cao Vân, Tp. Tam Kỳ, ",Quảng Nam,(0235) 3859210                                 , ,,Khoáng Sản - Công Ty Khoáng Sản
282,Nhật - Công Ty TNHH Một Thành Viên Nhật,"Thôn Bà Rén, X. Quế Xuân 1,H. Quế Sơn, ",Quảng Nam,(0235) 3886581                                 , ,,Khoáng Sản - Công Ty Khoáng Sản
283,Thủy Tiên - Công Ty TNHH Thương Mại Xây Dựng Dịch Vụ Thủy Tiên,"70/8A Lê Văn Thọ, P. 8, Q. Gò Vấp, ",Tp. Hồ Chí Minh (TPHCM),(028) 39965813                                ,backcat@yahoo.com                                 ,,Khoáng Sản - Công Ty Khoáng Sản
284,Công Ty Việt Nam Resource - VPĐD,"25 Nguyễn Khắc Hiếu, Q. Ba Đình, ",Hà Nội,(024) 37150170                                , ,,Khoáng Sản - Công Ty Khoáng Sản
285,Đại Phúc - Công Ty TNHH Đại Phúc,"Thôn Tân An, X. Đại Lãnh,H. Đại Lộc, ",Quảng Nam,(0235) 3774999                                 , ,,Khoáng Sản - Công Ty Khoáng Sản
286,Thanh Minh Ngọc - Công Ty TNHH Thanh Minh Ngọc,"Khối 5, TT. Khâm Đức, H. Phước Sơn, ",Quảng Nam,(0235) 3881337                                 , ,,Khoáng Sản - Công Ty Khoáng Sản
287,Daeshin - Vpđd Công ty TNHH Daeshin,"Phòng 308, Tháp V, 649 Kim Mã, Q. Ba Đình, ",Hà Nội,(024) 37665572                                ,trungnm@gmail.com                                 ,,Khoáng Sản - Công Ty Khoáng Sản
288,Công Ty Cổ Phần Nông Cao,"Quyết Thắng, TP. Thái Nguyên, ",Thái Nguyên,0913881961                              ,nongcaotn@gmail.com                               ,,Khoáng Sản - Công Ty Khoáng Sản
289,Ninh Hà - Công Ty TNHH Ninh Hà,"844D Quốc Lộ 52, P. Hiệp Phú, Q. 9, ",Tp. Hồ Chí Minh (TPHCM),(028) 37308543                                , ,,Khoáng Sản - Công Ty Khoáng Sản
290,4 - Công Ty Cổ Phần Phát Triển Khoáng Sản 4,"Xã Mỹ Thượng, Huyện Hưng Lộc, ",Nghệ An,(0238) 3857213                                 , ,,Khoáng Sản - Công Ty Khoáng Sản
291,Vạn Xuân - Công Ty Cổ Phần Đầu Tư Vạn Xuân,"263 Trần Đăng Ninh, P. Dịch Vọng, Q. Cầu Giấy, ",Hà Nội,(024) 37545069                                ,cduong@hn.vnn.vn                                  ,,Khoáng Sản - Công Ty Khoáng Sản
292,Hiệp Lực - Công Ty Cổ Phần Khoáng Sản Hiệp Lực,"ấp Lò Voi, P. Phước Hưng, H. Long Điền, ",Bà Rịa-Vũng Tàu,(0254) 3671976                                 , ,,Khoáng Sản - Công Ty Khoáng Sản
293,Công Ty TNHH MTV Đầu Tư Và Kinh Doanh Khoáng Sản Vinaconex,"75 Lê Hồng Phong, P. 7, Tp. Vũng Tàu, ",Bà Rịa-Vũng Tàu,(0254) 3851406                                 ,vinaconexkhoangsan_75@yahoo.com                   ,http://www.khoangsanvinaconex.com.vn,Khoáng Sản - Công Ty Khoáng Sản
294,Công Ty TNHH Thái Dương SPS,"23-63 Long Biên, ",Hà Nội,(024) 66512551                                ,thaiduongsps@gmail.com                            ,http://spsquartzstone.com.vn,Khoáng Sản - Công Ty Khoáng Sản
295,Công Ty Cổ Phần ECOTECH Việt Nam,"Lô 58, TT4, KĐT Mới Mỹ Đình, Mễ Trì, Từ Liêm, ",Hà Nội,(024) 3787045                                 ,info@ecotech.vn                                   ,http://www.ecotech.vn,Khoáng Sản - Công Ty Khoáng Sản
296,Công Ty TNHH MTV Thiên Nam Sơn,"D11, KP. 8, P. Tân Phong, TP. Biên Hòa, ",Đồng Nai,(0251) 6272444                                 ,namson.petro@gmail.com                            ,http://www.thiennamson.vn,Khoáng Sản - Công Ty Khoáng Sản
297,Duy Ngân - Công Ty TNHH Khoáng Sản Duy Ngân,"Thôn Nhị Dinh 3, X. Điện Phước,H. Điện Bàn, ",Quảng Nam,(0235) 3741887                                 , ,,Khoáng Sản - Công Ty Khoáng Sản
298,Mangan Cao Bằng - Công Ty Cổ Phần Mangan Cao Bằng,"Sông Bang, TX. Cao Bằng, ",Cao Bằng,(0206) 3854671                                 , ,,Khoáng Sản - Công Ty Khoáng Sản
299,Miền Đông - Công Ty TNHH Khoáng Sản Miền Đông,"Đường 46, TT. Phú Mỹ, H. Tân Thành, ",Bà Rịa-Vũng Tàu,(0254) 3893750                                 , ,,Khoáng Sản - Công Ty Khoáng Sản
300,Doanh Nghiệp Tư Nhân Phước Nhân Khoáng Sản,"X. Tân Thành,ấp 5, H. Tân Uyên, ",Bình Dương,(0274) 3656577                                 , ,,Khoáng Sản - Công Ty Khoáng Sản
301,Đức Vinh - Công Ty Cổ Phần Phát Triển Đức Vinh,"49 Hòa Bình, Q. Đống Đa, ",Hà Nội,(024) 38511612                                , ,,Khoáng Sản - Công Ty Khoáng Sản
302,Kỷ Tâm Nông Sơn - Công Ty Cổ Phần Kỷ Tâm Nông Sơn,"H. Nông Sơn,Thôn 3, X. Quế Trung, ",Quảng Nam,(0235) 3505034                                 , ,,Khoáng Sản - Công Ty Khoáng Sản
303,Tấn Phát - Công Ty TNHH Tấn Phát,"196 P. Ngô Mây,Diên Hồng, Tp. Quy Nhơn, ",Bình Định,(0256) 3522633                                 , ,,Khoáng Sản - Công Ty Khoáng Sản
304,Phương Đông - Công Ty TNHH Một Thành Viên Phương Đông,"Thôn Tích Phú, X. Đại Hiệp,H. Đại Lộc, ",Quảng Nam,(0235) 3762110                                 , ,,Khoáng Sản - Công Ty Khoáng Sản
305,Công Ty Cổ Phần Địa Chất Và Khoáng Sản Hà Nội,"40 Ngõ 155,Nguyễn Khang, Q. Cầu Giấy, ",Hà Nội,(024) 37840209                                , ,,Khoáng Sản - Công Ty Khoáng Sản
306,Phúc Thịnh - Công Ty TNHH Khai Thác & Chế Biến Khoáng Sản Phúc Thịnh,"X. Tân Lập,ấp 1, H. Tân Uyên, ",Bình Dương,(0274) 3682069                                 , ,,Khoáng Sản - Công Ty Khoáng Sản
307,TKV - Công Ty Cổ Phần Địa ốc Khoáng Sản TKV,"562 Nguyễn Văn Cừ, Q. Long Biên, ",Hà Nội,(024) 38770010                                ,vimico@hn.vnn.vn                                  ,,Khoáng Sản - Công Ty Khoáng Sản
308,Teparak - Công Ty TNHH Quốc Tế Teparak,"4/12 Dốc Bác Cổ, Q. Hoàn Kiếm, ",Hà Nội,(024) 38251156                                , ,,Khoáng Sản - Công Ty Khoáng Sản
309,Công Ty TNHH Xây Dựng Thương Mại Cầu Đường Chơn Thanh,"180 Nguyễn Du, Khu Phố Phú Hưng, P. Phú Thịnh, TX. Bình Long, ",Bình Phước,(0271) 666657                                  ,lethanhcan65@yahoo.com.vn                         ,,Khoáng Sản - Công Ty Khoáng Sản
310,Xí Nghiệp Quảng Ninh Hoá Chất Mỏ,"Tp. Hạ Long, ",Quảng Ninh,(0203) 3825349                                 , ,,Khoáng Sản - Công Ty Khoáng Sản
311,Công Ty Cổ Phần Xây Dựng & Đầu Tư Phát Triển Hạ Tầng Đô Thị Hà Nội,"28B/93 Hoàng Văn Thái, P. Khương Trung, Q. Thanh Xuân, ",Hà Nội,(024) 35658245                                , ,,Khoáng Sản - Công Ty Khoáng Sản
312,Tân Quang Cường - Công Ty TNHH Thương Mại,"343/5S Tô Hiến Thành, P. 12, Q. 10, ",Tp. Hồ Chí Minh (TPHCM),(028) 38628615                                , ,,Khoáng Sản - Công Ty Khoáng Sản
313,Công Ty Khai Thác Chế Biến Khoáng Sản Xuất Khẩu,"4 Đình Hương, ",Thanh Hóa,(0237) 3961130                                 , ,,Khoáng Sản - Công Ty Khoáng Sản
314,Tường Phú - Công Ty TNHH Xây Dựng Thương Mại & Xuất Nhập Khẩu Tường Phú,"62/22 Đinh Bộ Lĩnh, P. 26, Q. Bình Thạnh, ",Tp. Hồ Chí Minh (TPHCM),(028) 35113763                                , ,,Khoáng Sản - Công Ty Khoáng Sản
315,Thuận Phú-Bình Định - Công Ty TNHH Khoáng Sản Thuận Phú-Bình Định,"43 Lê Quý Đôn, Tp. Quy Nhơn, ",Bình Định,(0256) 3818258                                 , ,,Khoáng Sản - Công Ty Khoáng Sản
316,Thành Tâm - Công Ty Cổ Phần Thành Tâm,"Thôn Khánh Thọ,X. Tam Thái, H. Phú Ninh, ",Quảng Nam,(0235) 6272792                                 , ,,Khoáng Sản - Công Ty Khoáng Sản
317,Công Ty CP Khoáng Sản Phương Nam,"106 Văn Cao, Q. Ngô Quyền, ",Tp. Hải Phòng,0944668868                              ,trungvu68@gmail.com                               ,http://khoangsanphuongnam.com,Khoáng Sản - Công Ty Khoáng Sản
318,Alatca - Công Ty Cổ Phần Alatca,"4A Láng Hạ, Q. Đống Đa, ",Hà Nội,(024) 37725361                                ,caominh@khoangsanalatca.com                       ,,Khoáng Sản - Công Ty Khoáng Sản
319,Vpđd - Công Ty Cổ Phần Phát Triển Khoáng Sản 6,"136 Hồ Bá Kiện, P. 15, Q. 10, ",Tp. Hồ Chí Minh (TPHCM),(028) 39707485                                , ,,Khoáng Sản - Công Ty Khoáng Sản
320,Vĩnh Toàn - Công Ty TNHH Một Thành Viên Vĩnh Toàn,"Khối 7, TT. Khâm Đức, H. Phước Sơn, ",Quảng Nam,(0235) 3881555                                 , ,,Khoáng Sản - Công Ty Khoáng Sản
321,Công Ty TNHH Đầu Tư Và Thương Mại Khoáng Sản Thành Phát,"Số 39A, Tổ 9, P. Mộ Lao, Q. Hà Đông, ",Hà Nội,0988377031                              ,khoangsanthanhphat@gmail.com                      ,http://khoangsanthanhphat.com,Khoáng Sản - Công Ty Khoáng Sản
322,Công Ty Cổ Phần Khai Thác Khoáng Sản Tây Ninh,"15 Võ Thị Sáu, P. 3, TP. Tây Ninh, ",Tây Ninh,(0276) 3818677                                 ,tanimico@yahoo.com.vn                             ,,Khoáng Sản - Công Ty Khoáng Sản
323,Đất Quảng Chu Lai - Công Ty Cổ Phần Đất Quảng Chu Lai,"Khối 2,Phạm Văn Đồng, TT. Núi Thành, H. Núi Thành, ",Quảng Nam,(0235) 2244008                                 , ,,Khoáng Sản - Công Ty Khoáng Sản
324,Công Ty Rarraprodex Đất Hiếm,"6 Phạm Ngũ Lão, Q. Hoàn Kiếm, ",Hà Nội,(024) 38264694                                , ,,Khoáng Sản - Công Ty Khoáng Sản
